; wireprint.py  shape=grid  levels=3  level_h=3.5
; height 11.2 mm, filament 0.11 m, est. time 3 min
; ---- start (Bambu Lab A1 mini) ----
; filament must already be loaded in the external spool / AMS lite slot in use
G90 ; absolute XYZ
M83 ; relative E
M140 S60
M104 S150 ; warm nozzle without oozing while homing
G28 ; home all axes
M190 S60
M109 S220
M106 P1 S0
G0 Z2 F600
G0 X20 Y3 F6000
G1 Z0.3 F600
G1 X100 Y3 E8 F1200 ; prime line along the front edge
G1 X100 Y3.5 F1200
G1 X20 Y3.5 E6 F1200
G1 E-0.8 F2400
G0 Z2 F600
; BASE layer 1
G0 X20.000 Y3.500 Z3.000 F1200
G0 X82.000 Y82.000 Z3.000 F4800
G0 X82.000 Y82.000 Z0.250 F1200
G1 E0.800 F1800
G1 X98.000 Y82.000 Z0.250 E0.74835 F900
G1 X98.000 Y98.000 Z0.250 E0.74835 F900
G1 X82.000 Y98.000 Z0.250 E0.74835 F900
G1 X82.000 Y82.000 Z0.250 E0.74835 F900
G1 E-0.800 F2400
G0 X82.000 Y82.000 Z1.250 F1200
G0 X82.450 Y82.450 Z1.250 F4800
G0 X82.450 Y82.450 Z0.250 F1200
G1 E0.800 F1800
G1 X82.450 Y97.550 Z0.250 E0.70626 F900
G1 X82.900 Y97.550 Z0.250 E0.02105 F900
G1 X82.900 Y82.450 Z0.250 E0.70626 F900
G1 X83.350 Y82.450 Z0.250 E0.02105 F900
G1 X83.350 Y97.550 Z0.250 E0.70626 F900
G1 X83.800 Y97.550 Z0.250 E0.02105 F900
G1 X83.800 Y82.450 Z0.250 E0.70626 F900
G1 X84.250 Y82.450 Z0.250 E0.02105 F900
G1 X84.250 Y97.550 Z0.250 E0.70626 F900
G1 X84.700 Y97.550 Z0.250 E0.02105 F900
G1 X84.700 Y82.450 Z0.250 E0.70626 F900
G1 X85.150 Y82.450 Z0.250 E0.02105 F900
G1 X85.150 Y97.550 Z0.250 E0.70626 F900
G1 X85.600 Y97.550 Z0.250 E0.02105 F900
G1 X85.600 Y82.450 Z0.250 E0.70626 F900
G1 X86.050 Y82.450 Z0.250 E0.02105 F900
G1 X86.050 Y97.550 Z0.250 E0.70626 F900
G1 X86.500 Y97.550 Z0.250 E0.02105 F900
G1 X86.500 Y82.450 Z0.250 E0.70626 F900
G1 X86.950 Y82.450 Z0.250 E0.02105 F900
G1 X86.950 Y97.550 Z0.250 E0.70626 F900
G1 X87.400 Y97.550 Z0.250 E0.02105 F900
G1 X87.400 Y82.450 Z0.250 E0.70626 F900
G1 X87.850 Y82.450 Z0.250 E0.02105 F900
G1 X87.850 Y97.550 Z0.250 E0.70626 F900
G1 X88.300 Y97.550 Z0.250 E0.02105 F900
G1 X88.300 Y82.450 Z0.250 E0.70626 F900
G1 X88.750 Y82.450 Z0.250 E0.02105 F900
G1 X88.750 Y97.550 Z0.250 E0.70626 F900
G1 X89.200 Y97.550 Z0.250 E0.02105 F900
G1 X89.200 Y82.450 Z0.250 E0.70626 F900
G1 X89.650 Y82.450 Z0.250 E0.02105 F900
G1 X89.650 Y97.550 Z0.250 E0.70626 F900
G1 X90.100 Y97.550 Z0.250 E0.02105 F900
G1 X90.100 Y82.450 Z0.250 E0.70626 F900
G1 X90.550 Y82.450 Z0.250 E0.02105 F900
G1 X90.550 Y97.550 Z0.250 E0.70626 F900
G1 X91.000 Y97.550 Z0.250 E0.02105 F900
G1 X91.000 Y82.450 Z0.250 E0.70626 F900
G1 X91.450 Y82.450 Z0.250 E0.02105 F900
G1 X91.450 Y97.550 Z0.250 E0.70626 F900
G1 X91.900 Y97.550 Z0.250 E0.02105 F900
G1 X91.900 Y82.450 Z0.250 E0.70626 F900
G1 X92.350 Y82.450 Z0.250 E0.02105 F900
G1 X92.350 Y97.550 Z0.250 E0.70626 F900
G1 X92.800 Y97.550 Z0.250 E0.02105 F900
G1 X92.800 Y82.450 Z0.250 E0.70626 F900
G1 X93.250 Y82.450 Z0.250 E0.02105 F900
G1 X93.250 Y97.550 Z0.250 E0.70626 F900
G1 X93.700 Y97.550 Z0.250 E0.02105 F900
G1 X93.700 Y82.450 Z0.250 E0.70626 F900
G1 X94.150 Y82.450 Z0.250 E0.02105 F900
G1 X94.150 Y97.550 Z0.250 E0.70626 F900
G1 X94.600 Y97.550 Z0.250 E0.02105 F900
G1 X94.600 Y82.450 Z0.250 E0.70626 F900
G1 X95.050 Y82.450 Z0.250 E0.02105 F900
G1 X95.050 Y97.550 Z0.250 E0.70626 F900
G1 X95.500 Y97.550 Z0.250 E0.02105 F900
G1 X95.500 Y82.450 Z0.250 E0.70626 F900
G1 X95.950 Y82.450 Z0.250 E0.02105 F900
G1 X95.950 Y97.550 Z0.250 E0.70626 F900
G1 X96.400 Y97.550 Z0.250 E0.02105 F900
G1 X96.400 Y82.450 Z0.250 E0.70626 F900
G1 X96.850 Y82.450 Z0.250 E0.02105 F900
G1 X96.850 Y97.550 Z0.250 E0.70626 F900
G1 X97.300 Y97.550 Z0.250 E0.02105 F900
G1 X97.300 Y82.450 Z0.250 E0.70626 F900
G1 X97.750 Y82.450 Z0.250 E0.02105 F900
G1 X97.750 Y97.550 Z0.250 E0.70626 F900
; BASE layer 2
M106 P1 S128
G1 E-0.800 F2400
G0 X97.750 Y97.550 Z1.500 F1200
G0 X82.000 Y82.000 Z1.500 F4800
G0 X82.000 Y82.000 Z0.500 F1200
G1 E0.800 F1800
G1 X98.000 Y82.000 Z0.500 E0.74835 F1500
G1 X98.000 Y98.000 Z0.500 E0.74835 F1500
G1 X82.000 Y98.000 Z0.500 E0.74835 F1500
G1 X82.000 Y82.000 Z0.500 E0.74835 F1500
G1 E-0.800 F2400
G0 X82.000 Y82.000 Z1.500 F1200
G0 X82.450 Y82.450 Z1.500 F4800
G0 X82.450 Y82.450 Z0.500 F1200
G1 E0.800 F1800
G1 X97.550 Y82.450 Z0.500 E0.70626 F1500
G1 X97.550 Y82.900 Z0.500 E0.02105 F1500
G1 X82.450 Y82.900 Z0.500 E0.70626 F1500
G1 X82.450 Y83.350 Z0.500 E0.02105 F1500
G1 X97.550 Y83.350 Z0.500 E0.70626 F1500
G1 X97.550 Y83.800 Z0.500 E0.02105 F1500
G1 X82.450 Y83.800 Z0.500 E0.70626 F1500
G1 X82.450 Y84.250 Z0.500 E0.02105 F1500
G1 X97.550 Y84.250 Z0.500 E0.70626 F1500
G1 X97.550 Y84.700 Z0.500 E0.02105 F1500
G1 X82.450 Y84.700 Z0.500 E0.70626 F1500
G1 X82.450 Y85.150 Z0.500 E0.02105 F1500
G1 X97.550 Y85.150 Z0.500 E0.70626 F1500
G1 X97.550 Y85.600 Z0.500 E0.02105 F1500
G1 X82.450 Y85.600 Z0.500 E0.70626 F1500
G1 X82.450 Y86.050 Z0.500 E0.02105 F1500
G1 X97.550 Y86.050 Z0.500 E0.70626 F1500
G1 X97.550 Y86.500 Z0.500 E0.02105 F1500
G1 X82.450 Y86.500 Z0.500 E0.70626 F1500
G1 X82.450 Y86.950 Z0.500 E0.02105 F1500
G1 X97.550 Y86.950 Z0.500 E0.70626 F1500
G1 X97.550 Y87.400 Z0.500 E0.02105 F1500
G1 X82.450 Y87.400 Z0.500 E0.70626 F1500
G1 X82.450 Y87.850 Z0.500 E0.02105 F1500
G1 X97.550 Y87.850 Z0.500 E0.70626 F1500
G1 X97.550 Y88.300 Z0.500 E0.02105 F1500
G1 X82.450 Y88.300 Z0.500 E0.70626 F1500
G1 X82.450 Y88.750 Z0.500 E0.02105 F1500
G1 X97.550 Y88.750 Z0.500 E0.70626 F1500
G1 X97.550 Y89.200 Z0.500 E0.02105 F1500
G1 X82.450 Y89.200 Z0.500 E0.70626 F1500
G1 X82.450 Y89.650 Z0.500 E0.02105 F1500
G1 X97.550 Y89.650 Z0.500 E0.70626 F1500
G1 X97.550 Y90.100 Z0.500 E0.02105 F1500
G1 X82.450 Y90.100 Z0.500 E0.70626 F1500
G1 X82.450 Y90.550 Z0.500 E0.02105 F1500
G1 X97.550 Y90.550 Z0.500 E0.70626 F1500
G1 X97.550 Y91.000 Z0.500 E0.02105 F1500
G1 X82.450 Y91.000 Z0.500 E0.70626 F1500
G1 X82.450 Y91.450 Z0.500 E0.02105 F1500
G1 X97.550 Y91.450 Z0.500 E0.70626 F1500
G1 X97.550 Y91.900 Z0.500 E0.02105 F1500
G1 X82.450 Y91.900 Z0.500 E0.70626 F1500
G1 X82.450 Y92.350 Z0.500 E0.02105 F1500
G1 X97.550 Y92.350 Z0.500 E0.70626 F1500
G1 X97.550 Y92.800 Z0.500 E0.02105 F1500
G1 X82.450 Y92.800 Z0.500 E0.70626 F1500
G1 X82.450 Y93.250 Z0.500 E0.02105 F1500
G1 X97.550 Y93.250 Z0.500 E0.70626 F1500
G1 X97.550 Y93.700 Z0.500 E0.02105 F1500
G1 X82.450 Y93.700 Z0.500 E0.70626 F1500
G1 X82.450 Y94.150 Z0.500 E0.02105 F1500
G1 X97.550 Y94.150 Z0.500 E0.70626 F1500
G1 X97.550 Y94.600 Z0.500 E0.02105 F1500
G1 X82.450 Y94.600 Z0.500 E0.70626 F1500
G1 X82.450 Y95.050 Z0.500 E0.02105 F1500
G1 X97.550 Y95.050 Z0.500 E0.70626 F1500
G1 X97.550 Y95.500 Z0.500 E0.02105 F1500
G1 X82.450 Y95.500 Z0.500 E0.70626 F1500
G1 X82.450 Y95.950 Z0.500 E0.02105 F1500
G1 X97.550 Y95.950 Z0.500 E0.70626 F1500
G1 X97.550 Y96.400 Z0.500 E0.02105 F1500
G1 X82.450 Y96.400 Z0.500 E0.70626 F1500
G1 X82.450 Y96.850 Z0.500 E0.02105 F1500
G1 X97.550 Y96.850 Z0.500 E0.70626 F1500
G1 X97.550 Y97.300 Z0.500 E0.02105 F1500
G1 X82.450 Y97.300 Z0.500 E0.70626 F1500
G1 X82.450 Y97.750 Z0.500 E0.02105 F1500
G1 X97.550 Y97.750 Z0.500 E0.70626 F1500
; BASE layer 3
G1 E-0.800 F2400
G0 X97.550 Y97.750 Z1.750 F1200
G0 X82.000 Y82.000 Z1.750 F4800
G0 X82.000 Y82.000 Z0.750 F1200
G1 E0.800 F1800
G1 X98.000 Y82.000 Z0.750 E0.74835 F1500
G1 X98.000 Y98.000 Z0.750 E0.74835 F1500
G1 X82.000 Y98.000 Z0.750 E0.74835 F1500
G1 X82.000 Y82.000 Z0.750 E0.74835 F1500
G1 E-0.800 F2400
G0 X82.000 Y82.000 Z1.750 F1200
G0 X82.450 Y82.450 Z1.750 F4800
G0 X82.450 Y82.450 Z0.750 F1200
G1 E0.800 F1800
G1 X82.450 Y97.550 Z0.750 E0.70626 F1500
G1 X82.900 Y97.550 Z0.750 E0.02105 F1500
G1 X82.900 Y82.450 Z0.750 E0.70626 F1500
G1 X83.350 Y82.450 Z0.750 E0.02105 F1500
G1 X83.350 Y97.550 Z0.750 E0.70626 F1500
G1 X83.800 Y97.550 Z0.750 E0.02105 F1500
G1 X83.800 Y82.450 Z0.750 E0.70626 F1500
G1 X84.250 Y82.450 Z0.750 E0.02105 F1500
G1 X84.250 Y97.550 Z0.750 E0.70626 F1500
G1 X84.700 Y97.550 Z0.750 E0.02105 F1500
G1 X84.700 Y82.450 Z0.750 E0.70626 F1500
G1 X85.150 Y82.450 Z0.750 E0.02105 F1500
G1 X85.150 Y97.550 Z0.750 E0.70626 F1500
G1 X85.600 Y97.550 Z0.750 E0.02105 F1500
G1 X85.600 Y82.450 Z0.750 E0.70626 F1500
G1 X86.050 Y82.450 Z0.750 E0.02105 F1500
G1 X86.050 Y97.550 Z0.750 E0.70626 F1500
G1 X86.500 Y97.550 Z0.750 E0.02105 F1500
G1 X86.500 Y82.450 Z0.750 E0.70626 F1500
G1 X86.950 Y82.450 Z0.750 E0.02105 F1500
G1 X86.950 Y97.550 Z0.750 E0.70626 F1500
G1 X87.400 Y97.550 Z0.750 E0.02105 F1500
G1 X87.400 Y82.450 Z0.750 E0.70626 F1500
G1 X87.850 Y82.450 Z0.750 E0.02105 F1500
G1 X87.850 Y97.550 Z0.750 E0.70626 F1500
G1 X88.300 Y97.550 Z0.750 E0.02105 F1500
G1 X88.300 Y82.450 Z0.750 E0.70626 F1500
G1 X88.750 Y82.450 Z0.750 E0.02105 F1500
G1 X88.750 Y97.550 Z0.750 E0.70626 F1500
G1 X89.200 Y97.550 Z0.750 E0.02105 F1500
G1 X89.200 Y82.450 Z0.750 E0.70626 F1500
G1 X89.650 Y82.450 Z0.750 E0.02105 F1500
G1 X89.650 Y97.550 Z0.750 E0.70626 F1500
G1 X90.100 Y97.550 Z0.750 E0.02105 F1500
G1 X90.100 Y82.450 Z0.750 E0.70626 F1500
G1 X90.550 Y82.450 Z0.750 E0.02105 F1500
G1 X90.550 Y97.550 Z0.750 E0.70626 F1500
G1 X91.000 Y97.550 Z0.750 E0.02105 F1500
G1 X91.000 Y82.450 Z0.750 E0.70626 F1500
G1 X91.450 Y82.450 Z0.750 E0.02105 F1500
G1 X91.450 Y97.550 Z0.750 E0.70626 F1500
G1 X91.900 Y97.550 Z0.750 E0.02105 F1500
G1 X91.900 Y82.450 Z0.750 E0.70626 F1500
G1 X92.350 Y82.450 Z0.750 E0.02105 F1500
G1 X92.350 Y97.550 Z0.750 E0.70626 F1500
G1 X92.800 Y97.550 Z0.750 E0.02105 F1500
G1 X92.800 Y82.450 Z0.750 E0.70626 F1500
G1 X93.250 Y82.450 Z0.750 E0.02105 F1500
G1 X93.250 Y97.550 Z0.750 E0.70626 F1500
G1 X93.700 Y97.550 Z0.750 E0.02105 F1500
G1 X93.700 Y82.450 Z0.750 E0.70626 F1500
G1 X94.150 Y82.450 Z0.750 E0.02105 F1500
G1 X94.150 Y97.550 Z0.750 E0.70626 F1500
G1 X94.600 Y97.550 Z0.750 E0.02105 F1500
G1 X94.600 Y82.450 Z0.750 E0.70626 F1500
G1 X95.050 Y82.450 Z0.750 E0.02105 F1500
G1 X95.050 Y97.550 Z0.750 E0.70626 F1500
G1 X95.500 Y97.550 Z0.750 E0.02105 F1500
G1 X95.500 Y82.450 Z0.750 E0.70626 F1500
G1 X95.950 Y82.450 Z0.750 E0.02105 F1500
G1 X95.950 Y97.550 Z0.750 E0.70626 F1500
G1 X96.400 Y97.550 Z0.750 E0.02105 F1500
G1 X96.400 Y82.450 Z0.750 E0.70626 F1500
G1 X96.850 Y82.450 Z0.750 E0.02105 F1500
G1 X96.850 Y97.550 Z0.750 E0.70626 F1500
G1 X97.300 Y97.550 Z0.750 E0.02105 F1500
G1 X97.300 Y82.450 Z0.750 E0.70626 F1500
G1 X97.750 Y82.450 Z0.750 E0.02105 F1500
G1 X97.750 Y97.550 Z0.750 E0.70626 F1500
; WIRE PRINTING
M106 P1 S255 ; full fan for wires
; LEVEL 1/3  z 0.75 -> 4.25
G1 E-0.800 F2400
G0 X97.750 Y97.550 Z1.750 F1200
G0 X85.000 Y85.000 Z1.750 F4800
G0 X85.000 Y85.000 Z0.750 F1200
G1 E0.800 F1800
G1 E0.1500 F120
G4 P300
G1 X85.000 Y85.000 Z4.550 E0.31020 F180
G4 P800
G0 X85.000 Y85.000 Z4.250 F180
G1 X95.000 Y85.000 Z0.750 E0.77839 F360
G1 E0.1500 F120
G4 P300
G1 X95.000 Y85.000 Z4.550 E0.31020 F180
G4 P800
G0 X95.000 Y85.000 Z4.250 F180
G1 X95.000 Y95.000 Z0.750 E0.77839 F360
G1 E0.1500 F120
G4 P300
G1 X95.000 Y95.000 Z4.550 E0.31020 F180
G4 P800
G0 X95.000 Y95.000 Z4.250 F180
G1 X85.000 Y95.000 Z0.750 E0.77839 F360
G1 E0.1500 F120
G4 P300
G1 X85.000 Y95.000 Z4.550 E0.31020 F180
G4 P800
G0 X85.000 Y95.000 Z4.250 F180
G1 E0.1500 F120
G4 P300
G1 X95.000 Y95.000 Z4.250 E0.81633 F360
G1 E0.0750 F120
G4 P300
G1 E-0.800 F2400
G0 X95.000 Y95.000 Z5.250 F1200
G0 X95.000 Y85.000 Z5.250 F4800
G0 X95.000 Y85.000 Z4.250 F1200
G1 E0.800 F1800
G1 E0.1500 F120
G4 P300
G1 X85.000 Y85.000 Z4.250 E0.81633 F360
G1 E0.0750 F120
G4 P300
G1 E0.1500 F120
G4 P300
G1 X85.000 Y95.000 Z4.250 E0.81633 F360
G1 E0.0750 F120
G4 P300
G1 E-0.800 F2400
G0 X85.000 Y95.000 Z5.250 F1200
G0 X95.000 Y95.000 Z5.250 F4800
G0 X95.000 Y95.000 Z4.250 F1200
G1 E0.800 F1800
G1 E0.1500 F120
G4 P300
G1 X95.000 Y85.000 Z4.250 E0.81633 F360
G1 E0.0750 F120
G4 P300
G1 E-0.800 F2400
; LEVEL 2/3  z 4.25 -> 7.75
G0 X95.000 Y85.000 Z5.250 F1200
G0 X85.000 Y85.000 Z5.250 F4800
G0 X85.000 Y85.000 Z4.250 F1200
G1 E0.800 F1800
G1 E0.1500 F120
G4 P300
G1 X85.000 Y85.000 Z8.050 E0.31020 F180
G4 P800
G0 X85.000 Y85.000 Z7.750 F180
G1 X95.000 Y85.000 Z4.250 E0.77839 F360
G1 E0.1500 F120
G4 P300
G1 X95.000 Y85.000 Z8.050 E0.31020 F180
G4 P800
G0 X95.000 Y85.000 Z7.750 F180
G1 X95.000 Y95.000 Z4.250 E0.77839 F360
G1 E0.1500 F120
G4 P300
G1 X95.000 Y95.000 Z8.050 E0.31020 F180
G4 P800
G0 X95.000 Y95.000 Z7.750 F180
G1 X85.000 Y95.000 Z4.250 E0.77839 F360
G1 E0.1500 F120
G4 P300
G1 X85.000 Y95.000 Z8.050 E0.31020 F180
G4 P800
G0 X85.000 Y95.000 Z7.750 F180
G1 E0.1500 F120
G4 P300
G1 X95.000 Y95.000 Z7.750 E0.81633 F360
G1 E0.0750 F120
G4 P300
G1 E-0.800 F2400
G0 X95.000 Y95.000 Z8.750 F1200
G0 X95.000 Y85.000 Z8.750 F4800
G0 X95.000 Y85.000 Z7.750 F1200
G1 E0.800 F1800
G1 E0.1500 F120
G4 P300
G1 X85.000 Y85.000 Z7.750 E0.81633 F360
G1 E0.0750 F120
G4 P300
G1 E0.1500 F120
G4 P300
G1 X85.000 Y95.000 Z7.750 E0.81633 F360
G1 E0.0750 F120
G4 P300
G1 E-0.800 F2400
G0 X85.000 Y95.000 Z8.750 F1200
G0 X95.000 Y95.000 Z8.750 F4800
G0 X95.000 Y95.000 Z7.750 F1200
G1 E0.800 F1800
G1 E0.1500 F120
G4 P300
G1 X95.000 Y85.000 Z7.750 E0.81633 F360
G1 E0.0750 F120
G4 P300
G1 E-0.800 F2400
; LEVEL 3/3  z 7.75 -> 11.25
G0 X95.000 Y85.000 Z8.750 F1200
G0 X85.000 Y85.000 Z8.750 F4800
G0 X85.000 Y85.000 Z7.750 F1200
G1 E0.800 F1800
G1 E0.1500 F120
G4 P300
G1 X85.000 Y85.000 Z11.550 E0.31020 F180
G4 P800
G0 X85.000 Y85.000 Z11.250 F180
G1 X95.000 Y85.000 Z7.750 E0.77839 F360
G1 E0.1500 F120
G4 P300
G1 X95.000 Y85.000 Z11.550 E0.31020 F180
G4 P800
G0 X95.000 Y85.000 Z11.250 F180
G1 X95.000 Y95.000 Z7.750 E0.77839 F360
G1 E0.1500 F120
G4 P300
G1 X95.000 Y95.000 Z11.550 E0.31020 F180
G4 P800
G0 X95.000 Y95.000 Z11.250 F180
G1 X85.000 Y95.000 Z7.750 E0.77839 F360
G1 E0.1500 F120
G4 P300
G1 X85.000 Y95.000 Z11.550 E0.31020 F180
G4 P800
G0 X85.000 Y95.000 Z11.250 F180
G1 E0.1500 F120
G4 P300
G1 X95.000 Y95.000 Z11.250 E0.81633 F360
G1 E0.0750 F120
G4 P300
G1 E-0.800 F2400
G0 X95.000 Y95.000 Z12.250 F1200
G0 X95.000 Y85.000 Z12.250 F4800
G0 X95.000 Y85.000 Z11.250 F1200
G1 E0.800 F1800
G1 E0.1500 F120
G4 P300
G1 X85.000 Y85.000 Z11.250 E0.81633 F360
G1 E0.0750 F120
G4 P300
G1 E0.1500 F120
G4 P300
G1 X85.000 Y95.000 Z11.250 E0.81633 F360
G1 E0.0750 F120
G4 P300
G1 E-0.800 F2400
G0 X85.000 Y95.000 Z12.250 F1200
G0 X95.000 Y95.000 Z12.250 F4800
G0 X95.000 Y95.000 Z11.250 F1200
G1 E0.800 F1800
G1 E0.1500 F120
G4 P300
G1 X95.000 Y85.000 Z11.250 E0.81633 F360
G1 E0.0750 F120
G4 P300
G1 E-0.800 F2400
; ---- end ----
G1 E-2 F2400
G0 Z26.25 F600
G0 X0 Y170 F4000 ; present the bed slowly (the bed is the Y axis)
M104 S0
M140 S0
M106 P1 S0
M84
