; wireprint.py  shape=grid  levels=5  level_h=3.5
; height 18.2 mm, filament 0.33 m, est. time 9 min
; ---- start (Bambu Lab A1 mini) ----
; filament must already be loaded in the external spool / AMS lite slot in use
G90 ; absolute XYZ
M83 ; relative E
M140 S60
M104 S150 ; warm nozzle without oozing while homing
G28 ; home all axes
M190 S60
M109 S220
M106 P1 S0
G0 Z2 F600
G0 X20 Y3 F6000
G1 Z0.3 F600
G1 X100 Y3 E8 F1200 ; prime line along the front edge
G1 X100 Y3.5 F1200
G1 X20 Y3.5 E6 F1200
G1 E-0.8 F2400
G0 Z2 F600
; BASE layer 1
G0 X20.000 Y3.500 Z3.000 F1200
G0 X77.000 Y77.000 Z3.000 F4800
G0 X77.000 Y77.000 Z0.250 F1200
G1 E0.800 F1800
G1 X103.000 Y77.000 Z0.250 E1.21607 F900
G1 X103.000 Y103.000 Z0.250 E1.21607 F900
G1 X77.000 Y103.000 Z0.250 E1.21607 F900
G1 X77.000 Y77.000 Z0.250 E1.21607 F900
G1 E-0.800 F2400
G0 X77.000 Y77.000 Z1.250 F1200
G0 X77.450 Y77.450 Z1.250 F4800
G0 X77.450 Y77.450 Z0.250 F1200
G1 E0.800 F1800
G1 X77.450 Y102.550 Z0.250 E1.17398 F900
G1 X77.900 Y102.550 Z0.250 E0.02105 F900
G1 X77.900 Y77.450 Z0.250 E1.17398 F900
G1 X78.350 Y77.450 Z0.250 E0.02105 F900
G1 X78.350 Y102.550 Z0.250 E1.17398 F900
G1 X78.800 Y102.550 Z0.250 E0.02105 F900
G1 X78.800 Y77.450 Z0.250 E1.17398 F900
G1 X79.250 Y77.450 Z0.250 E0.02105 F900
G1 X79.250 Y102.550 Z0.250 E1.17398 F900
G1 X79.700 Y102.550 Z0.250 E0.02105 F900
G1 X79.700 Y77.450 Z0.250 E1.17398 F900
G1 X80.150 Y77.450 Z0.250 E0.02105 F900
G1 X80.150 Y102.550 Z0.250 E1.17398 F900
G1 X80.600 Y102.550 Z0.250 E0.02105 F900
G1 X80.600 Y77.450 Z0.250 E1.17398 F900
G1 X81.050 Y77.450 Z0.250 E0.02105 F900
G1 X81.050 Y102.550 Z0.250 E1.17398 F900
G1 X81.500 Y102.550 Z0.250 E0.02105 F900
G1 X81.500 Y77.450 Z0.250 E1.17398 F900
G1 X81.950 Y77.450 Z0.250 E0.02105 F900
G1 X81.950 Y102.550 Z0.250 E1.17398 F900
G1 X82.400 Y102.550 Z0.250 E0.02105 F900
G1 X82.400 Y77.450 Z0.250 E1.17398 F900
G1 X82.850 Y77.450 Z0.250 E0.02105 F900
G1 X82.850 Y102.550 Z0.250 E1.17398 F900
G1 X83.300 Y102.550 Z0.250 E0.02105 F900
G1 X83.300 Y77.450 Z0.250 E1.17398 F900
G1 X83.750 Y77.450 Z0.250 E0.02105 F900
G1 X83.750 Y102.550 Z0.250 E1.17398 F900
G1 X84.200 Y102.550 Z0.250 E0.02105 F900
G1 X84.200 Y77.450 Z0.250 E1.17398 F900
G1 X84.650 Y77.450 Z0.250 E0.02105 F900
G1 X84.650 Y102.550 Z0.250 E1.17398 F900
G1 X85.100 Y102.550 Z0.250 E0.02105 F900
G1 X85.100 Y77.450 Z0.250 E1.17398 F900
G1 X85.550 Y77.450 Z0.250 E0.02105 F900
G1 X85.550 Y102.550 Z0.250 E1.17398 F900
G1 X86.000 Y102.550 Z0.250 E0.02105 F900
G1 X86.000 Y77.450 Z0.250 E1.17398 F900
G1 X86.450 Y77.450 Z0.250 E0.02105 F900
G1 X86.450 Y102.550 Z0.250 E1.17398 F900
G1 X86.900 Y102.550 Z0.250 E0.02105 F900
G1 X86.900 Y77.450 Z0.250 E1.17398 F900
G1 X87.350 Y77.450 Z0.250 E0.02105 F900
G1 X87.350 Y102.550 Z0.250 E1.17398 F900
G1 X87.800 Y102.550 Z0.250 E0.02105 F900
G1 X87.800 Y77.450 Z0.250 E1.17398 F900
G1 X88.250 Y77.450 Z0.250 E0.02105 F900
G1 X88.250 Y102.550 Z0.250 E1.17398 F900
G1 X88.700 Y102.550 Z0.250 E0.02105 F900
G1 X88.700 Y77.450 Z0.250 E1.17398 F900
G1 X89.150 Y77.450 Z0.250 E0.02105 F900
G1 X89.150 Y102.550 Z0.250 E1.17398 F900
G1 X89.600 Y102.550 Z0.250 E0.02105 F900
G1 X89.600 Y77.450 Z0.250 E1.17398 F900
G1 X90.050 Y77.450 Z0.250 E0.02105 F900
G1 X90.050 Y102.550 Z0.250 E1.17398 F900
G1 X90.500 Y102.550 Z0.250 E0.02105 F900
G1 X90.500 Y77.450 Z0.250 E1.17398 F900
G1 X90.950 Y77.450 Z0.250 E0.02105 F900
G1 X90.950 Y102.550 Z0.250 E1.17398 F900
G1 X91.400 Y102.550 Z0.250 E0.02105 F900
G1 X91.400 Y77.450 Z0.250 E1.17398 F900
G1 X91.850 Y77.450 Z0.250 E0.02105 F900
G1 X91.850 Y102.550 Z0.250 E1.17398 F900
G1 X92.300 Y102.550 Z0.250 E0.02105 F900
G1 X92.300 Y77.450 Z0.250 E1.17398 F900
G1 X92.750 Y77.450 Z0.250 E0.02105 F900
G1 X92.750 Y102.550 Z0.250 E1.17398 F900
G1 X93.200 Y102.550 Z0.250 E0.02105 F900
G1 X93.200 Y77.450 Z0.250 E1.17398 F900
G1 X93.650 Y77.450 Z0.250 E0.02105 F900
G1 X93.650 Y102.550 Z0.250 E1.17398 F900
G1 X94.100 Y102.550 Z0.250 E0.02105 F900
G1 X94.100 Y77.450 Z0.250 E1.17398 F900
G1 X94.550 Y77.450 Z0.250 E0.02105 F900
G1 X94.550 Y102.550 Z0.250 E1.17398 F900
G1 X95.000 Y102.550 Z0.250 E0.02105 F900
G1 X95.000 Y77.450 Z0.250 E1.17398 F900
G1 X95.450 Y77.450 Z0.250 E0.02105 F900
G1 X95.450 Y102.550 Z0.250 E1.17398 F900
G1 X95.900 Y102.550 Z0.250 E0.02105 F900
G1 X95.900 Y77.450 Z0.250 E1.17398 F900
G1 X96.350 Y77.450 Z0.250 E0.02105 F900
G1 X96.350 Y102.550 Z0.250 E1.17398 F900
G1 X96.800 Y102.550 Z0.250 E0.02105 F900
G1 X96.800 Y77.450 Z0.250 E1.17398 F900
G1 X97.250 Y77.450 Z0.250 E0.02105 F900
G1 X97.250 Y102.550 Z0.250 E1.17398 F900
G1 X97.700 Y102.550 Z0.250 E0.02105 F900
G1 X97.700 Y77.450 Z0.250 E1.17398 F900
G1 X98.150 Y77.450 Z0.250 E0.02105 F900
G1 X98.150 Y102.550 Z0.250 E1.17398 F900
G1 X98.600 Y102.550 Z0.250 E0.02105 F900
G1 X98.600 Y77.450 Z0.250 E1.17398 F900
G1 X99.050 Y77.450 Z0.250 E0.02105 F900
G1 X99.050 Y102.550 Z0.250 E1.17398 F900
G1 X99.500 Y102.550 Z0.250 E0.02105 F900
G1 X99.500 Y77.450 Z0.250 E1.17398 F900
G1 X99.950 Y77.450 Z0.250 E0.02105 F900
G1 X99.950 Y102.550 Z0.250 E1.17398 F900
G1 X100.400 Y102.550 Z0.250 E0.02105 F900
G1 X100.400 Y77.450 Z0.250 E1.17398 F900
G1 X100.850 Y77.450 Z0.250 E0.02105 F900
G1 X100.850 Y102.550 Z0.250 E1.17398 F900
G1 X101.300 Y102.550 Z0.250 E0.02105 F900
G1 X101.300 Y77.450 Z0.250 E1.17398 F900
G1 X101.750 Y77.450 Z0.250 E0.02105 F900
G1 X101.750 Y102.550 Z0.250 E1.17398 F900
G1 X102.200 Y102.550 Z0.250 E0.02105 F900
G1 X102.200 Y77.450 Z0.250 E1.17398 F900
G1 X102.650 Y77.450 Z0.250 E0.02105 F900
G1 X102.650 Y102.550 Z0.250 E1.17398 F900
; BASE layer 2
M106 P1 S128
G1 E-0.800 F2400
G0 X102.650 Y102.550 Z1.500 F1200
G0 X77.000 Y77.000 Z1.500 F4800
G0 X77.000 Y77.000 Z0.500 F1200
G1 E0.800 F1800
G1 X103.000 Y77.000 Z0.500 E1.21607 F1500
G1 X103.000 Y103.000 Z0.500 E1.21607 F1500
G1 X77.000 Y103.000 Z0.500 E1.21607 F1500
G1 X77.000 Y77.000 Z0.500 E1.21607 F1500
G1 E-0.800 F2400
G0 X77.000 Y77.000 Z1.500 F1200
G0 X77.450 Y77.450 Z1.500 F4800
G0 X77.450 Y77.450 Z0.500 F1200
G1 E0.800 F1800
G1 X102.550 Y77.450 Z0.500 E1.17398 F1500
G1 X102.550 Y77.900 Z0.500 E0.02105 F1500
G1 X77.450 Y77.900 Z0.500 E1.17398 F1500
G1 X77.450 Y78.350 Z0.500 E0.02105 F1500
G1 X102.550 Y78.350 Z0.500 E1.17398 F1500
G1 X102.550 Y78.800 Z0.500 E0.02105 F1500
G1 X77.450 Y78.800 Z0.500 E1.17398 F1500
G1 X77.450 Y79.250 Z0.500 E0.02105 F1500
G1 X102.550 Y79.250 Z0.500 E1.17398 F1500
G1 X102.550 Y79.700 Z0.500 E0.02105 F1500
G1 X77.450 Y79.700 Z0.500 E1.17398 F1500
G1 X77.450 Y80.150 Z0.500 E0.02105 F1500
G1 X102.550 Y80.150 Z0.500 E1.17398 F1500
G1 X102.550 Y80.600 Z0.500 E0.02105 F1500
G1 X77.450 Y80.600 Z0.500 E1.17398 F1500
G1 X77.450 Y81.050 Z0.500 E0.02105 F1500
G1 X102.550 Y81.050 Z0.500 E1.17398 F1500
G1 X102.550 Y81.500 Z0.500 E0.02105 F1500
G1 X77.450 Y81.500 Z0.500 E1.17398 F1500
G1 X77.450 Y81.950 Z0.500 E0.02105 F1500
G1 X102.550 Y81.950 Z0.500 E1.17398 F1500
G1 X102.550 Y82.400 Z0.500 E0.02105 F1500
G1 X77.450 Y82.400 Z0.500 E1.17398 F1500
G1 X77.450 Y82.850 Z0.500 E0.02105 F1500
G1 X102.550 Y82.850 Z0.500 E1.17398 F1500
G1 X102.550 Y83.300 Z0.500 E0.02105 F1500
G1 X77.450 Y83.300 Z0.500 E1.17398 F1500
G1 X77.450 Y83.750 Z0.500 E0.02105 F1500
G1 X102.550 Y83.750 Z0.500 E1.17398 F1500
G1 X102.550 Y84.200 Z0.500 E0.02105 F1500
G1 X77.450 Y84.200 Z0.500 E1.17398 F1500
G1 X77.450 Y84.650 Z0.500 E0.02105 F1500
G1 X102.550 Y84.650 Z0.500 E1.17398 F1500
G1 X102.550 Y85.100 Z0.500 E0.02105 F1500
G1 X77.450 Y85.100 Z0.500 E1.17398 F1500
G1 X77.450 Y85.550 Z0.500 E0.02105 F1500
G1 X102.550 Y85.550 Z0.500 E1.17398 F1500
G1 X102.550 Y86.000 Z0.500 E0.02105 F1500
G1 X77.450 Y86.000 Z0.500 E1.17398 F1500
G1 X77.450 Y86.450 Z0.500 E0.02105 F1500
G1 X102.550 Y86.450 Z0.500 E1.17398 F1500
G1 X102.550 Y86.900 Z0.500 E0.02105 F1500
G1 X77.450 Y86.900 Z0.500 E1.17398 F1500
G1 X77.450 Y87.350 Z0.500 E0.02105 F1500
G1 X102.550 Y87.350 Z0.500 E1.17398 F1500
G1 X102.550 Y87.800 Z0.500 E0.02105 F1500
G1 X77.450 Y87.800 Z0.500 E1.17398 F1500
G1 X77.450 Y88.250 Z0.500 E0.02105 F1500
G1 X102.550 Y88.250 Z0.500 E1.17398 F1500
G1 X102.550 Y88.700 Z0.500 E0.02105 F1500
G1 X77.450 Y88.700 Z0.500 E1.17398 F1500
G1 X77.450 Y89.150 Z0.500 E0.02105 F1500
G1 X102.550 Y89.150 Z0.500 E1.17398 F1500
G1 X102.550 Y89.600 Z0.500 E0.02105 F1500
G1 X77.450 Y89.600 Z0.500 E1.17398 F1500
G1 X77.450 Y90.050 Z0.500 E0.02105 F1500
G1 X102.550 Y90.050 Z0.500 E1.17398 F1500
G1 X102.550 Y90.500 Z0.500 E0.02105 F1500
G1 X77.450 Y90.500 Z0.500 E1.17398 F1500
G1 X77.450 Y90.950 Z0.500 E0.02105 F1500
G1 X102.550 Y90.950 Z0.500 E1.17398 F1500
G1 X102.550 Y91.400 Z0.500 E0.02105 F1500
G1 X77.450 Y91.400 Z0.500 E1.17398 F1500
G1 X77.450 Y91.850 Z0.500 E0.02105 F1500
G1 X102.550 Y91.850 Z0.500 E1.17398 F1500
G1 X102.550 Y92.300 Z0.500 E0.02105 F1500
G1 X77.450 Y92.300 Z0.500 E1.17398 F1500
G1 X77.450 Y92.750 Z0.500 E0.02105 F1500
G1 X102.550 Y92.750 Z0.500 E1.17398 F1500
G1 X102.550 Y93.200 Z0.500 E0.02105 F1500
G1 X77.450 Y93.200 Z0.500 E1.17398 F1500
G1 X77.450 Y93.650 Z0.500 E0.02105 F1500
G1 X102.550 Y93.650 Z0.500 E1.17398 F1500
G1 X102.550 Y94.100 Z0.500 E0.02105 F1500
G1 X77.450 Y94.100 Z0.500 E1.17398 F1500
G1 X77.450 Y94.550 Z0.500 E0.02105 F1500
G1 X102.550 Y94.550 Z0.500 E1.17398 F1500
G1 X102.550 Y95.000 Z0.500 E0.02105 F1500
G1 X77.450 Y95.000 Z0.500 E1.17398 F1500
G1 X77.450 Y95.450 Z0.500 E0.02105 F1500
G1 X102.550 Y95.450 Z0.500 E1.17398 F1500
G1 X102.550 Y95.900 Z0.500 E0.02105 F1500
G1 X77.450 Y95.900 Z0.500 E1.17398 F1500
G1 X77.450 Y96.350 Z0.500 E0.02105 F1500
G1 X102.550 Y96.350 Z0.500 E1.17398 F1500
G1 X102.550 Y96.800 Z0.500 E0.02105 F1500
G1 X77.450 Y96.800 Z0.500 E1.17398 F1500
G1 X77.450 Y97.250 Z0.500 E0.02105 F1500
G1 X102.550 Y97.250 Z0.500 E1.17398 F1500
G1 X102.550 Y97.700 Z0.500 E0.02105 F1500
G1 X77.450 Y97.700 Z0.500 E1.17398 F1500
G1 X77.450 Y98.150 Z0.500 E0.02105 F1500
G1 X102.550 Y98.150 Z0.500 E1.17398 F1500
G1 X102.550 Y98.600 Z0.500 E0.02105 F1500
G1 X77.450 Y98.600 Z0.500 E1.17398 F1500
G1 X77.450 Y99.050 Z0.500 E0.02105 F1500
G1 X102.550 Y99.050 Z0.500 E1.17398 F1500
G1 X102.550 Y99.500 Z0.500 E0.02105 F1500
G1 X77.450 Y99.500 Z0.500 E1.17398 F1500
G1 X77.450 Y99.950 Z0.500 E0.02105 F1500
G1 X102.550 Y99.950 Z0.500 E1.17398 F1500
G1 X102.550 Y100.400 Z0.500 E0.02105 F1500
G1 X77.450 Y100.400 Z0.500 E1.17398 F1500
G1 X77.450 Y100.850 Z0.500 E0.02105 F1500
G1 X102.550 Y100.850 Z0.500 E1.17398 F1500
G1 X102.550 Y101.300 Z0.500 E0.02105 F1500
G1 X77.450 Y101.300 Z0.500 E1.17398 F1500
G1 X77.450 Y101.750 Z0.500 E0.02105 F1500
G1 X102.550 Y101.750 Z0.500 E1.17398 F1500
G1 X102.550 Y102.200 Z0.500 E0.02105 F1500
G1 X77.450 Y102.200 Z0.500 E1.17398 F1500
G1 X77.450 Y102.650 Z0.500 E0.02105 F1500
G1 X102.550 Y102.650 Z0.500 E1.17398 F1500
; BASE layer 3
G1 E-0.800 F2400
G0 X102.550 Y102.650 Z1.750 F1200
G0 X77.000 Y77.000 Z1.750 F4800
G0 X77.000 Y77.000 Z0.750 F1200
G1 E0.800 F1800
G1 X103.000 Y77.000 Z0.750 E1.21607 F1500
G1 X103.000 Y103.000 Z0.750 E1.21607 F1500
G1 X77.000 Y103.000 Z0.750 E1.21607 F1500
G1 X77.000 Y77.000 Z0.750 E1.21607 F1500
G1 E-0.800 F2400
G0 X77.000 Y77.000 Z1.750 F1200
G0 X77.450 Y77.450 Z1.750 F4800
G0 X77.450 Y77.450 Z0.750 F1200
G1 E0.800 F1800
G1 X77.450 Y102.550 Z0.750 E1.17398 F1500
G1 X77.900 Y102.550 Z0.750 E0.02105 F1500
G1 X77.900 Y77.450 Z0.750 E1.17398 F1500
G1 X78.350 Y77.450 Z0.750 E0.02105 F1500
G1 X78.350 Y102.550 Z0.750 E1.17398 F1500
G1 X78.800 Y102.550 Z0.750 E0.02105 F1500
G1 X78.800 Y77.450 Z0.750 E1.17398 F1500
G1 X79.250 Y77.450 Z0.750 E0.02105 F1500
G1 X79.250 Y102.550 Z0.750 E1.17398 F1500
G1 X79.700 Y102.550 Z0.750 E0.02105 F1500
G1 X79.700 Y77.450 Z0.750 E1.17398 F1500
G1 X80.150 Y77.450 Z0.750 E0.02105 F1500
G1 X80.150 Y102.550 Z0.750 E1.17398 F1500
G1 X80.600 Y102.550 Z0.750 E0.02105 F1500
G1 X80.600 Y77.450 Z0.750 E1.17398 F1500
G1 X81.050 Y77.450 Z0.750 E0.02105 F1500
G1 X81.050 Y102.550 Z0.750 E1.17398 F1500
G1 X81.500 Y102.550 Z0.750 E0.02105 F1500
G1 X81.500 Y77.450 Z0.750 E1.17398 F1500
G1 X81.950 Y77.450 Z0.750 E0.02105 F1500
G1 X81.950 Y102.550 Z0.750 E1.17398 F1500
G1 X82.400 Y102.550 Z0.750 E0.02105 F1500
G1 X82.400 Y77.450 Z0.750 E1.17398 F1500
G1 X82.850 Y77.450 Z0.750 E0.02105 F1500
G1 X82.850 Y102.550 Z0.750 E1.17398 F1500
G1 X83.300 Y102.550 Z0.750 E0.02105 F1500
G1 X83.300 Y77.450 Z0.750 E1.17398 F1500
G1 X83.750 Y77.450 Z0.750 E0.02105 F1500
G1 X83.750 Y102.550 Z0.750 E1.17398 F1500
G1 X84.200 Y102.550 Z0.750 E0.02105 F1500
G1 X84.200 Y77.450 Z0.750 E1.17398 F1500
G1 X84.650 Y77.450 Z0.750 E0.02105 F1500
G1 X84.650 Y102.550 Z0.750 E1.17398 F1500
G1 X85.100 Y102.550 Z0.750 E0.02105 F1500
G1 X85.100 Y77.450 Z0.750 E1.17398 F1500
G1 X85.550 Y77.450 Z0.750 E0.02105 F1500
G1 X85.550 Y102.550 Z0.750 E1.17398 F1500
G1 X86.000 Y102.550 Z0.750 E0.02105 F1500
G1 X86.000 Y77.450 Z0.750 E1.17398 F1500
G1 X86.450 Y77.450 Z0.750 E0.02105 F1500
G1 X86.450 Y102.550 Z0.750 E1.17398 F1500
G1 X86.900 Y102.550 Z0.750 E0.02105 F1500
G1 X86.900 Y77.450 Z0.750 E1.17398 F1500
G1 X87.350 Y77.450 Z0.750 E0.02105 F1500
G1 X87.350 Y102.550 Z0.750 E1.17398 F1500
G1 X87.800 Y102.550 Z0.750 E0.02105 F1500
G1 X87.800 Y77.450 Z0.750 E1.17398 F1500
G1 X88.250 Y77.450 Z0.750 E0.02105 F1500
G1 X88.250 Y102.550 Z0.750 E1.17398 F1500
G1 X88.700 Y102.550 Z0.750 E0.02105 F1500
G1 X88.700 Y77.450 Z0.750 E1.17398 F1500
G1 X89.150 Y77.450 Z0.750 E0.02105 F1500
G1 X89.150 Y102.550 Z0.750 E1.17398 F1500
G1 X89.600 Y102.550 Z0.750 E0.02105 F1500
G1 X89.600 Y77.450 Z0.750 E1.17398 F1500
G1 X90.050 Y77.450 Z0.750 E0.02105 F1500
G1 X90.050 Y102.550 Z0.750 E1.17398 F1500
G1 X90.500 Y102.550 Z0.750 E0.02105 F1500
G1 X90.500 Y77.450 Z0.750 E1.17398 F1500
G1 X90.950 Y77.450 Z0.750 E0.02105 F1500
G1 X90.950 Y102.550 Z0.750 E1.17398 F1500
G1 X91.400 Y102.550 Z0.750 E0.02105 F1500
G1 X91.400 Y77.450 Z0.750 E1.17398 F1500
G1 X91.850 Y77.450 Z0.750 E0.02105 F1500
G1 X91.850 Y102.550 Z0.750 E1.17398 F1500
G1 X92.300 Y102.550 Z0.750 E0.02105 F1500
G1 X92.300 Y77.450 Z0.750 E1.17398 F1500
G1 X92.750 Y77.450 Z0.750 E0.02105 F1500
G1 X92.750 Y102.550 Z0.750 E1.17398 F1500
G1 X93.200 Y102.550 Z0.750 E0.02105 F1500
G1 X93.200 Y77.450 Z0.750 E1.17398 F1500
G1 X93.650 Y77.450 Z0.750 E0.02105 F1500
G1 X93.650 Y102.550 Z0.750 E1.17398 F1500
G1 X94.100 Y102.550 Z0.750 E0.02105 F1500
G1 X94.100 Y77.450 Z0.750 E1.17398 F1500
G1 X94.550 Y77.450 Z0.750 E0.02105 F1500
G1 X94.550 Y102.550 Z0.750 E1.17398 F1500
G1 X95.000 Y102.550 Z0.750 E0.02105 F1500
G1 X95.000 Y77.450 Z0.750 E1.17398 F1500
G1 X95.450 Y77.450 Z0.750 E0.02105 F1500
G1 X95.450 Y102.550 Z0.750 E1.17398 F1500
G1 X95.900 Y102.550 Z0.750 E0.02105 F1500
G1 X95.900 Y77.450 Z0.750 E1.17398 F1500
G1 X96.350 Y77.450 Z0.750 E0.02105 F1500
G1 X96.350 Y102.550 Z0.750 E1.17398 F1500
G1 X96.800 Y102.550 Z0.750 E0.02105 F1500
G1 X96.800 Y77.450 Z0.750 E1.17398 F1500
G1 X97.250 Y77.450 Z0.750 E0.02105 F1500
G1 X97.250 Y102.550 Z0.750 E1.17398 F1500
G1 X97.700 Y102.550 Z0.750 E0.02105 F1500
G1 X97.700 Y77.450 Z0.750 E1.17398 F1500
G1 X98.150 Y77.450 Z0.750 E0.02105 F1500
G1 X98.150 Y102.550 Z0.750 E1.17398 F1500
G1 X98.600 Y102.550 Z0.750 E0.02105 F1500
G1 X98.600 Y77.450 Z0.750 E1.17398 F1500
G1 X99.050 Y77.450 Z0.750 E0.02105 F1500
G1 X99.050 Y102.550 Z0.750 E1.17398 F1500
G1 X99.500 Y102.550 Z0.750 E0.02105 F1500
G1 X99.500 Y77.450 Z0.750 E1.17398 F1500
G1 X99.950 Y77.450 Z0.750 E0.02105 F1500
G1 X99.950 Y102.550 Z0.750 E1.17398 F1500
G1 X100.400 Y102.550 Z0.750 E0.02105 F1500
G1 X100.400 Y77.450 Z0.750 E1.17398 F1500
G1 X100.850 Y77.450 Z0.750 E0.02105 F1500
G1 X100.850 Y102.550 Z0.750 E1.17398 F1500
G1 X101.300 Y102.550 Z0.750 E0.02105 F1500
G1 X101.300 Y77.450 Z0.750 E1.17398 F1500
G1 X101.750 Y77.450 Z0.750 E0.02105 F1500
G1 X101.750 Y102.550 Z0.750 E1.17398 F1500
G1 X102.200 Y102.550 Z0.750 E0.02105 F1500
G1 X102.200 Y77.450 Z0.750 E1.17398 F1500
G1 X102.650 Y77.450 Z0.750 E0.02105 F1500
G1 X102.650 Y102.550 Z0.750 E1.17398 F1500
; WIRE PRINTING
M106 P1 S255 ; full fan for wires
; LEVEL 1/5  z 0.75 -> 4.25
G1 E-0.800 F2400
G0 X102.650 Y102.550 Z1.750 F1200
G0 X80.000 Y80.000 Z1.750 F4800
G0 X80.000 Y80.000 Z0.750 F1200
G1 E0.800 F1800
G1 E0.1500 F120
G4 P300
G1 X80.000 Y80.000 Z4.550 E0.31020 F180
G4 P800
G0 X80.000 Y80.000 Z4.250 F180
G1 X90.000 Y80.000 Z0.750 E0.77839 F360
G1 E0.1500 F120
G4 P300
G1 X90.000 Y80.000 Z4.550 E0.31020 F180
G4 P800
G0 X90.000 Y80.000 Z4.250 F180
G1 X100.000 Y80.000 Z0.750 E0.77839 F360
G1 E0.1500 F120
G4 P300
G1 X100.000 Y80.000 Z4.550 E0.31020 F180
G4 P800
G0 X100.000 Y80.000 Z4.250 F180
G1 X100.000 Y90.000 Z0.750 E0.77839 F360
G1 E0.1500 F120
G4 P300
G1 X100.000 Y90.000 Z4.550 E0.31020 F180
G4 P800
G0 X100.000 Y90.000 Z4.250 F180
G1 X90.000 Y90.000 Z0.750 E0.77839 F360
G1 E0.1500 F120
G4 P300
G1 X90.000 Y90.000 Z4.550 E0.31020 F180
G4 P800
G0 X90.000 Y90.000 Z4.250 F180
G1 X80.000 Y90.000 Z0.750 E0.77839 F360
G1 E0.1500 F120
G4 P300
G1 X80.000 Y90.000 Z4.550 E0.31020 F180
G4 P800
G0 X80.000 Y90.000 Z4.250 F180
G1 X80.000 Y100.000 Z0.750 E0.77839 F360
G1 E0.1500 F120
G4 P300
G1 X80.000 Y100.000 Z4.550 E0.31020 F180
G4 P800
G0 X80.000 Y100.000 Z4.250 F180
G1 X90.000 Y100.000 Z0.750 E0.77839 F360
G1 E0.1500 F120
G4 P300
G1 X90.000 Y100.000 Z4.550 E0.31020 F180
G4 P800
G0 X90.000 Y100.000 Z4.250 F180
G1 X100.000 Y100.000 Z0.750 E0.77839 F360
G1 E0.1500 F120
G4 P300
G1 X100.000 Y100.000 Z4.550 E0.31020 F180
G4 P800
G0 X100.000 Y100.000 Z4.250 F180
G1 E-0.800 F2400
G0 X100.000 Y100.000 Z5.250 F1200
G0 X80.000 Y100.000 Z5.250 F4800
G0 X80.000 Y100.000 Z4.250 F1200
G1 E0.800 F1800
G1 E0.1500 F120
G4 P300
G1 X90.000 Y100.000 Z4.250 E0.81633 F360
G1 E0.0750 F120
G4 P300
G1 X100.000 Y100.000 Z4.250 E0.81633 F360
G1 E0.0750 F120
G4 P300
G1 E-0.800 F2400
G0 X100.000 Y100.000 Z5.250 F1200
G0 X100.000 Y90.000 Z5.250 F4800
G0 X100.000 Y90.000 Z4.250 F1200
G1 E0.800 F1800
G1 E0.1500 F120
G4 P300
G1 X90.000 Y90.000 Z4.250 E0.81633 F360
G1 E0.0750 F120
G4 P300
G1 X80.000 Y90.000 Z4.250 E0.81633 F360
G1 E0.0750 F120
G4 P300
G1 E-0.800 F2400
G0 X80.000 Y90.000 Z5.250 F1200
G0 X80.000 Y80.000 Z5.250 F4800
G0 X80.000 Y80.000 Z4.250 F1200
G1 E0.800 F1800
G1 E0.1500 F120
G4 P300
G1 X90.000 Y80.000 Z4.250 E0.81633 F360
G1 E0.0750 F120
G4 P300
G1 X100.000 Y80.000 Z4.250 E0.81633 F360
G1 E0.0750 F120
G4 P300
G1 E-0.800 F2400
G0 X100.000 Y80.000 Z5.250 F1200
G0 X80.000 Y80.000 Z5.250 F4800
G0 X80.000 Y80.000 Z4.250 F1200
G1 E0.800 F1800
G1 E0.1500 F120
G4 P300
G1 X80.000 Y90.000 Z4.250 E0.81633 F360
G1 E0.0750 F120
G4 P300
G1 X80.000 Y100.000 Z4.250 E0.81633 F360
G1 E0.0750 F120
G4 P300
G1 E-0.800 F2400
G0 X80.000 Y100.000 Z5.250 F1200
G0 X90.000 Y100.000 Z5.250 F4800
G0 X90.000 Y100.000 Z4.250 F1200
G1 E0.800 F1800
G1 E0.1500 F120
G4 P300
G1 X90.000 Y90.000 Z4.250 E0.81633 F360
G1 E0.0750 F120
G4 P300
G1 X90.000 Y80.000 Z4.250 E0.81633 F360
G1 E0.0750 F120
G4 P300
G1 E-0.800 F2400
G0 X90.000 Y80.000 Z5.250 F1200
G0 X100.000 Y80.000 Z5.250 F4800
G0 X100.000 Y80.000 Z4.250 F1200
G1 E0.800 F1800
G1 E0.1500 F120
G4 P300
G1 X100.000 Y90.000 Z4.250 E0.81633 F360
G1 E0.0750 F120
G4 P300
G1 X100.000 Y100.000 Z4.250 E0.81633 F360
G1 E0.0750 F120
G4 P300
G1 E-0.800 F2400
; LEVEL 2/5  z 4.25 -> 7.75
G0 X100.000 Y100.000 Z5.250 F1200
G0 X80.000 Y80.000 Z5.250 F4800
G0 X80.000 Y80.000 Z4.250 F1200
G1 E0.800 F1800
G1 E0.1500 F120
G4 P300
G1 X80.000 Y80.000 Z8.050 E0.31020 F180
G4 P800
G0 X80.000 Y80.000 Z7.750 F180
G1 X90.000 Y80.000 Z4.250 E0.77839 F360
G1 E0.1500 F120
G4 P300
G1 X90.000 Y80.000 Z8.050 E0.31020 F180
G4 P800
G0 X90.000 Y80.000 Z7.750 F180
G1 X100.000 Y80.000 Z4.250 E0.77839 F360
G1 E0.1500 F120
G4 P300
G1 X100.000 Y80.000 Z8.050 E0.31020 F180
G4 P800
G0 X100.000 Y80.000 Z7.750 F180
G1 X100.000 Y90.000 Z4.250 E0.77839 F360
G1 E0.1500 F120
G4 P300
G1 X100.000 Y90.000 Z8.050 E0.31020 F180
G4 P800
G0 X100.000 Y90.000 Z7.750 F180
G1 X90.000 Y90.000 Z4.250 E0.77839 F360
G1 E0.1500 F120
G4 P300
G1 X90.000 Y90.000 Z8.050 E0.31020 F180
G4 P800
G0 X90.000 Y90.000 Z7.750 F180
G1 X80.000 Y90.000 Z4.250 E0.77839 F360
G1 E0.1500 F120
G4 P300
G1 X80.000 Y90.000 Z8.050 E0.31020 F180
G4 P800
G0 X80.000 Y90.000 Z7.750 F180
G1 X80.000 Y100.000 Z4.250 E0.77839 F360
G1 E0.1500 F120
G4 P300
G1 X80.000 Y100.000 Z8.050 E0.31020 F180
G4 P800
G0 X80.000 Y100.000 Z7.750 F180
G1 X90.000 Y100.000 Z4.250 E0.77839 F360
G1 E0.1500 F120
G4 P300
G1 X90.000 Y100.000 Z8.050 E0.31020 F180
G4 P800
G0 X90.000 Y100.000 Z7.750 F180
G1 X100.000 Y100.000 Z4.250 E0.77839 F360
G1 E0.1500 F120
G4 P300
G1 X100.000 Y100.000 Z8.050 E0.31020 F180
G4 P800
G0 X100.000 Y100.000 Z7.750 F180
G1 E-0.800 F2400
G0 X100.000 Y100.000 Z8.750 F1200
G0 X80.000 Y100.000 Z8.750 F4800
G0 X80.000 Y100.000 Z7.750 F1200
G1 E0.800 F1800
G1 E0.1500 F120
G4 P300
G1 X90.000 Y100.000 Z7.750 E0.81633 F360
G1 E0.0750 F120
G4 P300
G1 X100.000 Y100.000 Z7.750 E0.81633 F360
G1 E0.0750 F120
G4 P300
G1 E-0.800 F2400
G0 X100.000 Y100.000 Z8.750 F1200
G0 X100.000 Y90.000 Z8.750 F4800
G0 X100.000 Y90.000 Z7.750 F1200
G1 E0.800 F1800
G1 E0.1500 F120
G4 P300
G1 X90.000 Y90.000 Z7.750 E0.81633 F360
G1 E0.0750 F120
G4 P300
G1 X80.000 Y90.000 Z7.750 E0.81633 F360
G1 E0.0750 F120
G4 P300
G1 E-0.800 F2400
G0 X80.000 Y90.000 Z8.750 F1200
G0 X80.000 Y80.000 Z8.750 F4800
G0 X80.000 Y80.000 Z7.750 F1200
G1 E0.800 F1800
G1 E0.1500 F120
G4 P300
G1 X90.000 Y80.000 Z7.750 E0.81633 F360
G1 E0.0750 F120
G4 P300
G1 X100.000 Y80.000 Z7.750 E0.81633 F360
G1 E0.0750 F120
G4 P300
G1 E-0.800 F2400
G0 X100.000 Y80.000 Z8.750 F1200
G0 X80.000 Y80.000 Z8.750 F4800
G0 X80.000 Y80.000 Z7.750 F1200
G1 E0.800 F1800
G1 E0.1500 F120
G4 P300
G1 X80.000 Y90.000 Z7.750 E0.81633 F360
G1 E0.0750 F120
G4 P300
G1 X80.000 Y100.000 Z7.750 E0.81633 F360
G1 E0.0750 F120
G4 P300
G1 E-0.800 F2400
G0 X80.000 Y100.000 Z8.750 F1200
G0 X90.000 Y100.000 Z8.750 F4800
G0 X90.000 Y100.000 Z7.750 F1200
G1 E0.800 F1800
G1 E0.1500 F120
G4 P300
G1 X90.000 Y90.000 Z7.750 E0.81633 F360
G1 E0.0750 F120
G4 P300
G1 X90.000 Y80.000 Z7.750 E0.81633 F360
G1 E0.0750 F120
G4 P300
G1 E-0.800 F2400
G0 X90.000 Y80.000 Z8.750 F1200
G0 X100.000 Y80.000 Z8.750 F4800
G0 X100.000 Y80.000 Z7.750 F1200
G1 E0.800 F1800
G1 E0.1500 F120
G4 P300
G1 X100.000 Y90.000 Z7.750 E0.81633 F360
G1 E0.0750 F120
G4 P300
G1 X100.000 Y100.000 Z7.750 E0.81633 F360
G1 E0.0750 F120
G4 P300
G1 E-0.800 F2400
; LEVEL 3/5  z 7.75 -> 11.25
G0 X100.000 Y100.000 Z8.750 F1200
G0 X80.000 Y80.000 Z8.750 F4800
G0 X80.000 Y80.000 Z7.750 F1200
G1 E0.800 F1800
G1 E0.1500 F120
G4 P300
G1 X80.000 Y80.000 Z11.550 E0.31020 F180
G4 P800
G0 X80.000 Y80.000 Z11.250 F180
G1 X90.000 Y80.000 Z7.750 E0.77839 F360
G1 E0.1500 F120
G4 P300
G1 X90.000 Y80.000 Z11.550 E0.31020 F180
G4 P800
G0 X90.000 Y80.000 Z11.250 F180
G1 X100.000 Y80.000 Z7.750 E0.77839 F360
G1 E0.1500 F120
G4 P300
G1 X100.000 Y80.000 Z11.550 E0.31020 F180
G4 P800
G0 X100.000 Y80.000 Z11.250 F180
G1 X100.000 Y90.000 Z7.750 E0.77839 F360
G1 E0.1500 F120
G4 P300
G1 X100.000 Y90.000 Z11.550 E0.31020 F180
G4 P800
G0 X100.000 Y90.000 Z11.250 F180
G1 X90.000 Y90.000 Z7.750 E0.77839 F360
G1 E0.1500 F120
G4 P300
G1 X90.000 Y90.000 Z11.550 E0.31020 F180
G4 P800
G0 X90.000 Y90.000 Z11.250 F180
G1 X80.000 Y90.000 Z7.750 E0.77839 F360
G1 E0.1500 F120
G4 P300
G1 X80.000 Y90.000 Z11.550 E0.31020 F180
G4 P800
G0 X80.000 Y90.000 Z11.250 F180
G1 X80.000 Y100.000 Z7.750 E0.77839 F360
G1 E0.1500 F120
G4 P300
G1 X80.000 Y100.000 Z11.550 E0.31020 F180
G4 P800
G0 X80.000 Y100.000 Z11.250 F180
G1 X90.000 Y100.000 Z7.750 E0.77839 F360
G1 E0.1500 F120
G4 P300
G1 X90.000 Y100.000 Z11.550 E0.31020 F180
G4 P800
G0 X90.000 Y100.000 Z11.250 F180
G1 X100.000 Y100.000 Z7.750 E0.77839 F360
G1 E0.1500 F120
G4 P300
G1 X100.000 Y100.000 Z11.550 E0.31020 F180
G4 P800
G0 X100.000 Y100.000 Z11.250 F180
G1 E-0.800 F2400
G0 X100.000 Y100.000 Z12.250 F1200
G0 X80.000 Y100.000 Z12.250 F4800
G0 X80.000 Y100.000 Z11.250 F1200
G1 E0.800 F1800
G1 E0.1500 F120
G4 P300
G1 X90.000 Y100.000 Z11.250 E0.81633 F360
G1 E0.0750 F120
G4 P300
G1 X100.000 Y100.000 Z11.250 E0.81633 F360
G1 E0.0750 F120
G4 P300
G1 E-0.800 F2400
G0 X100.000 Y100.000 Z12.250 F1200
G0 X100.000 Y90.000 Z12.250 F4800
G0 X100.000 Y90.000 Z11.250 F1200
G1 E0.800 F1800
G1 E0.1500 F120
G4 P300
G1 X90.000 Y90.000 Z11.250 E0.81633 F360
G1 E0.0750 F120
G4 P300
G1 X80.000 Y90.000 Z11.250 E0.81633 F360
G1 E0.0750 F120
G4 P300
G1 E-0.800 F2400
G0 X80.000 Y90.000 Z12.250 F1200
G0 X80.000 Y80.000 Z12.250 F4800
G0 X80.000 Y80.000 Z11.250 F1200
G1 E0.800 F1800
G1 E0.1500 F120
G4 P300
G1 X90.000 Y80.000 Z11.250 E0.81633 F360
G1 E0.0750 F120
G4 P300
G1 X100.000 Y80.000 Z11.250 E0.81633 F360
G1 E0.0750 F120
G4 P300
G1 E-0.800 F2400
G0 X100.000 Y80.000 Z12.250 F1200
G0 X80.000 Y80.000 Z12.250 F4800
G0 X80.000 Y80.000 Z11.250 F1200
G1 E0.800 F1800
G1 E0.1500 F120
G4 P300
G1 X80.000 Y90.000 Z11.250 E0.81633 F360
G1 E0.0750 F120
G4 P300
G1 X80.000 Y100.000 Z11.250 E0.81633 F360
G1 E0.0750 F120
G4 P300
G1 E-0.800 F2400
G0 X80.000 Y100.000 Z12.250 F1200
G0 X90.000 Y100.000 Z12.250 F4800
G0 X90.000 Y100.000 Z11.250 F1200
G1 E0.800 F1800
G1 E0.1500 F120
G4 P300
G1 X90.000 Y90.000 Z11.250 E0.81633 F360
G1 E0.0750 F120
G4 P300
G1 X90.000 Y80.000 Z11.250 E0.81633 F360
G1 E0.0750 F120
G4 P300
G1 E-0.800 F2400
G0 X90.000 Y80.000 Z12.250 F1200
G0 X100.000 Y80.000 Z12.250 F4800
G0 X100.000 Y80.000 Z11.250 F1200
G1 E0.800 F1800
G1 E0.1500 F120
G4 P300
G1 X100.000 Y90.000 Z11.250 E0.81633 F360
G1 E0.0750 F120
G4 P300
G1 X100.000 Y100.000 Z11.250 E0.81633 F360
G1 E0.0750 F120
G4 P300
G1 E-0.800 F2400
; LEVEL 4/5  z 11.25 -> 14.75
G0 X100.000 Y100.000 Z12.250 F1200
G0 X80.000 Y80.000 Z12.250 F4800
G0 X80.000 Y80.000 Z11.250 F1200
G1 E0.800 F1800
G1 E0.1500 F120
G4 P300
G1 X80.000 Y80.000 Z15.050 E0.31020 F180
G4 P800
G0 X80.000 Y80.000 Z14.750 F180
G1 X90.000 Y80.000 Z11.250 E0.77839 F360
G1 E0.1500 F120
G4 P300
G1 X90.000 Y80.000 Z15.050 E0.31020 F180
G4 P800
G0 X90.000 Y80.000 Z14.750 F180
G1 X100.000 Y80.000 Z11.250 E0.77839 F360
G1 E0.1500 F120
G4 P300
G1 X100.000 Y80.000 Z15.050 E0.31020 F180
G4 P800
G0 X100.000 Y80.000 Z14.750 F180
G1 X100.000 Y90.000 Z11.250 E0.77839 F360
G1 E0.1500 F120
G4 P300
G1 X100.000 Y90.000 Z15.050 E0.31020 F180
G4 P800
G0 X100.000 Y90.000 Z14.750 F180
G1 X90.000 Y90.000 Z11.250 E0.77839 F360
G1 E0.1500 F120
G4 P300
G1 X90.000 Y90.000 Z15.050 E0.31020 F180
G4 P800
G0 X90.000 Y90.000 Z14.750 F180
G1 X80.000 Y90.000 Z11.250 E0.77839 F360
G1 E0.1500 F120
G4 P300
G1 X80.000 Y90.000 Z15.050 E0.31020 F180
G4 P800
G0 X80.000 Y90.000 Z14.750 F180
G1 X80.000 Y100.000 Z11.250 E0.77839 F360
G1 E0.1500 F120
G4 P300
G1 X80.000 Y100.000 Z15.050 E0.31020 F180
G4 P800
G0 X80.000 Y100.000 Z14.750 F180
G1 X90.000 Y100.000 Z11.250 E0.77839 F360
G1 E0.1500 F120
G4 P300
G1 X90.000 Y100.000 Z15.050 E0.31020 F180
G4 P800
G0 X90.000 Y100.000 Z14.750 F180
G1 X100.000 Y100.000 Z11.250 E0.77839 F360
G1 E0.1500 F120
G4 P300
G1 X100.000 Y100.000 Z15.050 E0.31020 F180
G4 P800
G0 X100.000 Y100.000 Z14.750 F180
G1 E-0.800 F2400
G0 X100.000 Y100.000 Z15.750 F1200
G0 X80.000 Y100.000 Z15.750 F4800
G0 X80.000 Y100.000 Z14.750 F1200
G1 E0.800 F1800
G1 E0.1500 F120
G4 P300
G1 X90.000 Y100.000 Z14.750 E0.81633 F360
G1 E0.0750 F120
G4 P300
G1 X100.000 Y100.000 Z14.750 E0.81633 F360
G1 E0.0750 F120
G4 P300
G1 E-0.800 F2400
G0 X100.000 Y100.000 Z15.750 F1200
G0 X100.000 Y90.000 Z15.750 F4800
G0 X100.000 Y90.000 Z14.750 F1200
G1 E0.800 F1800
G1 E0.1500 F120
G4 P300
G1 X90.000 Y90.000 Z14.750 E0.81633 F360
G1 E0.0750 F120
G4 P300
G1 X80.000 Y90.000 Z14.750 E0.81633 F360
G1 E0.0750 F120
G4 P300
G1 E-0.800 F2400
G0 X80.000 Y90.000 Z15.750 F1200
G0 X80.000 Y80.000 Z15.750 F4800
G0 X80.000 Y80.000 Z14.750 F1200
G1 E0.800 F1800
G1 E0.1500 F120
G4 P300
G1 X90.000 Y80.000 Z14.750 E0.81633 F360
G1 E0.0750 F120
G4 P300
G1 X100.000 Y80.000 Z14.750 E0.81633 F360
G1 E0.0750 F120
G4 P300
G1 E-0.800 F2400
G0 X100.000 Y80.000 Z15.750 F1200
G0 X80.000 Y80.000 Z15.750 F4800
G0 X80.000 Y80.000 Z14.750 F1200
G1 E0.800 F1800
G1 E0.1500 F120
G4 P300
G1 X80.000 Y90.000 Z14.750 E0.81633 F360
G1 E0.0750 F120
G4 P300
G1 X80.000 Y100.000 Z14.750 E0.81633 F360
G1 E0.0750 F120
G4 P300
G1 E-0.800 F2400
G0 X80.000 Y100.000 Z15.750 F1200
G0 X90.000 Y100.000 Z15.750 F4800
G0 X90.000 Y100.000 Z14.750 F1200
G1 E0.800 F1800
G1 E0.1500 F120
G4 P300
G1 X90.000 Y90.000 Z14.750 E0.81633 F360
G1 E0.0750 F120
G4 P300
G1 X90.000 Y80.000 Z14.750 E0.81633 F360
G1 E0.0750 F120
G4 P300
G1 E-0.800 F2400
G0 X90.000 Y80.000 Z15.750 F1200
G0 X100.000 Y80.000 Z15.750 F4800
G0 X100.000 Y80.000 Z14.750 F1200
G1 E0.800 F1800
G1 E0.1500 F120
G4 P300
G1 X100.000 Y90.000 Z14.750 E0.81633 F360
G1 E0.0750 F120
G4 P300
G1 X100.000 Y100.000 Z14.750 E0.81633 F360
G1 E0.0750 F120
G4 P300
G1 E-0.800 F2400
; LEVEL 5/5  z 14.75 -> 18.25
G0 X100.000 Y100.000 Z15.750 F1200
G0 X80.000 Y80.000 Z15.750 F4800
G0 X80.000 Y80.000 Z14.750 F1200
G1 E0.800 F1800
G1 E0.1500 F120
G4 P300
G1 X80.000 Y80.000 Z18.550 E0.31020 F180
G4 P800
G0 X80.000 Y80.000 Z18.250 F180
G1 X90.000 Y80.000 Z14.750 E0.77839 F360
G1 E0.1500 F120
G4 P300
G1 X90.000 Y80.000 Z18.550 E0.31020 F180
G4 P800
G0 X90.000 Y80.000 Z18.250 F180
G1 X100.000 Y80.000 Z14.750 E0.77839 F360
G1 E0.1500 F120
G4 P300
G1 X100.000 Y80.000 Z18.550 E0.31020 F180
G4 P800
G0 X100.000 Y80.000 Z18.250 F180
G1 X100.000 Y90.000 Z14.750 E0.77839 F360
G1 E0.1500 F120
G4 P300
G1 X100.000 Y90.000 Z18.550 E0.31020 F180
G4 P800
G0 X100.000 Y90.000 Z18.250 F180
G1 X90.000 Y90.000 Z14.750 E0.77839 F360
G1 E0.1500 F120
G4 P300
G1 X90.000 Y90.000 Z18.550 E0.31020 F180
G4 P800
G0 X90.000 Y90.000 Z18.250 F180
G1 X80.000 Y90.000 Z14.750 E0.77839 F360
G1 E0.1500 F120
G4 P300
G1 X80.000 Y90.000 Z18.550 E0.31020 F180
G4 P800
G0 X80.000 Y90.000 Z18.250 F180
G1 X80.000 Y100.000 Z14.750 E0.77839 F360
G1 E0.1500 F120
G4 P300
G1 X80.000 Y100.000 Z18.550 E0.31020 F180
G4 P800
G0 X80.000 Y100.000 Z18.250 F180
G1 X90.000 Y100.000 Z14.750 E0.77839 F360
G1 E0.1500 F120
G4 P300
G1 X90.000 Y100.000 Z18.550 E0.31020 F180
G4 P800
G0 X90.000 Y100.000 Z18.250 F180
G1 X100.000 Y100.000 Z14.750 E0.77839 F360
G1 E0.1500 F120
G4 P300
G1 X100.000 Y100.000 Z18.550 E0.31020 F180
G4 P800
G0 X100.000 Y100.000 Z18.250 F180
G1 E-0.800 F2400
G0 X100.000 Y100.000 Z19.250 F1200
G0 X80.000 Y100.000 Z19.250 F4800
G0 X80.000 Y100.000 Z18.250 F1200
G1 E0.800 F1800
G1 E0.1500 F120
G4 P300
G1 X90.000 Y100.000 Z18.250 E0.81633 F360
G1 E0.0750 F120
G4 P300
G1 X100.000 Y100.000 Z18.250 E0.81633 F360
G1 E0.0750 F120
G4 P300
G1 E-0.800 F2400
G0 X100.000 Y100.000 Z19.250 F1200
G0 X100.000 Y90.000 Z19.250 F4800
G0 X100.000 Y90.000 Z18.250 F1200
G1 E0.800 F1800
G1 E0.1500 F120
G4 P300
G1 X90.000 Y90.000 Z18.250 E0.81633 F360
G1 E0.0750 F120
G4 P300
G1 X80.000 Y90.000 Z18.250 E0.81633 F360
G1 E0.0750 F120
G4 P300
G1 E-0.800 F2400
G0 X80.000 Y90.000 Z19.250 F1200
G0 X80.000 Y80.000 Z19.250 F4800
G0 X80.000 Y80.000 Z18.250 F1200
G1 E0.800 F1800
G1 E0.1500 F120
G4 P300
G1 X90.000 Y80.000 Z18.250 E0.81633 F360
G1 E0.0750 F120
G4 P300
G1 X100.000 Y80.000 Z18.250 E0.81633 F360
G1 E0.0750 F120
G4 P300
G1 E-0.800 F2400
G0 X100.000 Y80.000 Z19.250 F1200
G0 X80.000 Y80.000 Z19.250 F4800
G0 X80.000 Y80.000 Z18.250 F1200
G1 E0.800 F1800
G1 E0.1500 F120
G4 P300
G1 X80.000 Y90.000 Z18.250 E0.81633 F360
G1 E0.0750 F120
G4 P300
G1 X80.000 Y100.000 Z18.250 E0.81633 F360
G1 E0.0750 F120
G4 P300
G1 E-0.800 F2400
G0 X80.000 Y100.000 Z19.250 F1200
G0 X90.000 Y100.000 Z19.250 F4800
G0 X90.000 Y100.000 Z18.250 F1200
G1 E0.800 F1800
G1 E0.1500 F120
G4 P300
G1 X90.000 Y90.000 Z18.250 E0.81633 F360
G1 E0.0750 F120
G4 P300
G1 X90.000 Y80.000 Z18.250 E0.81633 F360
G1 E0.0750 F120
G4 P300
G1 E-0.800 F2400
G0 X90.000 Y80.000 Z19.250 F1200
G0 X100.000 Y80.000 Z19.250 F4800
G0 X100.000 Y80.000 Z18.250 F1200
G1 E0.800 F1800
G1 E0.1500 F120
G4 P300
G1 X100.000 Y90.000 Z18.250 E0.81633 F360
G1 E0.0750 F120
G4 P300
G1 X100.000 Y100.000 Z18.250 E0.81633 F360
G1 E0.0750 F120
G4 P300
G1 E-0.800 F2400
; ---- end ----
G1 E-2 F2400
G0 Z33.25 F600
G0 X0 Y170 F4000 ; present the bed slowly (the bed is the Y axis)
M104 S0
M140 S0
M106 P1 S0
M84
