; wireprint.py  shape=grid  levels=8  level_h=3.5
; height 28.8 mm, filament 0.75 m, est. time 23 min
; ---- start (Bambu Lab A1 mini) ----
; filament must already be loaded in the external spool / AMS lite slot in use
G90 ; absolute XYZ
M83 ; relative E
M140 S60
M104 S150 ; warm nozzle without oozing while homing
G28 ; home all axes
M190 S60
M109 S220
M106 P1 S0
G0 Z2 F600
G0 X20 Y3 F6000
G1 Z0.3 F600
G1 X100 Y3 E8 F1200 ; prime line along the front edge
G1 X100 Y3.5 F1200
G1 X20 Y3.5 E6 F1200
G1 E-0.8 F2400
G0 Z2 F600
; BASE layer 1
G0 X20.000 Y3.500 Z3.000 F1200
G0 X72.000 Y72.000 Z3.000 F4800
G0 X72.000 Y72.000 Z0.250 F1200
G1 E0.800 F1800
G1 X108.000 Y72.000 Z0.250 E1.68379 F900
G1 X108.000 Y108.000 Z0.250 E1.68379 F900
G1 X72.000 Y108.000 Z0.250 E1.68379 F900
G1 X72.000 Y72.000 Z0.250 E1.68379 F900
G1 E-0.800 F2400
G0 X72.000 Y72.000 Z1.250 F1200
G0 X72.450 Y72.450 Z1.250 F4800
G0 X72.450 Y72.450 Z0.250 F1200
G1 E0.800 F1800
G1 X72.450 Y107.550 Z0.250 E1.64170 F900
G1 X72.900 Y107.550 Z0.250 E0.02105 F900
G1 X72.900 Y72.450 Z0.250 E1.64170 F900
G1 X73.350 Y72.450 Z0.250 E0.02105 F900
G1 X73.350 Y107.550 Z0.250 E1.64170 F900
G1 X73.800 Y107.550 Z0.250 E0.02105 F900
G1 X73.800 Y72.450 Z0.250 E1.64170 F900
G1 X74.250 Y72.450 Z0.250 E0.02105 F900
G1 X74.250 Y107.550 Z0.250 E1.64170 F900
G1 X74.700 Y107.550 Z0.250 E0.02105 F900
G1 X74.700 Y72.450 Z0.250 E1.64170 F900
G1 X75.150 Y72.450 Z0.250 E0.02105 F900
G1 X75.150 Y107.550 Z0.250 E1.64170 F900
G1 X75.600 Y107.550 Z0.250 E0.02105 F900
G1 X75.600 Y72.450 Z0.250 E1.64170 F900
G1 X76.050 Y72.450 Z0.250 E0.02105 F900
G1 X76.050 Y107.550 Z0.250 E1.64170 F900
G1 X76.500 Y107.550 Z0.250 E0.02105 F900
G1 X76.500 Y72.450 Z0.250 E1.64170 F900
G1 X76.950 Y72.450 Z0.250 E0.02105 F900
G1 X76.950 Y107.550 Z0.250 E1.64170 F900
G1 X77.400 Y107.550 Z0.250 E0.02105 F900
G1 X77.400 Y72.450 Z0.250 E1.64170 F900
G1 X77.850 Y72.450 Z0.250 E0.02105 F900
G1 X77.850 Y107.550 Z0.250 E1.64170 F900
G1 X78.300 Y107.550 Z0.250 E0.02105 F900
G1 X78.300 Y72.450 Z0.250 E1.64170 F900
G1 X78.750 Y72.450 Z0.250 E0.02105 F900
G1 X78.750 Y107.550 Z0.250 E1.64170 F900
G1 X79.200 Y107.550 Z0.250 E0.02105 F900
G1 X79.200 Y72.450 Z0.250 E1.64170 F900
G1 X79.650 Y72.450 Z0.250 E0.02105 F900
G1 X79.650 Y107.550 Z0.250 E1.64170 F900
G1 X80.100 Y107.550 Z0.250 E0.02105 F900
G1 X80.100 Y72.450 Z0.250 E1.64170 F900
G1 X80.550 Y72.450 Z0.250 E0.02105 F900
G1 X80.550 Y107.550 Z0.250 E1.64170 F900
G1 X81.000 Y107.550 Z0.250 E0.02105 F900
G1 X81.000 Y72.450 Z0.250 E1.64170 F900
G1 X81.450 Y72.450 Z0.250 E0.02105 F900
G1 X81.450 Y107.550 Z0.250 E1.64170 F900
G1 X81.900 Y107.550 Z0.250 E0.02105 F900
G1 X81.900 Y72.450 Z0.250 E1.64170 F900
G1 X82.350 Y72.450 Z0.250 E0.02105 F900
G1 X82.350 Y107.550 Z0.250 E1.64170 F900
G1 X82.800 Y107.550 Z0.250 E0.02105 F900
G1 X82.800 Y72.450 Z0.250 E1.64170 F900
G1 X83.250 Y72.450 Z0.250 E0.02105 F900
G1 X83.250 Y107.550 Z0.250 E1.64170 F900
G1 X83.700 Y107.550 Z0.250 E0.02105 F900
G1 X83.700 Y72.450 Z0.250 E1.64170 F900
G1 X84.150 Y72.450 Z0.250 E0.02105 F900
G1 X84.150 Y107.550 Z0.250 E1.64170 F900
G1 X84.600 Y107.550 Z0.250 E0.02105 F900
G1 X84.600 Y72.450 Z0.250 E1.64170 F900
G1 X85.050 Y72.450 Z0.250 E0.02105 F900
G1 X85.050 Y107.550 Z0.250 E1.64170 F900
G1 X85.500 Y107.550 Z0.250 E0.02105 F900
G1 X85.500 Y72.450 Z0.250 E1.64170 F900
G1 X85.950 Y72.450 Z0.250 E0.02105 F900
G1 X85.950 Y107.550 Z0.250 E1.64170 F900
G1 X86.400 Y107.550 Z0.250 E0.02105 F900
G1 X86.400 Y72.450 Z0.250 E1.64170 F900
G1 X86.850 Y72.450 Z0.250 E0.02105 F900
G1 X86.850 Y107.550 Z0.250 E1.64170 F900
G1 X87.300 Y107.550 Z0.250 E0.02105 F900
G1 X87.300 Y72.450 Z0.250 E1.64170 F900
G1 X87.750 Y72.450 Z0.250 E0.02105 F900
G1 X87.750 Y107.550 Z0.250 E1.64170 F900
G1 X88.200 Y107.550 Z0.250 E0.02105 F900
G1 X88.200 Y72.450 Z0.250 E1.64170 F900
G1 X88.650 Y72.450 Z0.250 E0.02105 F900
G1 X88.650 Y107.550 Z0.250 E1.64170 F900
G1 X89.100 Y107.550 Z0.250 E0.02105 F900
G1 X89.100 Y72.450 Z0.250 E1.64170 F900
G1 X89.550 Y72.450 Z0.250 E0.02105 F900
G1 X89.550 Y107.550 Z0.250 E1.64170 F900
G1 X90.000 Y107.550 Z0.250 E0.02105 F900
G1 X90.000 Y72.450 Z0.250 E1.64170 F900
G1 X90.450 Y72.450 Z0.250 E0.02105 F900
G1 X90.450 Y107.550 Z0.250 E1.64170 F900
G1 X90.900 Y107.550 Z0.250 E0.02105 F900
G1 X90.900 Y72.450 Z0.250 E1.64170 F900
G1 X91.350 Y72.450 Z0.250 E0.02105 F900
G1 X91.350 Y107.550 Z0.250 E1.64170 F900
G1 X91.800 Y107.550 Z0.250 E0.02105 F900
G1 X91.800 Y72.450 Z0.250 E1.64170 F900
G1 X92.250 Y72.450 Z0.250 E0.02105 F900
G1 X92.250 Y107.550 Z0.250 E1.64170 F900
G1 X92.700 Y107.550 Z0.250 E0.02105 F900
G1 X92.700 Y72.450 Z0.250 E1.64170 F900
G1 X93.150 Y72.450 Z0.250 E0.02105 F900
G1 X93.150 Y107.550 Z0.250 E1.64170 F900
G1 X93.600 Y107.550 Z0.250 E0.02105 F900
G1 X93.600 Y72.450 Z0.250 E1.64170 F900
G1 X94.050 Y72.450 Z0.250 E0.02105 F900
G1 X94.050 Y107.550 Z0.250 E1.64170 F900
G1 X94.500 Y107.550 Z0.250 E0.02105 F900
G1 X94.500 Y72.450 Z0.250 E1.64170 F900
G1 X94.950 Y72.450 Z0.250 E0.02105 F900
G1 X94.950 Y107.550 Z0.250 E1.64170 F900
G1 X95.400 Y107.550 Z0.250 E0.02105 F900
G1 X95.400 Y72.450 Z0.250 E1.64170 F900
G1 X95.850 Y72.450 Z0.250 E0.02105 F900
G1 X95.850 Y107.550 Z0.250 E1.64170 F900
G1 X96.300 Y107.550 Z0.250 E0.02105 F900
G1 X96.300 Y72.450 Z0.250 E1.64170 F900
G1 X96.750 Y72.450 Z0.250 E0.02105 F900
G1 X96.750 Y107.550 Z0.250 E1.64170 F900
G1 X97.200 Y107.550 Z0.250 E0.02105 F900
G1 X97.200 Y72.450 Z0.250 E1.64170 F900
G1 X97.650 Y72.450 Z0.250 E0.02105 F900
G1 X97.650 Y107.550 Z0.250 E1.64170 F900
G1 X98.100 Y107.550 Z0.250 E0.02105 F900
G1 X98.100 Y72.450 Z0.250 E1.64170 F900
G1 X98.550 Y72.450 Z0.250 E0.02105 F900
G1 X98.550 Y107.550 Z0.250 E1.64170 F900
G1 X99.000 Y107.550 Z0.250 E0.02105 F900
G1 X99.000 Y72.450 Z0.250 E1.64170 F900
G1 X99.450 Y72.450 Z0.250 E0.02105 F900
G1 X99.450 Y107.550 Z0.250 E1.64170 F900
G1 X99.900 Y107.550 Z0.250 E0.02105 F900
G1 X99.900 Y72.450 Z0.250 E1.64170 F900
G1 X100.350 Y72.450 Z0.250 E0.02105 F900
G1 X100.350 Y107.550 Z0.250 E1.64170 F900
G1 X100.800 Y107.550 Z0.250 E0.02105 F900
G1 X100.800 Y72.450 Z0.250 E1.64170 F900
G1 X101.250 Y72.450 Z0.250 E0.02105 F900
G1 X101.250 Y107.550 Z0.250 E1.64170 F900
G1 X101.700 Y107.550 Z0.250 E0.02105 F900
G1 X101.700 Y72.450 Z0.250 E1.64170 F900
G1 X102.150 Y72.450 Z0.250 E0.02105 F900
G1 X102.150 Y107.550 Z0.250 E1.64170 F900
G1 X102.600 Y107.550 Z0.250 E0.02105 F900
G1 X102.600 Y72.450 Z0.250 E1.64170 F900
G1 X103.050 Y72.450 Z0.250 E0.02105 F900
G1 X103.050 Y107.550 Z0.250 E1.64170 F900
G1 X103.500 Y107.550 Z0.250 E0.02105 F900
G1 X103.500 Y72.450 Z0.250 E1.64170 F900
G1 X103.950 Y72.450 Z0.250 E0.02105 F900
G1 X103.950 Y107.550 Z0.250 E1.64170 F900
G1 X104.400 Y107.550 Z0.250 E0.02105 F900
G1 X104.400 Y72.450 Z0.250 E1.64170 F900
G1 X104.850 Y72.450 Z0.250 E0.02105 F900
G1 X104.850 Y107.550 Z0.250 E1.64170 F900
G1 X105.300 Y107.550 Z0.250 E0.02105 F900
G1 X105.300 Y72.450 Z0.250 E1.64170 F900
G1 X105.750 Y72.450 Z0.250 E0.02105 F900
G1 X105.750 Y107.550 Z0.250 E1.64170 F900
G1 X106.200 Y107.550 Z0.250 E0.02105 F900
G1 X106.200 Y72.450 Z0.250 E1.64170 F900
G1 X106.650 Y72.450 Z0.250 E0.02105 F900
G1 X106.650 Y107.550 Z0.250 E1.64170 F900
G1 X107.100 Y107.550 Z0.250 E0.02105 F900
G1 X107.100 Y72.450 Z0.250 E1.64170 F900
G1 X107.550 Y72.450 Z0.250 E0.02105 F900
G1 X107.550 Y107.550 Z0.250 E1.64170 F900
; BASE layer 2
M106 P1 S128
G1 E-0.800 F2400
G0 X107.550 Y107.550 Z1.500 F1200
G0 X72.000 Y72.000 Z1.500 F4800
G0 X72.000 Y72.000 Z0.500 F1200
G1 E0.800 F1800
G1 X108.000 Y72.000 Z0.500 E1.68379 F1500
G1 X108.000 Y108.000 Z0.500 E1.68379 F1500
G1 X72.000 Y108.000 Z0.500 E1.68379 F1500
G1 X72.000 Y72.000 Z0.500 E1.68379 F1500
G1 E-0.800 F2400
G0 X72.000 Y72.000 Z1.500 F1200
G0 X72.450 Y72.450 Z1.500 F4800
G0 X72.450 Y72.450 Z0.500 F1200
G1 E0.800 F1800
G1 X107.550 Y72.450 Z0.500 E1.64170 F1500
G1 X107.550 Y72.900 Z0.500 E0.02105 F1500
G1 X72.450 Y72.900 Z0.500 E1.64170 F1500
G1 X72.450 Y73.350 Z0.500 E0.02105 F1500
G1 X107.550 Y73.350 Z0.500 E1.64170 F1500
G1 X107.550 Y73.800 Z0.500 E0.02105 F1500
G1 X72.450 Y73.800 Z0.500 E1.64170 F1500
G1 X72.450 Y74.250 Z0.500 E0.02105 F1500
G1 X107.550 Y74.250 Z0.500 E1.64170 F1500
G1 X107.550 Y74.700 Z0.500 E0.02105 F1500
G1 X72.450 Y74.700 Z0.500 E1.64170 F1500
G1 X72.450 Y75.150 Z0.500 E0.02105 F1500
G1 X107.550 Y75.150 Z0.500 E1.64170 F1500
G1 X107.550 Y75.600 Z0.500 E0.02105 F1500
G1 X72.450 Y75.600 Z0.500 E1.64170 F1500
G1 X72.450 Y76.050 Z0.500 E0.02105 F1500
G1 X107.550 Y76.050 Z0.500 E1.64170 F1500
G1 X107.550 Y76.500 Z0.500 E0.02105 F1500
G1 X72.450 Y76.500 Z0.500 E1.64170 F1500
G1 X72.450 Y76.950 Z0.500 E0.02105 F1500
G1 X107.550 Y76.950 Z0.500 E1.64170 F1500
G1 X107.550 Y77.400 Z0.500 E0.02105 F1500
G1 X72.450 Y77.400 Z0.500 E1.64170 F1500
G1 X72.450 Y77.850 Z0.500 E0.02105 F1500
G1 X107.550 Y77.850 Z0.500 E1.64170 F1500
G1 X107.550 Y78.300 Z0.500 E0.02105 F1500
G1 X72.450 Y78.300 Z0.500 E1.64170 F1500
G1 X72.450 Y78.750 Z0.500 E0.02105 F1500
G1 X107.550 Y78.750 Z0.500 E1.64170 F1500
G1 X107.550 Y79.200 Z0.500 E0.02105 F1500
G1 X72.450 Y79.200 Z0.500 E1.64170 F1500
G1 X72.450 Y79.650 Z0.500 E0.02105 F1500
G1 X107.550 Y79.650 Z0.500 E1.64170 F1500
G1 X107.550 Y80.100 Z0.500 E0.02105 F1500
G1 X72.450 Y80.100 Z0.500 E1.64170 F1500
G1 X72.450 Y80.550 Z0.500 E0.02105 F1500
G1 X107.550 Y80.550 Z0.500 E1.64170 F1500
G1 X107.550 Y81.000 Z0.500 E0.02105 F1500
G1 X72.450 Y81.000 Z0.500 E1.64170 F1500
G1 X72.450 Y81.450 Z0.500 E0.02105 F1500
G1 X107.550 Y81.450 Z0.500 E1.64170 F1500
G1 X107.550 Y81.900 Z0.500 E0.02105 F1500
G1 X72.450 Y81.900 Z0.500 E1.64170 F1500
G1 X72.450 Y82.350 Z0.500 E0.02105 F1500
G1 X107.550 Y82.350 Z0.500 E1.64170 F1500
G1 X107.550 Y82.800 Z0.500 E0.02105 F1500
G1 X72.450 Y82.800 Z0.500 E1.64170 F1500
G1 X72.450 Y83.250 Z0.500 E0.02105 F1500
G1 X107.550 Y83.250 Z0.500 E1.64170 F1500
G1 X107.550 Y83.700 Z0.500 E0.02105 F1500
G1 X72.450 Y83.700 Z0.500 E1.64170 F1500
G1 X72.450 Y84.150 Z0.500 E0.02105 F1500
G1 X107.550 Y84.150 Z0.500 E1.64170 F1500
G1 X107.550 Y84.600 Z0.500 E0.02105 F1500
G1 X72.450 Y84.600 Z0.500 E1.64170 F1500
G1 X72.450 Y85.050 Z0.500 E0.02105 F1500
G1 X107.550 Y85.050 Z0.500 E1.64170 F1500
G1 X107.550 Y85.500 Z0.500 E0.02105 F1500
G1 X72.450 Y85.500 Z0.500 E1.64170 F1500
G1 X72.450 Y85.950 Z0.500 E0.02105 F1500
G1 X107.550 Y85.950 Z0.500 E1.64170 F1500
G1 X107.550 Y86.400 Z0.500 E0.02105 F1500
G1 X72.450 Y86.400 Z0.500 E1.64170 F1500
G1 X72.450 Y86.850 Z0.500 E0.02105 F1500
G1 X107.550 Y86.850 Z0.500 E1.64170 F1500
G1 X107.550 Y87.300 Z0.500 E0.02105 F1500
G1 X72.450 Y87.300 Z0.500 E1.64170 F1500
G1 X72.450 Y87.750 Z0.500 E0.02105 F1500
G1 X107.550 Y87.750 Z0.500 E1.64170 F1500
G1 X107.550 Y88.200 Z0.500 E0.02105 F1500
G1 X72.450 Y88.200 Z0.500 E1.64170 F1500
G1 X72.450 Y88.650 Z0.500 E0.02105 F1500
G1 X107.550 Y88.650 Z0.500 E1.64170 F1500
G1 X107.550 Y89.100 Z0.500 E0.02105 F1500
G1 X72.450 Y89.100 Z0.500 E1.64170 F1500
G1 X72.450 Y89.550 Z0.500 E0.02105 F1500
G1 X107.550 Y89.550 Z0.500 E1.64170 F1500
G1 X107.550 Y90.000 Z0.500 E0.02105 F1500
G1 X72.450 Y90.000 Z0.500 E1.64170 F1500
G1 X72.450 Y90.450 Z0.500 E0.02105 F1500
G1 X107.550 Y90.450 Z0.500 E1.64170 F1500
G1 X107.550 Y90.900 Z0.500 E0.02105 F1500
G1 X72.450 Y90.900 Z0.500 E1.64170 F1500
G1 X72.450 Y91.350 Z0.500 E0.02105 F1500
G1 X107.550 Y91.350 Z0.500 E1.64170 F1500
G1 X107.550 Y91.800 Z0.500 E0.02105 F1500
G1 X72.450 Y91.800 Z0.500 E1.64170 F1500
G1 X72.450 Y92.250 Z0.500 E0.02105 F1500
G1 X107.550 Y92.250 Z0.500 E1.64170 F1500
G1 X107.550 Y92.700 Z0.500 E0.02105 F1500
G1 X72.450 Y92.700 Z0.500 E1.64170 F1500
G1 X72.450 Y93.150 Z0.500 E0.02105 F1500
G1 X107.550 Y93.150 Z0.500 E1.64170 F1500
G1 X107.550 Y93.600 Z0.500 E0.02105 F1500
G1 X72.450 Y93.600 Z0.500 E1.64170 F1500
G1 X72.450 Y94.050 Z0.500 E0.02105 F1500
G1 X107.550 Y94.050 Z0.500 E1.64170 F1500
G1 X107.550 Y94.500 Z0.500 E0.02105 F1500
G1 X72.450 Y94.500 Z0.500 E1.64170 F1500
G1 X72.450 Y94.950 Z0.500 E0.02105 F1500
G1 X107.550 Y94.950 Z0.500 E1.64170 F1500
G1 X107.550 Y95.400 Z0.500 E0.02105 F1500
G1 X72.450 Y95.400 Z0.500 E1.64170 F1500
G1 X72.450 Y95.850 Z0.500 E0.02105 F1500
G1 X107.550 Y95.850 Z0.500 E1.64170 F1500
G1 X107.550 Y96.300 Z0.500 E0.02105 F1500
G1 X72.450 Y96.300 Z0.500 E1.64170 F1500
G1 X72.450 Y96.750 Z0.500 E0.02105 F1500
G1 X107.550 Y96.750 Z0.500 E1.64170 F1500
G1 X107.550 Y97.200 Z0.500 E0.02105 F1500
G1 X72.450 Y97.200 Z0.500 E1.64170 F1500
G1 X72.450 Y97.650 Z0.500 E0.02105 F1500
G1 X107.550 Y97.650 Z0.500 E1.64170 F1500
G1 X107.550 Y98.100 Z0.500 E0.02105 F1500
G1 X72.450 Y98.100 Z0.500 E1.64170 F1500
G1 X72.450 Y98.550 Z0.500 E0.02105 F1500
G1 X107.550 Y98.550 Z0.500 E1.64170 F1500
G1 X107.550 Y99.000 Z0.500 E0.02105 F1500
G1 X72.450 Y99.000 Z0.500 E1.64170 F1500
G1 X72.450 Y99.450 Z0.500 E0.02105 F1500
G1 X107.550 Y99.450 Z0.500 E1.64170 F1500
G1 X107.550 Y99.900 Z0.500 E0.02105 F1500
G1 X72.450 Y99.900 Z0.500 E1.64170 F1500
G1 X72.450 Y100.350 Z0.500 E0.02105 F1500
G1 X107.550 Y100.350 Z0.500 E1.64170 F1500
G1 X107.550 Y100.800 Z0.500 E0.02105 F1500
G1 X72.450 Y100.800 Z0.500 E1.64170 F1500
G1 X72.450 Y101.250 Z0.500 E0.02105 F1500
G1 X107.550 Y101.250 Z0.500 E1.64170 F1500
G1 X107.550 Y101.700 Z0.500 E0.02105 F1500
G1 X72.450 Y101.700 Z0.500 E1.64170 F1500
G1 X72.450 Y102.150 Z0.500 E0.02105 F1500
G1 X107.550 Y102.150 Z0.500 E1.64170 F1500
G1 X107.550 Y102.600 Z0.500 E0.02105 F1500
G1 X72.450 Y102.600 Z0.500 E1.64170 F1500
G1 X72.450 Y103.050 Z0.500 E0.02105 F1500
G1 X107.550 Y103.050 Z0.500 E1.64170 F1500
G1 X107.550 Y103.500 Z0.500 E0.02105 F1500
G1 X72.450 Y103.500 Z0.500 E1.64170 F1500
G1 X72.450 Y103.950 Z0.500 E0.02105 F1500
G1 X107.550 Y103.950 Z0.500 E1.64170 F1500
G1 X107.550 Y104.400 Z0.500 E0.02105 F1500
G1 X72.450 Y104.400 Z0.500 E1.64170 F1500
G1 X72.450 Y104.850 Z0.500 E0.02105 F1500
G1 X107.550 Y104.850 Z0.500 E1.64170 F1500
G1 X107.550 Y105.300 Z0.500 E0.02105 F1500
G1 X72.450 Y105.300 Z0.500 E1.64170 F1500
G1 X72.450 Y105.750 Z0.500 E0.02105 F1500
G1 X107.550 Y105.750 Z0.500 E1.64170 F1500
G1 X107.550 Y106.200 Z0.500 E0.02105 F1500
G1 X72.450 Y106.200 Z0.500 E1.64170 F1500
G1 X72.450 Y106.650 Z0.500 E0.02105 F1500
G1 X107.550 Y106.650 Z0.500 E1.64170 F1500
G1 X107.550 Y107.100 Z0.500 E0.02105 F1500
G1 X72.450 Y107.100 Z0.500 E1.64170 F1500
G1 X72.450 Y107.550 Z0.500 E0.02105 F1500
G1 X107.550 Y107.550 Z0.500 E1.64170 F1500
; BASE layer 3
G1 E-0.800 F2400
G0 X107.550 Y107.550 Z1.750 F1200
G0 X72.000 Y72.000 Z1.750 F4800
G0 X72.000 Y72.000 Z0.750 F1200
G1 E0.800 F1800
G1 X108.000 Y72.000 Z0.750 E1.68379 F1500
G1 X108.000 Y108.000 Z0.750 E1.68379 F1500
G1 X72.000 Y108.000 Z0.750 E1.68379 F1500
G1 X72.000 Y72.000 Z0.750 E1.68379 F1500
G1 E-0.800 F2400
G0 X72.000 Y72.000 Z1.750 F1200
G0 X72.450 Y72.450 Z1.750 F4800
G0 X72.450 Y72.450 Z0.750 F1200
G1 E0.800 F1800
G1 X72.450 Y107.550 Z0.750 E1.64170 F1500
G1 X72.900 Y107.550 Z0.750 E0.02105 F1500
G1 X72.900 Y72.450 Z0.750 E1.64170 F1500
G1 X73.350 Y72.450 Z0.750 E0.02105 F1500
G1 X73.350 Y107.550 Z0.750 E1.64170 F1500
G1 X73.800 Y107.550 Z0.750 E0.02105 F1500
G1 X73.800 Y72.450 Z0.750 E1.64170 F1500
G1 X74.250 Y72.450 Z0.750 E0.02105 F1500
G1 X74.250 Y107.550 Z0.750 E1.64170 F1500
G1 X74.700 Y107.550 Z0.750 E0.02105 F1500
G1 X74.700 Y72.450 Z0.750 E1.64170 F1500
G1 X75.150 Y72.450 Z0.750 E0.02105 F1500
G1 X75.150 Y107.550 Z0.750 E1.64170 F1500
G1 X75.600 Y107.550 Z0.750 E0.02105 F1500
G1 X75.600 Y72.450 Z0.750 E1.64170 F1500
G1 X76.050 Y72.450 Z0.750 E0.02105 F1500
G1 X76.050 Y107.550 Z0.750 E1.64170 F1500
G1 X76.500 Y107.550 Z0.750 E0.02105 F1500
G1 X76.500 Y72.450 Z0.750 E1.64170 F1500
G1 X76.950 Y72.450 Z0.750 E0.02105 F1500
G1 X76.950 Y107.550 Z0.750 E1.64170 F1500
G1 X77.400 Y107.550 Z0.750 E0.02105 F1500
G1 X77.400 Y72.450 Z0.750 E1.64170 F1500
G1 X77.850 Y72.450 Z0.750 E0.02105 F1500
G1 X77.850 Y107.550 Z0.750 E1.64170 F1500
G1 X78.300 Y107.550 Z0.750 E0.02105 F1500
G1 X78.300 Y72.450 Z0.750 E1.64170 F1500
G1 X78.750 Y72.450 Z0.750 E0.02105 F1500
G1 X78.750 Y107.550 Z0.750 E1.64170 F1500
G1 X79.200 Y107.550 Z0.750 E0.02105 F1500
G1 X79.200 Y72.450 Z0.750 E1.64170 F1500
G1 X79.650 Y72.450 Z0.750 E0.02105 F1500
G1 X79.650 Y107.550 Z0.750 E1.64170 F1500
G1 X80.100 Y107.550 Z0.750 E0.02105 F1500
G1 X80.100 Y72.450 Z0.750 E1.64170 F1500
G1 X80.550 Y72.450 Z0.750 E0.02105 F1500
G1 X80.550 Y107.550 Z0.750 E1.64170 F1500
G1 X81.000 Y107.550 Z0.750 E0.02105 F1500
G1 X81.000 Y72.450 Z0.750 E1.64170 F1500
G1 X81.450 Y72.450 Z0.750 E0.02105 F1500
G1 X81.450 Y107.550 Z0.750 E1.64170 F1500
G1 X81.900 Y107.550 Z0.750 E0.02105 F1500
G1 X81.900 Y72.450 Z0.750 E1.64170 F1500
G1 X82.350 Y72.450 Z0.750 E0.02105 F1500
G1 X82.350 Y107.550 Z0.750 E1.64170 F1500
G1 X82.800 Y107.550 Z0.750 E0.02105 F1500
G1 X82.800 Y72.450 Z0.750 E1.64170 F1500
G1 X83.250 Y72.450 Z0.750 E0.02105 F1500
G1 X83.250 Y107.550 Z0.750 E1.64170 F1500
G1 X83.700 Y107.550 Z0.750 E0.02105 F1500
G1 X83.700 Y72.450 Z0.750 E1.64170 F1500
G1 X84.150 Y72.450 Z0.750 E0.02105 F1500
G1 X84.150 Y107.550 Z0.750 E1.64170 F1500
G1 X84.600 Y107.550 Z0.750 E0.02105 F1500
G1 X84.600 Y72.450 Z0.750 E1.64170 F1500
G1 X85.050 Y72.450 Z0.750 E0.02105 F1500
G1 X85.050 Y107.550 Z0.750 E1.64170 F1500
G1 X85.500 Y107.550 Z0.750 E0.02105 F1500
G1 X85.500 Y72.450 Z0.750 E1.64170 F1500
G1 X85.950 Y72.450 Z0.750 E0.02105 F1500
G1 X85.950 Y107.550 Z0.750 E1.64170 F1500
G1 X86.400 Y107.550 Z0.750 E0.02105 F1500
G1 X86.400 Y72.450 Z0.750 E1.64170 F1500
G1 X86.850 Y72.450 Z0.750 E0.02105 F1500
G1 X86.850 Y107.550 Z0.750 E1.64170 F1500
G1 X87.300 Y107.550 Z0.750 E0.02105 F1500
G1 X87.300 Y72.450 Z0.750 E1.64170 F1500
G1 X87.750 Y72.450 Z0.750 E0.02105 F1500
G1 X87.750 Y107.550 Z0.750 E1.64170 F1500
G1 X88.200 Y107.550 Z0.750 E0.02105 F1500
G1 X88.200 Y72.450 Z0.750 E1.64170 F1500
G1 X88.650 Y72.450 Z0.750 E0.02105 F1500
G1 X88.650 Y107.550 Z0.750 E1.64170 F1500
G1 X89.100 Y107.550 Z0.750 E0.02105 F1500
G1 X89.100 Y72.450 Z0.750 E1.64170 F1500
G1 X89.550 Y72.450 Z0.750 E0.02105 F1500
G1 X89.550 Y107.550 Z0.750 E1.64170 F1500
G1 X90.000 Y107.550 Z0.750 E0.02105 F1500
G1 X90.000 Y72.450 Z0.750 E1.64170 F1500
G1 X90.450 Y72.450 Z0.750 E0.02105 F1500
G1 X90.450 Y107.550 Z0.750 E1.64170 F1500
G1 X90.900 Y107.550 Z0.750 E0.02105 F1500
G1 X90.900 Y72.450 Z0.750 E1.64170 F1500
G1 X91.350 Y72.450 Z0.750 E0.02105 F1500
G1 X91.350 Y107.550 Z0.750 E1.64170 F1500
G1 X91.800 Y107.550 Z0.750 E0.02105 F1500
G1 X91.800 Y72.450 Z0.750 E1.64170 F1500
G1 X92.250 Y72.450 Z0.750 E0.02105 F1500
G1 X92.250 Y107.550 Z0.750 E1.64170 F1500
G1 X92.700 Y107.550 Z0.750 E0.02105 F1500
G1 X92.700 Y72.450 Z0.750 E1.64170 F1500
G1 X93.150 Y72.450 Z0.750 E0.02105 F1500
G1 X93.150 Y107.550 Z0.750 E1.64170 F1500
G1 X93.600 Y107.550 Z0.750 E0.02105 F1500
G1 X93.600 Y72.450 Z0.750 E1.64170 F1500
G1 X94.050 Y72.450 Z0.750 E0.02105 F1500
G1 X94.050 Y107.550 Z0.750 E1.64170 F1500
G1 X94.500 Y107.550 Z0.750 E0.02105 F1500
G1 X94.500 Y72.450 Z0.750 E1.64170 F1500
G1 X94.950 Y72.450 Z0.750 E0.02105 F1500
G1 X94.950 Y107.550 Z0.750 E1.64170 F1500
G1 X95.400 Y107.550 Z0.750 E0.02105 F1500
G1 X95.400 Y72.450 Z0.750 E1.64170 F1500
G1 X95.850 Y72.450 Z0.750 E0.02105 F1500
G1 X95.850 Y107.550 Z0.750 E1.64170 F1500
G1 X96.300 Y107.550 Z0.750 E0.02105 F1500
G1 X96.300 Y72.450 Z0.750 E1.64170 F1500
G1 X96.750 Y72.450 Z0.750 E0.02105 F1500
G1 X96.750 Y107.550 Z0.750 E1.64170 F1500
G1 X97.200 Y107.550 Z0.750 E0.02105 F1500
G1 X97.200 Y72.450 Z0.750 E1.64170 F1500
G1 X97.650 Y72.450 Z0.750 E0.02105 F1500
G1 X97.650 Y107.550 Z0.750 E1.64170 F1500
G1 X98.100 Y107.550 Z0.750 E0.02105 F1500
G1 X98.100 Y72.450 Z0.750 E1.64170 F1500
G1 X98.550 Y72.450 Z0.750 E0.02105 F1500
G1 X98.550 Y107.550 Z0.750 E1.64170 F1500
G1 X99.000 Y107.550 Z0.750 E0.02105 F1500
G1 X99.000 Y72.450 Z0.750 E1.64170 F1500
G1 X99.450 Y72.450 Z0.750 E0.02105 F1500
G1 X99.450 Y107.550 Z0.750 E1.64170 F1500
G1 X99.900 Y107.550 Z0.750 E0.02105 F1500
G1 X99.900 Y72.450 Z0.750 E1.64170 F1500
G1 X100.350 Y72.450 Z0.750 E0.02105 F1500
G1 X100.350 Y107.550 Z0.750 E1.64170 F1500
G1 X100.800 Y107.550 Z0.750 E0.02105 F1500
G1 X100.800 Y72.450 Z0.750 E1.64170 F1500
G1 X101.250 Y72.450 Z0.750 E0.02105 F1500
G1 X101.250 Y107.550 Z0.750 E1.64170 F1500
G1 X101.700 Y107.550 Z0.750 E0.02105 F1500
G1 X101.700 Y72.450 Z0.750 E1.64170 F1500
G1 X102.150 Y72.450 Z0.750 E0.02105 F1500
G1 X102.150 Y107.550 Z0.750 E1.64170 F1500
G1 X102.600 Y107.550 Z0.750 E0.02105 F1500
G1 X102.600 Y72.450 Z0.750 E1.64170 F1500
G1 X103.050 Y72.450 Z0.750 E0.02105 F1500
G1 X103.050 Y107.550 Z0.750 E1.64170 F1500
G1 X103.500 Y107.550 Z0.750 E0.02105 F1500
G1 X103.500 Y72.450 Z0.750 E1.64170 F1500
G1 X103.950 Y72.450 Z0.750 E0.02105 F1500
G1 X103.950 Y107.550 Z0.750 E1.64170 F1500
G1 X104.400 Y107.550 Z0.750 E0.02105 F1500
G1 X104.400 Y72.450 Z0.750 E1.64170 F1500
G1 X104.850 Y72.450 Z0.750 E0.02105 F1500
G1 X104.850 Y107.550 Z0.750 E1.64170 F1500
G1 X105.300 Y107.550 Z0.750 E0.02105 F1500
G1 X105.300 Y72.450 Z0.750 E1.64170 F1500
G1 X105.750 Y72.450 Z0.750 E0.02105 F1500
G1 X105.750 Y107.550 Z0.750 E1.64170 F1500
G1 X106.200 Y107.550 Z0.750 E0.02105 F1500
G1 X106.200 Y72.450 Z0.750 E1.64170 F1500
G1 X106.650 Y72.450 Z0.750 E0.02105 F1500
G1 X106.650 Y107.550 Z0.750 E1.64170 F1500
G1 X107.100 Y107.550 Z0.750 E0.02105 F1500
G1 X107.100 Y72.450 Z0.750 E1.64170 F1500
G1 X107.550 Y72.450 Z0.750 E0.02105 F1500
G1 X107.550 Y107.550 Z0.750 E1.64170 F1500
; WIRE PRINTING
M106 P1 S255 ; full fan for wires
; LEVEL 1/8  z 0.75 -> 4.25
G1 E-0.800 F2400
G0 X107.550 Y107.550 Z1.750 F1200
G0 X75.000 Y75.000 Z1.750 F4800
G0 X75.000 Y75.000 Z0.750 F1200
G1 E0.800 F1800
G1 E0.1500 F120
G4 P300
G1 X75.000 Y75.000 Z4.550 E0.31020 F180
G4 P800
G0 X75.000 Y75.000 Z4.250 F180
G1 X85.000 Y75.000 Z0.750 E0.77839 F360
G1 E0.1500 F120
G4 P300
G1 X85.000 Y75.000 Z4.550 E0.31020 F180
G4 P800
G0 X85.000 Y75.000 Z4.250 F180
G1 X95.000 Y75.000 Z0.750 E0.77839 F360
G1 E0.1500 F120
G4 P300
G1 X95.000 Y75.000 Z4.550 E0.31020 F180
G4 P800
G0 X95.000 Y75.000 Z4.250 F180
G1 X105.000 Y75.000 Z0.750 E0.77839 F360
G1 E0.1500 F120
G4 P300
G1 X105.000 Y75.000 Z4.550 E0.31020 F180
G4 P800
G0 X105.000 Y75.000 Z4.250 F180
G1 X105.000 Y85.000 Z0.750 E0.77839 F360
G1 E0.1500 F120
G4 P300
G1 X105.000 Y85.000 Z4.550 E0.31020 F180
G4 P800
G0 X105.000 Y85.000 Z4.250 F180
G1 X95.000 Y85.000 Z0.750 E0.77839 F360
G1 E0.1500 F120
G4 P300
G1 X95.000 Y85.000 Z4.550 E0.31020 F180
G4 P800
G0 X95.000 Y85.000 Z4.250 F180
G1 X85.000 Y85.000 Z0.750 E0.77839 F360
G1 E0.1500 F120
G4 P300
G1 X85.000 Y85.000 Z4.550 E0.31020 F180
G4 P800
G0 X85.000 Y85.000 Z4.250 F180
G1 X75.000 Y85.000 Z0.750 E0.77839 F360
G1 E0.1500 F120
G4 P300
G1 X75.000 Y85.000 Z4.550 E0.31020 F180
G4 P800
G0 X75.000 Y85.000 Z4.250 F180
G1 X75.000 Y95.000 Z0.750 E0.77839 F360
G1 E0.1500 F120
G4 P300
G1 X75.000 Y95.000 Z4.550 E0.31020 F180
G4 P800
G0 X75.000 Y95.000 Z4.250 F180
G1 X85.000 Y95.000 Z0.750 E0.77839 F360
G1 E0.1500 F120
G4 P300
G1 X85.000 Y95.000 Z4.550 E0.31020 F180
G4 P800
G0 X85.000 Y95.000 Z4.250 F180
G1 X95.000 Y95.000 Z0.750 E0.77839 F360
G1 E0.1500 F120
G4 P300
G1 X95.000 Y95.000 Z4.550 E0.31020 F180
G4 P800
G0 X95.000 Y95.000 Z4.250 F180
G1 X105.000 Y95.000 Z0.750 E0.77839 F360
G1 E0.1500 F120
G4 P300
G1 X105.000 Y95.000 Z4.550 E0.31020 F180
G4 P800
G0 X105.000 Y95.000 Z4.250 F180
G1 X105.000 Y105.000 Z0.750 E0.77839 F360
G1 E0.1500 F120
G4 P300
G1 X105.000 Y105.000 Z4.550 E0.31020 F180
G4 P800
G0 X105.000 Y105.000 Z4.250 F180
G1 X95.000 Y105.000 Z0.750 E0.77839 F360
G1 E0.1500 F120
G4 P300
G1 X95.000 Y105.000 Z4.550 E0.31020 F180
G4 P800
G0 X95.000 Y105.000 Z4.250 F180
G1 X85.000 Y105.000 Z0.750 E0.77839 F360
G1 E0.1500 F120
G4 P300
G1 X85.000 Y105.000 Z4.550 E0.31020 F180
G4 P800
G0 X85.000 Y105.000 Z4.250 F180
G1 X75.000 Y105.000 Z0.750 E0.77839 F360
G1 E0.1500 F120
G4 P300
G1 X75.000 Y105.000 Z4.550 E0.31020 F180
G4 P800
G0 X75.000 Y105.000 Z4.250 F180
G1 E0.1500 F120
G4 P300
G1 X85.000 Y105.000 Z4.250 E0.81633 F360
G1 E0.0750 F120
G4 P300
G1 X95.000 Y105.000 Z4.250 E0.81633 F360
G1 E0.0750 F120
G4 P300
G1 X105.000 Y105.000 Z4.250 E0.81633 F360
G1 E0.0750 F120
G4 P300
G1 E-0.800 F2400
G0 X105.000 Y105.000 Z5.250 F1200
G0 X105.000 Y95.000 Z5.250 F4800
G0 X105.000 Y95.000 Z4.250 F1200
G1 E0.800 F1800
G1 E0.1500 F120
G4 P300
G1 X95.000 Y95.000 Z4.250 E0.81633 F360
G1 E0.0750 F120
G4 P300
G1 X85.000 Y95.000 Z4.250 E0.81633 F360
G1 E0.0750 F120
G4 P300
G1 X75.000 Y95.000 Z4.250 E0.81633 F360
G1 E0.0750 F120
G4 P300
G1 E-0.800 F2400
G0 X75.000 Y95.000 Z5.250 F1200
G0 X75.000 Y85.000 Z5.250 F4800
G0 X75.000 Y85.000 Z4.250 F1200
G1 E0.800 F1800
G1 E0.1500 F120
G4 P300
G1 X85.000 Y85.000 Z4.250 E0.81633 F360
G1 E0.0750 F120
G4 P300
G1 X95.000 Y85.000 Z4.250 E0.81633 F360
G1 E0.0750 F120
G4 P300
G1 X105.000 Y85.000 Z4.250 E0.81633 F360
G1 E0.0750 F120
G4 P300
G1 E-0.800 F2400
G0 X105.000 Y85.000 Z5.250 F1200
G0 X105.000 Y75.000 Z5.250 F4800
G0 X105.000 Y75.000 Z4.250 F1200
G1 E0.800 F1800
G1 E0.1500 F120
G4 P300
G1 X95.000 Y75.000 Z4.250 E0.81633 F360
G1 E0.0750 F120
G4 P300
G1 X85.000 Y75.000 Z4.250 E0.81633 F360
G1 E0.0750 F120
G4 P300
G1 X75.000 Y75.000 Z4.250 E0.81633 F360
G1 E0.0750 F120
G4 P300
G1 E0.1500 F120
G4 P300
G1 X75.000 Y85.000 Z4.250 E0.81633 F360
G1 E0.0750 F120
G4 P300
G1 X75.000 Y95.000 Z4.250 E0.81633 F360
G1 E0.0750 F120
G4 P300
G1 X75.000 Y105.000 Z4.250 E0.81633 F360
G1 E0.0750 F120
G4 P300
G1 E-0.800 F2400
G0 X75.000 Y105.000 Z5.250 F1200
G0 X85.000 Y105.000 Z5.250 F4800
G0 X85.000 Y105.000 Z4.250 F1200
G1 E0.800 F1800
G1 E0.1500 F120
G4 P300
G1 X85.000 Y95.000 Z4.250 E0.81633 F360
G1 E0.0750 F120
G4 P300
G1 X85.000 Y85.000 Z4.250 E0.81633 F360
G1 E0.0750 F120
G4 P300
G1 X85.000 Y75.000 Z4.250 E0.81633 F360
G1 E0.0750 F120
G4 P300
G1 E-0.800 F2400
G0 X85.000 Y75.000 Z5.250 F1200
G0 X95.000 Y75.000 Z5.250 F4800
G0 X95.000 Y75.000 Z4.250 F1200
G1 E0.800 F1800
G1 E0.1500 F120
G4 P300
G1 X95.000 Y85.000 Z4.250 E0.81633 F360
G1 E0.0750 F120
G4 P300
G1 X95.000 Y95.000 Z4.250 E0.81633 F360
G1 E0.0750 F120
G4 P300
G1 X95.000 Y105.000 Z4.250 E0.81633 F360
G1 E0.0750 F120
G4 P300
G1 E-0.800 F2400
G0 X95.000 Y105.000 Z5.250 F1200
G0 X105.000 Y105.000 Z5.250 F4800
G0 X105.000 Y105.000 Z4.250 F1200
G1 E0.800 F1800
G1 E0.1500 F120
G4 P300
G1 X105.000 Y95.000 Z4.250 E0.81633 F360
G1 E0.0750 F120
G4 P300
G1 X105.000 Y85.000 Z4.250 E0.81633 F360
G1 E0.0750 F120
G4 P300
G1 X105.000 Y75.000 Z4.250 E0.81633 F360
G1 E0.0750 F120
G4 P300
G1 E-0.800 F2400
; LEVEL 2/8  z 4.25 -> 7.75
G0 X105.000 Y75.000 Z5.250 F1200
G0 X75.000 Y75.000 Z5.250 F4800
G0 X75.000 Y75.000 Z4.250 F1200
G1 E0.800 F1800
G1 E0.1500 F120
G4 P300
G1 X75.000 Y75.000 Z8.050 E0.31020 F180
G4 P800
G0 X75.000 Y75.000 Z7.750 F180
G1 X85.000 Y75.000 Z4.250 E0.77839 F360
G1 E0.1500 F120
G4 P300
G1 X85.000 Y75.000 Z8.050 E0.31020 F180
G4 P800
G0 X85.000 Y75.000 Z7.750 F180
G1 X95.000 Y75.000 Z4.250 E0.77839 F360
G1 E0.1500 F120
G4 P300
G1 X95.000 Y75.000 Z8.050 E0.31020 F180
G4 P800
G0 X95.000 Y75.000 Z7.750 F180
G1 X105.000 Y75.000 Z4.250 E0.77839 F360
G1 E0.1500 F120
G4 P300
G1 X105.000 Y75.000 Z8.050 E0.31020 F180
G4 P800
G0 X105.000 Y75.000 Z7.750 F180
G1 X105.000 Y85.000 Z4.250 E0.77839 F360
G1 E0.1500 F120
G4 P300
G1 X105.000 Y85.000 Z8.050 E0.31020 F180
G4 P800
G0 X105.000 Y85.000 Z7.750 F180
G1 X95.000 Y85.000 Z4.250 E0.77839 F360
G1 E0.1500 F120
G4 P300
G1 X95.000 Y85.000 Z8.050 E0.31020 F180
G4 P800
G0 X95.000 Y85.000 Z7.750 F180
G1 X85.000 Y85.000 Z4.250 E0.77839 F360
G1 E0.1500 F120
G4 P300
G1 X85.000 Y85.000 Z8.050 E0.31020 F180
G4 P800
G0 X85.000 Y85.000 Z7.750 F180
G1 X75.000 Y85.000 Z4.250 E0.77839 F360
G1 E0.1500 F120
G4 P300
G1 X75.000 Y85.000 Z8.050 E0.31020 F180
G4 P800
G0 X75.000 Y85.000 Z7.750 F180
G1 X75.000 Y95.000 Z4.250 E0.77839 F360
G1 E0.1500 F120
G4 P300
G1 X75.000 Y95.000 Z8.050 E0.31020 F180
G4 P800
G0 X75.000 Y95.000 Z7.750 F180
G1 X85.000 Y95.000 Z4.250 E0.77839 F360
G1 E0.1500 F120
G4 P300
G1 X85.000 Y95.000 Z8.050 E0.31020 F180
G4 P800
G0 X85.000 Y95.000 Z7.750 F180
G1 X95.000 Y95.000 Z4.250 E0.77839 F360
G1 E0.1500 F120
G4 P300
G1 X95.000 Y95.000 Z8.050 E0.31020 F180
G4 P800
G0 X95.000 Y95.000 Z7.750 F180
G1 X105.000 Y95.000 Z4.250 E0.77839 F360
G1 E0.1500 F120
G4 P300
G1 X105.000 Y95.000 Z8.050 E0.31020 F180
G4 P800
G0 X105.000 Y95.000 Z7.750 F180
G1 X105.000 Y105.000 Z4.250 E0.77839 F360
G1 E0.1500 F120
G4 P300
G1 X105.000 Y105.000 Z8.050 E0.31020 F180
G4 P800
G0 X105.000 Y105.000 Z7.750 F180
G1 X95.000 Y105.000 Z4.250 E0.77839 F360
G1 E0.1500 F120
G4 P300
G1 X95.000 Y105.000 Z8.050 E0.31020 F180
G4 P800
G0 X95.000 Y105.000 Z7.750 F180
G1 X85.000 Y105.000 Z4.250 E0.77839 F360
G1 E0.1500 F120
G4 P300
G1 X85.000 Y105.000 Z8.050 E0.31020 F180
G4 P800
G0 X85.000 Y105.000 Z7.750 F180
G1 X75.000 Y105.000 Z4.250 E0.77839 F360
G1 E0.1500 F120
G4 P300
G1 X75.000 Y105.000 Z8.050 E0.31020 F180
G4 P800
G0 X75.000 Y105.000 Z7.750 F180
G1 E0.1500 F120
G4 P300
G1 X85.000 Y105.000 Z7.750 E0.81633 F360
G1 E0.0750 F120
G4 P300
G1 X95.000 Y105.000 Z7.750 E0.81633 F360
G1 E0.0750 F120
G4 P300
G1 X105.000 Y105.000 Z7.750 E0.81633 F360
G1 E0.0750 F120
G4 P300
G1 E-0.800 F2400
G0 X105.000 Y105.000 Z8.750 F1200
G0 X105.000 Y95.000 Z8.750 F4800
G0 X105.000 Y95.000 Z7.750 F1200
G1 E0.800 F1800
G1 E0.1500 F120
G4 P300
G1 X95.000 Y95.000 Z7.750 E0.81633 F360
G1 E0.0750 F120
G4 P300
G1 X85.000 Y95.000 Z7.750 E0.81633 F360
G1 E0.0750 F120
G4 P300
G1 X75.000 Y95.000 Z7.750 E0.81633 F360
G1 E0.0750 F120
G4 P300
G1 E-0.800 F2400
G0 X75.000 Y95.000 Z8.750 F1200
G0 X75.000 Y85.000 Z8.750 F4800
G0 X75.000 Y85.000 Z7.750 F1200
G1 E0.800 F1800
G1 E0.1500 F120
G4 P300
G1 X85.000 Y85.000 Z7.750 E0.81633 F360
G1 E0.0750 F120
G4 P300
G1 X95.000 Y85.000 Z7.750 E0.81633 F360
G1 E0.0750 F120
G4 P300
G1 X105.000 Y85.000 Z7.750 E0.81633 F360
G1 E0.0750 F120
G4 P300
G1 E-0.800 F2400
G0 X105.000 Y85.000 Z8.750 F1200
G0 X105.000 Y75.000 Z8.750 F4800
G0 X105.000 Y75.000 Z7.750 F1200
G1 E0.800 F1800
G1 E0.1500 F120
G4 P300
G1 X95.000 Y75.000 Z7.750 E0.81633 F360
G1 E0.0750 F120
G4 P300
G1 X85.000 Y75.000 Z7.750 E0.81633 F360
G1 E0.0750 F120
G4 P300
G1 X75.000 Y75.000 Z7.750 E0.81633 F360
G1 E0.0750 F120
G4 P300
G1 E0.1500 F120
G4 P300
G1 X75.000 Y85.000 Z7.750 E0.81633 F360
G1 E0.0750 F120
G4 P300
G1 X75.000 Y95.000 Z7.750 E0.81633 F360
G1 E0.0750 F120
G4 P300
G1 X75.000 Y105.000 Z7.750 E0.81633 F360
G1 E0.0750 F120
G4 P300
G1 E-0.800 F2400
G0 X75.000 Y105.000 Z8.750 F1200
G0 X85.000 Y105.000 Z8.750 F4800
G0 X85.000 Y105.000 Z7.750 F1200
G1 E0.800 F1800
G1 E0.1500 F120
G4 P300
G1 X85.000 Y95.000 Z7.750 E0.81633 F360
G1 E0.0750 F120
G4 P300
G1 X85.000 Y85.000 Z7.750 E0.81633 F360
G1 E0.0750 F120
G4 P300
G1 X85.000 Y75.000 Z7.750 E0.81633 F360
G1 E0.0750 F120
G4 P300
G1 E-0.800 F2400
G0 X85.000 Y75.000 Z8.750 F1200
G0 X95.000 Y75.000 Z8.750 F4800
G0 X95.000 Y75.000 Z7.750 F1200
G1 E0.800 F1800
G1 E0.1500 F120
G4 P300
G1 X95.000 Y85.000 Z7.750 E0.81633 F360
G1 E0.0750 F120
G4 P300
G1 X95.000 Y95.000 Z7.750 E0.81633 F360
G1 E0.0750 F120
G4 P300
G1 X95.000 Y105.000 Z7.750 E0.81633 F360
G1 E0.0750 F120
G4 P300
G1 E-0.800 F2400
G0 X95.000 Y105.000 Z8.750 F1200
G0 X105.000 Y105.000 Z8.750 F4800
G0 X105.000 Y105.000 Z7.750 F1200
G1 E0.800 F1800
G1 E0.1500 F120
G4 P300
G1 X105.000 Y95.000 Z7.750 E0.81633 F360
G1 E0.0750 F120
G4 P300
G1 X105.000 Y85.000 Z7.750 E0.81633 F360
G1 E0.0750 F120
G4 P300
G1 X105.000 Y75.000 Z7.750 E0.81633 F360
G1 E0.0750 F120
G4 P300
G1 E-0.800 F2400
; LEVEL 3/8  z 7.75 -> 11.25
G0 X105.000 Y75.000 Z8.750 F1200
G0 X75.000 Y75.000 Z8.750 F4800
G0 X75.000 Y75.000 Z7.750 F1200
G1 E0.800 F1800
G1 E0.1500 F120
G4 P300
G1 X75.000 Y75.000 Z11.550 E0.31020 F180
G4 P800
G0 X75.000 Y75.000 Z11.250 F180
G1 X85.000 Y75.000 Z7.750 E0.77839 F360
G1 E0.1500 F120
G4 P300
G1 X85.000 Y75.000 Z11.550 E0.31020 F180
G4 P800
G0 X85.000 Y75.000 Z11.250 F180
G1 X95.000 Y75.000 Z7.750 E0.77839 F360
G1 E0.1500 F120
G4 P300
G1 X95.000 Y75.000 Z11.550 E0.31020 F180
G4 P800
G0 X95.000 Y75.000 Z11.250 F180
G1 X105.000 Y75.000 Z7.750 E0.77839 F360
G1 E0.1500 F120
G4 P300
G1 X105.000 Y75.000 Z11.550 E0.31020 F180
G4 P800
G0 X105.000 Y75.000 Z11.250 F180
G1 X105.000 Y85.000 Z7.750 E0.77839 F360
G1 E0.1500 F120
G4 P300
G1 X105.000 Y85.000 Z11.550 E0.31020 F180
G4 P800
G0 X105.000 Y85.000 Z11.250 F180
G1 X95.000 Y85.000 Z7.750 E0.77839 F360
G1 E0.1500 F120
G4 P300
G1 X95.000 Y85.000 Z11.550 E0.31020 F180
G4 P800
G0 X95.000 Y85.000 Z11.250 F180
G1 X85.000 Y85.000 Z7.750 E0.77839 F360
G1 E0.1500 F120
G4 P300
G1 X85.000 Y85.000 Z11.550 E0.31020 F180
G4 P800
G0 X85.000 Y85.000 Z11.250 F180
G1 X75.000 Y85.000 Z7.750 E0.77839 F360
G1 E0.1500 F120
G4 P300
G1 X75.000 Y85.000 Z11.550 E0.31020 F180
G4 P800
G0 X75.000 Y85.000 Z11.250 F180
G1 X75.000 Y95.000 Z7.750 E0.77839 F360
G1 E0.1500 F120
G4 P300
G1 X75.000 Y95.000 Z11.550 E0.31020 F180
G4 P800
G0 X75.000 Y95.000 Z11.250 F180
G1 X85.000 Y95.000 Z7.750 E0.77839 F360
G1 E0.1500 F120
G4 P300
G1 X85.000 Y95.000 Z11.550 E0.31020 F180
G4 P800
G0 X85.000 Y95.000 Z11.250 F180
G1 X95.000 Y95.000 Z7.750 E0.77839 F360
G1 E0.1500 F120
G4 P300
G1 X95.000 Y95.000 Z11.550 E0.31020 F180
G4 P800
G0 X95.000 Y95.000 Z11.250 F180
G1 X105.000 Y95.000 Z7.750 E0.77839 F360
G1 E0.1500 F120
G4 P300
G1 X105.000 Y95.000 Z11.550 E0.31020 F180
G4 P800
G0 X105.000 Y95.000 Z11.250 F180
G1 X105.000 Y105.000 Z7.750 E0.77839 F360
G1 E0.1500 F120
G4 P300
G1 X105.000 Y105.000 Z11.550 E0.31020 F180
G4 P800
G0 X105.000 Y105.000 Z11.250 F180
G1 X95.000 Y105.000 Z7.750 E0.77839 F360
G1 E0.1500 F120
G4 P300
G1 X95.000 Y105.000 Z11.550 E0.31020 F180
G4 P800
G0 X95.000 Y105.000 Z11.250 F180
G1 X85.000 Y105.000 Z7.750 E0.77839 F360
G1 E0.1500 F120
G4 P300
G1 X85.000 Y105.000 Z11.550 E0.31020 F180
G4 P800
G0 X85.000 Y105.000 Z11.250 F180
G1 X75.000 Y105.000 Z7.750 E0.77839 F360
G1 E0.1500 F120
G4 P300
G1 X75.000 Y105.000 Z11.550 E0.31020 F180
G4 P800
G0 X75.000 Y105.000 Z11.250 F180
G1 E0.1500 F120
G4 P300
G1 X85.000 Y105.000 Z11.250 E0.81633 F360
G1 E0.0750 F120
G4 P300
G1 X95.000 Y105.000 Z11.250 E0.81633 F360
G1 E0.0750 F120
G4 P300
G1 X105.000 Y105.000 Z11.250 E0.81633 F360
G1 E0.0750 F120
G4 P300
G1 E-0.800 F2400
G0 X105.000 Y105.000 Z12.250 F1200
G0 X105.000 Y95.000 Z12.250 F4800
G0 X105.000 Y95.000 Z11.250 F1200
G1 E0.800 F1800
G1 E0.1500 F120
G4 P300
G1 X95.000 Y95.000 Z11.250 E0.81633 F360
G1 E0.0750 F120
G4 P300
G1 X85.000 Y95.000 Z11.250 E0.81633 F360
G1 E0.0750 F120
G4 P300
G1 X75.000 Y95.000 Z11.250 E0.81633 F360
G1 E0.0750 F120
G4 P300
G1 E-0.800 F2400
G0 X75.000 Y95.000 Z12.250 F1200
G0 X75.000 Y85.000 Z12.250 F4800
G0 X75.000 Y85.000 Z11.250 F1200
G1 E0.800 F1800
G1 E0.1500 F120
G4 P300
G1 X85.000 Y85.000 Z11.250 E0.81633 F360
G1 E0.0750 F120
G4 P300
G1 X95.000 Y85.000 Z11.250 E0.81633 F360
G1 E0.0750 F120
G4 P300
G1 X105.000 Y85.000 Z11.250 E0.81633 F360
G1 E0.0750 F120
G4 P300
G1 E-0.800 F2400
G0 X105.000 Y85.000 Z12.250 F1200
G0 X105.000 Y75.000 Z12.250 F4800
G0 X105.000 Y75.000 Z11.250 F1200
G1 E0.800 F1800
G1 E0.1500 F120
G4 P300
G1 X95.000 Y75.000 Z11.250 E0.81633 F360
G1 E0.0750 F120
G4 P300
G1 X85.000 Y75.000 Z11.250 E0.81633 F360
G1 E0.0750 F120
G4 P300
G1 X75.000 Y75.000 Z11.250 E0.81633 F360
G1 E0.0750 F120
G4 P300
G1 E0.1500 F120
G4 P300
G1 X75.000 Y85.000 Z11.250 E0.81633 F360
G1 E0.0750 F120
G4 P300
G1 X75.000 Y95.000 Z11.250 E0.81633 F360
G1 E0.0750 F120
G4 P300
G1 X75.000 Y105.000 Z11.250 E0.81633 F360
G1 E0.0750 F120
G4 P300
G1 E-0.800 F2400
G0 X75.000 Y105.000 Z12.250 F1200
G0 X85.000 Y105.000 Z12.250 F4800
G0 X85.000 Y105.000 Z11.250 F1200
G1 E0.800 F1800
G1 E0.1500 F120
G4 P300
G1 X85.000 Y95.000 Z11.250 E0.81633 F360
G1 E0.0750 F120
G4 P300
G1 X85.000 Y85.000 Z11.250 E0.81633 F360
G1 E0.0750 F120
G4 P300
G1 X85.000 Y75.000 Z11.250 E0.81633 F360
G1 E0.0750 F120
G4 P300
G1 E-0.800 F2400
G0 X85.000 Y75.000 Z12.250 F1200
G0 X95.000 Y75.000 Z12.250 F4800
G0 X95.000 Y75.000 Z11.250 F1200
G1 E0.800 F1800
G1 E0.1500 F120
G4 P300
G1 X95.000 Y85.000 Z11.250 E0.81633 F360
G1 E0.0750 F120
G4 P300
G1 X95.000 Y95.000 Z11.250 E0.81633 F360
G1 E0.0750 F120
G4 P300
G1 X95.000 Y105.000 Z11.250 E0.81633 F360
G1 E0.0750 F120
G4 P300
G1 E-0.800 F2400
G0 X95.000 Y105.000 Z12.250 F1200
G0 X105.000 Y105.000 Z12.250 F4800
G0 X105.000 Y105.000 Z11.250 F1200
G1 E0.800 F1800
G1 E0.1500 F120
G4 P300
G1 X105.000 Y95.000 Z11.250 E0.81633 F360
G1 E0.0750 F120
G4 P300
G1 X105.000 Y85.000 Z11.250 E0.81633 F360
G1 E0.0750 F120
G4 P300
G1 X105.000 Y75.000 Z11.250 E0.81633 F360
G1 E0.0750 F120
G4 P300
G1 E-0.800 F2400
; LEVEL 4/8  z 11.25 -> 14.75
G0 X105.000 Y75.000 Z12.250 F1200
G0 X75.000 Y75.000 Z12.250 F4800
G0 X75.000 Y75.000 Z11.250 F1200
G1 E0.800 F1800
G1 E0.1500 F120
G4 P300
G1 X75.000 Y75.000 Z15.050 E0.31020 F180
G4 P800
G0 X75.000 Y75.000 Z14.750 F180
G1 X85.000 Y75.000 Z11.250 E0.77839 F360
G1 E0.1500 F120
G4 P300
G1 X85.000 Y75.000 Z15.050 E0.31020 F180
G4 P800
G0 X85.000 Y75.000 Z14.750 F180
G1 X95.000 Y75.000 Z11.250 E0.77839 F360
G1 E0.1500 F120
G4 P300
G1 X95.000 Y75.000 Z15.050 E0.31020 F180
G4 P800
G0 X95.000 Y75.000 Z14.750 F180
G1 X105.000 Y75.000 Z11.250 E0.77839 F360
G1 E0.1500 F120
G4 P300
G1 X105.000 Y75.000 Z15.050 E0.31020 F180
G4 P800
G0 X105.000 Y75.000 Z14.750 F180
G1 X105.000 Y85.000 Z11.250 E0.77839 F360
G1 E0.1500 F120
G4 P300
G1 X105.000 Y85.000 Z15.050 E0.31020 F180
G4 P800
G0 X105.000 Y85.000 Z14.750 F180
G1 X95.000 Y85.000 Z11.250 E0.77839 F360
G1 E0.1500 F120
G4 P300
G1 X95.000 Y85.000 Z15.050 E0.31020 F180
G4 P800
G0 X95.000 Y85.000 Z14.750 F180
G1 X85.000 Y85.000 Z11.250 E0.77839 F360
G1 E0.1500 F120
G4 P300
G1 X85.000 Y85.000 Z15.050 E0.31020 F180
G4 P800
G0 X85.000 Y85.000 Z14.750 F180
G1 X75.000 Y85.000 Z11.250 E0.77839 F360
G1 E0.1500 F120
G4 P300
G1 X75.000 Y85.000 Z15.050 E0.31020 F180
G4 P800
G0 X75.000 Y85.000 Z14.750 F180
G1 X75.000 Y95.000 Z11.250 E0.77839 F360
G1 E0.1500 F120
G4 P300
G1 X75.000 Y95.000 Z15.050 E0.31020 F180
G4 P800
G0 X75.000 Y95.000 Z14.750 F180
G1 X85.000 Y95.000 Z11.250 E0.77839 F360
G1 E0.1500 F120
G4 P300
G1 X85.000 Y95.000 Z15.050 E0.31020 F180
G4 P800
G0 X85.000 Y95.000 Z14.750 F180
G1 X95.000 Y95.000 Z11.250 E0.77839 F360
G1 E0.1500 F120
G4 P300
G1 X95.000 Y95.000 Z15.050 E0.31020 F180
G4 P800
G0 X95.000 Y95.000 Z14.750 F180
G1 X105.000 Y95.000 Z11.250 E0.77839 F360
G1 E0.1500 F120
G4 P300
G1 X105.000 Y95.000 Z15.050 E0.31020 F180
G4 P800
G0 X105.000 Y95.000 Z14.750 F180
G1 X105.000 Y105.000 Z11.250 E0.77839 F360
G1 E0.1500 F120
G4 P300
G1 X105.000 Y105.000 Z15.050 E0.31020 F180
G4 P800
G0 X105.000 Y105.000 Z14.750 F180
G1 X95.000 Y105.000 Z11.250 E0.77839 F360
G1 E0.1500 F120
G4 P300
G1 X95.000 Y105.000 Z15.050 E0.31020 F180
G4 P800
G0 X95.000 Y105.000 Z14.750 F180
G1 X85.000 Y105.000 Z11.250 E0.77839 F360
G1 E0.1500 F120
G4 P300
G1 X85.000 Y105.000 Z15.050 E0.31020 F180
G4 P800
G0 X85.000 Y105.000 Z14.750 F180
G1 X75.000 Y105.000 Z11.250 E0.77839 F360
G1 E0.1500 F120
G4 P300
G1 X75.000 Y105.000 Z15.050 E0.31020 F180
G4 P800
G0 X75.000 Y105.000 Z14.750 F180
G1 E0.1500 F120
G4 P300
G1 X85.000 Y105.000 Z14.750 E0.81633 F360
G1 E0.0750 F120
G4 P300
G1 X95.000 Y105.000 Z14.750 E0.81633 F360
G1 E0.0750 F120
G4 P300
G1 X105.000 Y105.000 Z14.750 E0.81633 F360
G1 E0.0750 F120
G4 P300
G1 E-0.800 F2400
G0 X105.000 Y105.000 Z15.750 F1200
G0 X105.000 Y95.000 Z15.750 F4800
G0 X105.000 Y95.000 Z14.750 F1200
G1 E0.800 F1800
G1 E0.1500 F120
G4 P300
G1 X95.000 Y95.000 Z14.750 E0.81633 F360
G1 E0.0750 F120
G4 P300
G1 X85.000 Y95.000 Z14.750 E0.81633 F360
G1 E0.0750 F120
G4 P300
G1 X75.000 Y95.000 Z14.750 E0.81633 F360
G1 E0.0750 F120
G4 P300
G1 E-0.800 F2400
G0 X75.000 Y95.000 Z15.750 F1200
G0 X75.000 Y85.000 Z15.750 F4800
G0 X75.000 Y85.000 Z14.750 F1200
G1 E0.800 F1800
G1 E0.1500 F120
G4 P300
G1 X85.000 Y85.000 Z14.750 E0.81633 F360
G1 E0.0750 F120
G4 P300
G1 X95.000 Y85.000 Z14.750 E0.81633 F360
G1 E0.0750 F120
G4 P300
G1 X105.000 Y85.000 Z14.750 E0.81633 F360
G1 E0.0750 F120
G4 P300
G1 E-0.800 F2400
G0 X105.000 Y85.000 Z15.750 F1200
G0 X105.000 Y75.000 Z15.750 F4800
G0 X105.000 Y75.000 Z14.750 F1200
G1 E0.800 F1800
G1 E0.1500 F120
G4 P300
G1 X95.000 Y75.000 Z14.750 E0.81633 F360
G1 E0.0750 F120
G4 P300
G1 X85.000 Y75.000 Z14.750 E0.81633 F360
G1 E0.0750 F120
G4 P300
G1 X75.000 Y75.000 Z14.750 E0.81633 F360
G1 E0.0750 F120
G4 P300
G1 E0.1500 F120
G4 P300
G1 X75.000 Y85.000 Z14.750 E0.81633 F360
G1 E0.0750 F120
G4 P300
G1 X75.000 Y95.000 Z14.750 E0.81633 F360
G1 E0.0750 F120
G4 P300
G1 X75.000 Y105.000 Z14.750 E0.81633 F360
G1 E0.0750 F120
G4 P300
G1 E-0.800 F2400
G0 X75.000 Y105.000 Z15.750 F1200
G0 X85.000 Y105.000 Z15.750 F4800
G0 X85.000 Y105.000 Z14.750 F1200
G1 E0.800 F1800
G1 E0.1500 F120
G4 P300
G1 X85.000 Y95.000 Z14.750 E0.81633 F360
G1 E0.0750 F120
G4 P300
G1 X85.000 Y85.000 Z14.750 E0.81633 F360
G1 E0.0750 F120
G4 P300
G1 X85.000 Y75.000 Z14.750 E0.81633 F360
G1 E0.0750 F120
G4 P300
G1 E-0.800 F2400
G0 X85.000 Y75.000 Z15.750 F1200
G0 X95.000 Y75.000 Z15.750 F4800
G0 X95.000 Y75.000 Z14.750 F1200
G1 E0.800 F1800
G1 E0.1500 F120
G4 P300
G1 X95.000 Y85.000 Z14.750 E0.81633 F360
G1 E0.0750 F120
G4 P300
G1 X95.000 Y95.000 Z14.750 E0.81633 F360
G1 E0.0750 F120
G4 P300
G1 X95.000 Y105.000 Z14.750 E0.81633 F360
G1 E0.0750 F120
G4 P300
G1 E-0.800 F2400
G0 X95.000 Y105.000 Z15.750 F1200
G0 X105.000 Y105.000 Z15.750 F4800
G0 X105.000 Y105.000 Z14.750 F1200
G1 E0.800 F1800
G1 E0.1500 F120
G4 P300
G1 X105.000 Y95.000 Z14.750 E0.81633 F360
G1 E0.0750 F120
G4 P300
G1 X105.000 Y85.000 Z14.750 E0.81633 F360
G1 E0.0750 F120
G4 P300
G1 X105.000 Y75.000 Z14.750 E0.81633 F360
G1 E0.0750 F120
G4 P300
G1 E-0.800 F2400
; LEVEL 5/8  z 14.75 -> 18.25
G0 X105.000 Y75.000 Z15.750 F1200
G0 X75.000 Y75.000 Z15.750 F4800
G0 X75.000 Y75.000 Z14.750 F1200
G1 E0.800 F1800
G1 E0.1500 F120
G4 P300
G1 X75.000 Y75.000 Z18.550 E0.31020 F180
G4 P800
G0 X75.000 Y75.000 Z18.250 F180
G1 X85.000 Y75.000 Z14.750 E0.77839 F360
G1 E0.1500 F120
G4 P300
G1 X85.000 Y75.000 Z18.550 E0.31020 F180
G4 P800
G0 X85.000 Y75.000 Z18.250 F180
G1 X95.000 Y75.000 Z14.750 E0.77839 F360
G1 E0.1500 F120
G4 P300
G1 X95.000 Y75.000 Z18.550 E0.31020 F180
G4 P800
G0 X95.000 Y75.000 Z18.250 F180
G1 X105.000 Y75.000 Z14.750 E0.77839 F360
G1 E0.1500 F120
G4 P300
G1 X105.000 Y75.000 Z18.550 E0.31020 F180
G4 P800
G0 X105.000 Y75.000 Z18.250 F180
G1 X105.000 Y85.000 Z14.750 E0.77839 F360
G1 E0.1500 F120
G4 P300
G1 X105.000 Y85.000 Z18.550 E0.31020 F180
G4 P800
G0 X105.000 Y85.000 Z18.250 F180
G1 X95.000 Y85.000 Z14.750 E0.77839 F360
G1 E0.1500 F120
G4 P300
G1 X95.000 Y85.000 Z18.550 E0.31020 F180
G4 P800
G0 X95.000 Y85.000 Z18.250 F180
G1 X85.000 Y85.000 Z14.750 E0.77839 F360
G1 E0.1500 F120
G4 P300
G1 X85.000 Y85.000 Z18.550 E0.31020 F180
G4 P800
G0 X85.000 Y85.000 Z18.250 F180
G1 X75.000 Y85.000 Z14.750 E0.77839 F360
G1 E0.1500 F120
G4 P300
G1 X75.000 Y85.000 Z18.550 E0.31020 F180
G4 P800
G0 X75.000 Y85.000 Z18.250 F180
G1 X75.000 Y95.000 Z14.750 E0.77839 F360
G1 E0.1500 F120
G4 P300
G1 X75.000 Y95.000 Z18.550 E0.31020 F180
G4 P800
G0 X75.000 Y95.000 Z18.250 F180
G1 X85.000 Y95.000 Z14.750 E0.77839 F360
G1 E0.1500 F120
G4 P300
G1 X85.000 Y95.000 Z18.550 E0.31020 F180
G4 P800
G0 X85.000 Y95.000 Z18.250 F180
G1 X95.000 Y95.000 Z14.750 E0.77839 F360
G1 E0.1500 F120
G4 P300
G1 X95.000 Y95.000 Z18.550 E0.31020 F180
G4 P800
G0 X95.000 Y95.000 Z18.250 F180
G1 X105.000 Y95.000 Z14.750 E0.77839 F360
G1 E0.1500 F120
G4 P300
G1 X105.000 Y95.000 Z18.550 E0.31020 F180
G4 P800
G0 X105.000 Y95.000 Z18.250 F180
G1 X105.000 Y105.000 Z14.750 E0.77839 F360
G1 E0.1500 F120
G4 P300
G1 X105.000 Y105.000 Z18.550 E0.31020 F180
G4 P800
G0 X105.000 Y105.000 Z18.250 F180
G1 X95.000 Y105.000 Z14.750 E0.77839 F360
G1 E0.1500 F120
G4 P300
G1 X95.000 Y105.000 Z18.550 E0.31020 F180
G4 P800
G0 X95.000 Y105.000 Z18.250 F180
G1 X85.000 Y105.000 Z14.750 E0.77839 F360
G1 E0.1500 F120
G4 P300
G1 X85.000 Y105.000 Z18.550 E0.31020 F180
G4 P800
G0 X85.000 Y105.000 Z18.250 F180
G1 X75.000 Y105.000 Z14.750 E0.77839 F360
G1 E0.1500 F120
G4 P300
G1 X75.000 Y105.000 Z18.550 E0.31020 F180
G4 P800
G0 X75.000 Y105.000 Z18.250 F180
G1 E0.1500 F120
G4 P300
G1 X85.000 Y105.000 Z18.250 E0.81633 F360
G1 E0.0750 F120
G4 P300
G1 X95.000 Y105.000 Z18.250 E0.81633 F360
G1 E0.0750 F120
G4 P300
G1 X105.000 Y105.000 Z18.250 E0.81633 F360
G1 E0.0750 F120
G4 P300
G1 E-0.800 F2400
G0 X105.000 Y105.000 Z19.250 F1200
G0 X105.000 Y95.000 Z19.250 F4800
G0 X105.000 Y95.000 Z18.250 F1200
G1 E0.800 F1800
G1 E0.1500 F120
G4 P300
G1 X95.000 Y95.000 Z18.250 E0.81633 F360
G1 E0.0750 F120
G4 P300
G1 X85.000 Y95.000 Z18.250 E0.81633 F360
G1 E0.0750 F120
G4 P300
G1 X75.000 Y95.000 Z18.250 E0.81633 F360
G1 E0.0750 F120
G4 P300
G1 E-0.800 F2400
G0 X75.000 Y95.000 Z19.250 F1200
G0 X75.000 Y85.000 Z19.250 F4800
G0 X75.000 Y85.000 Z18.250 F1200
G1 E0.800 F1800
G1 E0.1500 F120
G4 P300
G1 X85.000 Y85.000 Z18.250 E0.81633 F360
G1 E0.0750 F120
G4 P300
G1 X95.000 Y85.000 Z18.250 E0.81633 F360
G1 E0.0750 F120
G4 P300
G1 X105.000 Y85.000 Z18.250 E0.81633 F360
G1 E0.0750 F120
G4 P300
G1 E-0.800 F2400
G0 X105.000 Y85.000 Z19.250 F1200
G0 X105.000 Y75.000 Z19.250 F4800
G0 X105.000 Y75.000 Z18.250 F1200
G1 E0.800 F1800
G1 E0.1500 F120
G4 P300
G1 X95.000 Y75.000 Z18.250 E0.81633 F360
G1 E0.0750 F120
G4 P300
G1 X85.000 Y75.000 Z18.250 E0.81633 F360
G1 E0.0750 F120
G4 P300
G1 X75.000 Y75.000 Z18.250 E0.81633 F360
G1 E0.0750 F120
G4 P300
G1 E0.1500 F120
G4 P300
G1 X75.000 Y85.000 Z18.250 E0.81633 F360
G1 E0.0750 F120
G4 P300
G1 X75.000 Y95.000 Z18.250 E0.81633 F360
G1 E0.0750 F120
G4 P300
G1 X75.000 Y105.000 Z18.250 E0.81633 F360
G1 E0.0750 F120
G4 P300
G1 E-0.800 F2400
G0 X75.000 Y105.000 Z19.250 F1200
G0 X85.000 Y105.000 Z19.250 F4800
G0 X85.000 Y105.000 Z18.250 F1200
G1 E0.800 F1800
G1 E0.1500 F120
G4 P300
G1 X85.000 Y95.000 Z18.250 E0.81633 F360
G1 E0.0750 F120
G4 P300
G1 X85.000 Y85.000 Z18.250 E0.81633 F360
G1 E0.0750 F120
G4 P300
G1 X85.000 Y75.000 Z18.250 E0.81633 F360
G1 E0.0750 F120
G4 P300
G1 E-0.800 F2400
G0 X85.000 Y75.000 Z19.250 F1200
G0 X95.000 Y75.000 Z19.250 F4800
G0 X95.000 Y75.000 Z18.250 F1200
G1 E0.800 F1800
G1 E0.1500 F120
G4 P300
G1 X95.000 Y85.000 Z18.250 E0.81633 F360
G1 E0.0750 F120
G4 P300
G1 X95.000 Y95.000 Z18.250 E0.81633 F360
G1 E0.0750 F120
G4 P300
G1 X95.000 Y105.000 Z18.250 E0.81633 F360
G1 E0.0750 F120
G4 P300
G1 E-0.800 F2400
G0 X95.000 Y105.000 Z19.250 F1200
G0 X105.000 Y105.000 Z19.250 F4800
G0 X105.000 Y105.000 Z18.250 F1200
G1 E0.800 F1800
G1 E0.1500 F120
G4 P300
G1 X105.000 Y95.000 Z18.250 E0.81633 F360
G1 E0.0750 F120
G4 P300
G1 X105.000 Y85.000 Z18.250 E0.81633 F360
G1 E0.0750 F120
G4 P300
G1 X105.000 Y75.000 Z18.250 E0.81633 F360
G1 E0.0750 F120
G4 P300
G1 E-0.800 F2400
; LEVEL 6/8  z 18.25 -> 21.75
G0 X105.000 Y75.000 Z19.250 F1200
G0 X75.000 Y75.000 Z19.250 F4800
G0 X75.000 Y75.000 Z18.250 F1200
G1 E0.800 F1800
G1 E0.1500 F120
G4 P300
G1 X75.000 Y75.000 Z22.050 E0.31020 F180
G4 P800
G0 X75.000 Y75.000 Z21.750 F180
G1 X85.000 Y75.000 Z18.250 E0.77839 F360
G1 E0.1500 F120
G4 P300
G1 X85.000 Y75.000 Z22.050 E0.31020 F180
G4 P800
G0 X85.000 Y75.000 Z21.750 F180
G1 X95.000 Y75.000 Z18.250 E0.77839 F360
G1 E0.1500 F120
G4 P300
G1 X95.000 Y75.000 Z22.050 E0.31020 F180
G4 P800
G0 X95.000 Y75.000 Z21.750 F180
G1 X105.000 Y75.000 Z18.250 E0.77839 F360
G1 E0.1500 F120
G4 P300
G1 X105.000 Y75.000 Z22.050 E0.31020 F180
G4 P800
G0 X105.000 Y75.000 Z21.750 F180
G1 X105.000 Y85.000 Z18.250 E0.77839 F360
G1 E0.1500 F120
G4 P300
G1 X105.000 Y85.000 Z22.050 E0.31020 F180
G4 P800
G0 X105.000 Y85.000 Z21.750 F180
G1 X95.000 Y85.000 Z18.250 E0.77839 F360
G1 E0.1500 F120
G4 P300
G1 X95.000 Y85.000 Z22.050 E0.31020 F180
G4 P800
G0 X95.000 Y85.000 Z21.750 F180
G1 X85.000 Y85.000 Z18.250 E0.77839 F360
G1 E0.1500 F120
G4 P300
G1 X85.000 Y85.000 Z22.050 E0.31020 F180
G4 P800
G0 X85.000 Y85.000 Z21.750 F180
G1 X75.000 Y85.000 Z18.250 E0.77839 F360
G1 E0.1500 F120
G4 P300
G1 X75.000 Y85.000 Z22.050 E0.31020 F180
G4 P800
G0 X75.000 Y85.000 Z21.750 F180
G1 X75.000 Y95.000 Z18.250 E0.77839 F360
G1 E0.1500 F120
G4 P300
G1 X75.000 Y95.000 Z22.050 E0.31020 F180
G4 P800
G0 X75.000 Y95.000 Z21.750 F180
G1 X85.000 Y95.000 Z18.250 E0.77839 F360
G1 E0.1500 F120
G4 P300
G1 X85.000 Y95.000 Z22.050 E0.31020 F180
G4 P800
G0 X85.000 Y95.000 Z21.750 F180
G1 X95.000 Y95.000 Z18.250 E0.77839 F360
G1 E0.1500 F120
G4 P300
G1 X95.000 Y95.000 Z22.050 E0.31020 F180
G4 P800
G0 X95.000 Y95.000 Z21.750 F180
G1 X105.000 Y95.000 Z18.250 E0.77839 F360
G1 E0.1500 F120
G4 P300
G1 X105.000 Y95.000 Z22.050 E0.31020 F180
G4 P800
G0 X105.000 Y95.000 Z21.750 F180
G1 X105.000 Y105.000 Z18.250 E0.77839 F360
G1 E0.1500 F120
G4 P300
G1 X105.000 Y105.000 Z22.050 E0.31020 F180
G4 P800
G0 X105.000 Y105.000 Z21.750 F180
G1 X95.000 Y105.000 Z18.250 E0.77839 F360
G1 E0.1500 F120
G4 P300
G1 X95.000 Y105.000 Z22.050 E0.31020 F180
G4 P800
G0 X95.000 Y105.000 Z21.750 F180
G1 X85.000 Y105.000 Z18.250 E0.77839 F360
G1 E0.1500 F120
G4 P300
G1 X85.000 Y105.000 Z22.050 E0.31020 F180
G4 P800
G0 X85.000 Y105.000 Z21.750 F180
G1 X75.000 Y105.000 Z18.250 E0.77839 F360
G1 E0.1500 F120
G4 P300
G1 X75.000 Y105.000 Z22.050 E0.31020 F180
G4 P800
G0 X75.000 Y105.000 Z21.750 F180
G1 E0.1500 F120
G4 P300
G1 X85.000 Y105.000 Z21.750 E0.81633 F360
G1 E0.0750 F120
G4 P300
G1 X95.000 Y105.000 Z21.750 E0.81633 F360
G1 E0.0750 F120
G4 P300
G1 X105.000 Y105.000 Z21.750 E0.81633 F360
G1 E0.0750 F120
G4 P300
G1 E-0.800 F2400
G0 X105.000 Y105.000 Z22.750 F1200
G0 X105.000 Y95.000 Z22.750 F4800
G0 X105.000 Y95.000 Z21.750 F1200
G1 E0.800 F1800
G1 E0.1500 F120
G4 P300
G1 X95.000 Y95.000 Z21.750 E0.81633 F360
G1 E0.0750 F120
G4 P300
G1 X85.000 Y95.000 Z21.750 E0.81633 F360
G1 E0.0750 F120
G4 P300
G1 X75.000 Y95.000 Z21.750 E0.81633 F360
G1 E0.0750 F120
G4 P300
G1 E-0.800 F2400
G0 X75.000 Y95.000 Z22.750 F1200
G0 X75.000 Y85.000 Z22.750 F4800
G0 X75.000 Y85.000 Z21.750 F1200
G1 E0.800 F1800
G1 E0.1500 F120
G4 P300
G1 X85.000 Y85.000 Z21.750 E0.81633 F360
G1 E0.0750 F120
G4 P300
G1 X95.000 Y85.000 Z21.750 E0.81633 F360
G1 E0.0750 F120
G4 P300
G1 X105.000 Y85.000 Z21.750 E0.81633 F360
G1 E0.0750 F120
G4 P300
G1 E-0.800 F2400
G0 X105.000 Y85.000 Z22.750 F1200
G0 X105.000 Y75.000 Z22.750 F4800
G0 X105.000 Y75.000 Z21.750 F1200
G1 E0.800 F1800
G1 E0.1500 F120
G4 P300
G1 X95.000 Y75.000 Z21.750 E0.81633 F360
G1 E0.0750 F120
G4 P300
G1 X85.000 Y75.000 Z21.750 E0.81633 F360
G1 E0.0750 F120
G4 P300
G1 X75.000 Y75.000 Z21.750 E0.81633 F360
G1 E0.0750 F120
G4 P300
G1 E0.1500 F120
G4 P300
G1 X75.000 Y85.000 Z21.750 E0.81633 F360
G1 E0.0750 F120
G4 P300
G1 X75.000 Y95.000 Z21.750 E0.81633 F360
G1 E0.0750 F120
G4 P300
G1 X75.000 Y105.000 Z21.750 E0.81633 F360
G1 E0.0750 F120
G4 P300
G1 E-0.800 F2400
G0 X75.000 Y105.000 Z22.750 F1200
G0 X85.000 Y105.000 Z22.750 F4800
G0 X85.000 Y105.000 Z21.750 F1200
G1 E0.800 F1800
G1 E0.1500 F120
G4 P300
G1 X85.000 Y95.000 Z21.750 E0.81633 F360
G1 E0.0750 F120
G4 P300
G1 X85.000 Y85.000 Z21.750 E0.81633 F360
G1 E0.0750 F120
G4 P300
G1 X85.000 Y75.000 Z21.750 E0.81633 F360
G1 E0.0750 F120
G4 P300
G1 E-0.800 F2400
G0 X85.000 Y75.000 Z22.750 F1200
G0 X95.000 Y75.000 Z22.750 F4800
G0 X95.000 Y75.000 Z21.750 F1200
G1 E0.800 F1800
G1 E0.1500 F120
G4 P300
G1 X95.000 Y85.000 Z21.750 E0.81633 F360
G1 E0.0750 F120
G4 P300
G1 X95.000 Y95.000 Z21.750 E0.81633 F360
G1 E0.0750 F120
G4 P300
G1 X95.000 Y105.000 Z21.750 E0.81633 F360
G1 E0.0750 F120
G4 P300
G1 E-0.800 F2400
G0 X95.000 Y105.000 Z22.750 F1200
G0 X105.000 Y105.000 Z22.750 F4800
G0 X105.000 Y105.000 Z21.750 F1200
G1 E0.800 F1800
G1 E0.1500 F120
G4 P300
G1 X105.000 Y95.000 Z21.750 E0.81633 F360
G1 E0.0750 F120
G4 P300
G1 X105.000 Y85.000 Z21.750 E0.81633 F360
G1 E0.0750 F120
G4 P300
G1 X105.000 Y75.000 Z21.750 E0.81633 F360
G1 E0.0750 F120
G4 P300
G1 E-0.800 F2400
; LEVEL 7/8  z 21.75 -> 25.25
G0 X105.000 Y75.000 Z22.750 F1200
G0 X75.000 Y75.000 Z22.750 F4800
G0 X75.000 Y75.000 Z21.750 F1200
G1 E0.800 F1800
G1 E0.1500 F120
G4 P300
G1 X75.000 Y75.000 Z25.550 E0.31020 F180
G4 P800
G0 X75.000 Y75.000 Z25.250 F180
G1 X85.000 Y75.000 Z21.750 E0.77839 F360
G1 E0.1500 F120
G4 P300
G1 X85.000 Y75.000 Z25.550 E0.31020 F180
G4 P800
G0 X85.000 Y75.000 Z25.250 F180
G1 X95.000 Y75.000 Z21.750 E0.77839 F360
G1 E0.1500 F120
G4 P300
G1 X95.000 Y75.000 Z25.550 E0.31020 F180
G4 P800
G0 X95.000 Y75.000 Z25.250 F180
G1 X105.000 Y75.000 Z21.750 E0.77839 F360
G1 E0.1500 F120
G4 P300
G1 X105.000 Y75.000 Z25.550 E0.31020 F180
G4 P800
G0 X105.000 Y75.000 Z25.250 F180
G1 X105.000 Y85.000 Z21.750 E0.77839 F360
G1 E0.1500 F120
G4 P300
G1 X105.000 Y85.000 Z25.550 E0.31020 F180
G4 P800
G0 X105.000 Y85.000 Z25.250 F180
G1 X95.000 Y85.000 Z21.750 E0.77839 F360
G1 E0.1500 F120
G4 P300
G1 X95.000 Y85.000 Z25.550 E0.31020 F180
G4 P800
G0 X95.000 Y85.000 Z25.250 F180
G1 X85.000 Y85.000 Z21.750 E0.77839 F360
G1 E0.1500 F120
G4 P300
G1 X85.000 Y85.000 Z25.550 E0.31020 F180
G4 P800
G0 X85.000 Y85.000 Z25.250 F180
G1 X75.000 Y85.000 Z21.750 E0.77839 F360
G1 E0.1500 F120
G4 P300
G1 X75.000 Y85.000 Z25.550 E0.31020 F180
G4 P800
G0 X75.000 Y85.000 Z25.250 F180
G1 X75.000 Y95.000 Z21.750 E0.77839 F360
G1 E0.1500 F120
G4 P300
G1 X75.000 Y95.000 Z25.550 E0.31020 F180
G4 P800
G0 X75.000 Y95.000 Z25.250 F180
G1 X85.000 Y95.000 Z21.750 E0.77839 F360
G1 E0.1500 F120
G4 P300
G1 X85.000 Y95.000 Z25.550 E0.31020 F180
G4 P800
G0 X85.000 Y95.000 Z25.250 F180
G1 X95.000 Y95.000 Z21.750 E0.77839 F360
G1 E0.1500 F120
G4 P300
G1 X95.000 Y95.000 Z25.550 E0.31020 F180
G4 P800
G0 X95.000 Y95.000 Z25.250 F180
G1 X105.000 Y95.000 Z21.750 E0.77839 F360
G1 E0.1500 F120
G4 P300
G1 X105.000 Y95.000 Z25.550 E0.31020 F180
G4 P800
G0 X105.000 Y95.000 Z25.250 F180
G1 X105.000 Y105.000 Z21.750 E0.77839 F360
G1 E0.1500 F120
G4 P300
G1 X105.000 Y105.000 Z25.550 E0.31020 F180
G4 P800
G0 X105.000 Y105.000 Z25.250 F180
G1 X95.000 Y105.000 Z21.750 E0.77839 F360
G1 E0.1500 F120
G4 P300
G1 X95.000 Y105.000 Z25.550 E0.31020 F180
G4 P800
G0 X95.000 Y105.000 Z25.250 F180
G1 X85.000 Y105.000 Z21.750 E0.77839 F360
G1 E0.1500 F120
G4 P300
G1 X85.000 Y105.000 Z25.550 E0.31020 F180
G4 P800
G0 X85.000 Y105.000 Z25.250 F180
G1 X75.000 Y105.000 Z21.750 E0.77839 F360
G1 E0.1500 F120
G4 P300
G1 X75.000 Y105.000 Z25.550 E0.31020 F180
G4 P800
G0 X75.000 Y105.000 Z25.250 F180
G1 E0.1500 F120
G4 P300
G1 X85.000 Y105.000 Z25.250 E0.81633 F360
G1 E0.0750 F120
G4 P300
G1 X95.000 Y105.000 Z25.250 E0.81633 F360
G1 E0.0750 F120
G4 P300
G1 X105.000 Y105.000 Z25.250 E0.81633 F360
G1 E0.0750 F120
G4 P300
G1 E-0.800 F2400
G0 X105.000 Y105.000 Z26.250 F1200
G0 X105.000 Y95.000 Z26.250 F4800
G0 X105.000 Y95.000 Z25.250 F1200
G1 E0.800 F1800
G1 E0.1500 F120
G4 P300
G1 X95.000 Y95.000 Z25.250 E0.81633 F360
G1 E0.0750 F120
G4 P300
G1 X85.000 Y95.000 Z25.250 E0.81633 F360
G1 E0.0750 F120
G4 P300
G1 X75.000 Y95.000 Z25.250 E0.81633 F360
G1 E0.0750 F120
G4 P300
G1 E-0.800 F2400
G0 X75.000 Y95.000 Z26.250 F1200
G0 X75.000 Y85.000 Z26.250 F4800
G0 X75.000 Y85.000 Z25.250 F1200
G1 E0.800 F1800
G1 E0.1500 F120
G4 P300
G1 X85.000 Y85.000 Z25.250 E0.81633 F360
G1 E0.0750 F120
G4 P300
G1 X95.000 Y85.000 Z25.250 E0.81633 F360
G1 E0.0750 F120
G4 P300
G1 X105.000 Y85.000 Z25.250 E0.81633 F360
G1 E0.0750 F120
G4 P300
G1 E-0.800 F2400
G0 X105.000 Y85.000 Z26.250 F1200
G0 X105.000 Y75.000 Z26.250 F4800
G0 X105.000 Y75.000 Z25.250 F1200
G1 E0.800 F1800
G1 E0.1500 F120
G4 P300
G1 X95.000 Y75.000 Z25.250 E0.81633 F360
G1 E0.0750 F120
G4 P300
G1 X85.000 Y75.000 Z25.250 E0.81633 F360
G1 E0.0750 F120
G4 P300
G1 X75.000 Y75.000 Z25.250 E0.81633 F360
G1 E0.0750 F120
G4 P300
G1 E0.1500 F120
G4 P300
G1 X75.000 Y85.000 Z25.250 E0.81633 F360
G1 E0.0750 F120
G4 P300
G1 X75.000 Y95.000 Z25.250 E0.81633 F360
G1 E0.0750 F120
G4 P300
G1 X75.000 Y105.000 Z25.250 E0.81633 F360
G1 E0.0750 F120
G4 P300
G1 E-0.800 F2400
G0 X75.000 Y105.000 Z26.250 F1200
G0 X85.000 Y105.000 Z26.250 F4800
G0 X85.000 Y105.000 Z25.250 F1200
G1 E0.800 F1800
G1 E0.1500 F120
G4 P300
G1 X85.000 Y95.000 Z25.250 E0.81633 F360
G1 E0.0750 F120
G4 P300
G1 X85.000 Y85.000 Z25.250 E0.81633 F360
G1 E0.0750 F120
G4 P300
G1 X85.000 Y75.000 Z25.250 E0.81633 F360
G1 E0.0750 F120
G4 P300
G1 E-0.800 F2400
G0 X85.000 Y75.000 Z26.250 F1200
G0 X95.000 Y75.000 Z26.250 F4800
G0 X95.000 Y75.000 Z25.250 F1200
G1 E0.800 F1800
G1 E0.1500 F120
G4 P300
G1 X95.000 Y85.000 Z25.250 E0.81633 F360
G1 E0.0750 F120
G4 P300
G1 X95.000 Y95.000 Z25.250 E0.81633 F360
G1 E0.0750 F120
G4 P300
G1 X95.000 Y105.000 Z25.250 E0.81633 F360
G1 E0.0750 F120
G4 P300
G1 E-0.800 F2400
G0 X95.000 Y105.000 Z26.250 F1200
G0 X105.000 Y105.000 Z26.250 F4800
G0 X105.000 Y105.000 Z25.250 F1200
G1 E0.800 F1800
G1 E0.1500 F120
G4 P300
G1 X105.000 Y95.000 Z25.250 E0.81633 F360
G1 E0.0750 F120
G4 P300
G1 X105.000 Y85.000 Z25.250 E0.81633 F360
G1 E0.0750 F120
G4 P300
G1 X105.000 Y75.000 Z25.250 E0.81633 F360
G1 E0.0750 F120
G4 P300
G1 E-0.800 F2400
; LEVEL 8/8  z 25.25 -> 28.75
G0 X105.000 Y75.000 Z26.250 F1200
G0 X75.000 Y75.000 Z26.250 F4800
G0 X75.000 Y75.000 Z25.250 F1200
G1 E0.800 F1800
G1 E0.1500 F120
G4 P300
G1 X75.000 Y75.000 Z29.050 E0.31020 F180
G4 P800
G0 X75.000 Y75.000 Z28.750 F180
G1 X85.000 Y75.000 Z25.250 E0.77839 F360
G1 E0.1500 F120
G4 P300
G1 X85.000 Y75.000 Z29.050 E0.31020 F180
G4 P800
G0 X85.000 Y75.000 Z28.750 F180
G1 X95.000 Y75.000 Z25.250 E0.77839 F360
G1 E0.1500 F120
G4 P300
G1 X95.000 Y75.000 Z29.050 E0.31020 F180
G4 P800
G0 X95.000 Y75.000 Z28.750 F180
G1 X105.000 Y75.000 Z25.250 E0.77839 F360
G1 E0.1500 F120
G4 P300
G1 X105.000 Y75.000 Z29.050 E0.31020 F180
G4 P800
G0 X105.000 Y75.000 Z28.750 F180
G1 X105.000 Y85.000 Z25.250 E0.77839 F360
G1 E0.1500 F120
G4 P300
G1 X105.000 Y85.000 Z29.050 E0.31020 F180
G4 P800
G0 X105.000 Y85.000 Z28.750 F180
G1 X95.000 Y85.000 Z25.250 E0.77839 F360
G1 E0.1500 F120
G4 P300
G1 X95.000 Y85.000 Z29.050 E0.31020 F180
G4 P800
G0 X95.000 Y85.000 Z28.750 F180
G1 X85.000 Y85.000 Z25.250 E0.77839 F360
G1 E0.1500 F120
G4 P300
G1 X85.000 Y85.000 Z29.050 E0.31020 F180
G4 P800
G0 X85.000 Y85.000 Z28.750 F180
G1 X75.000 Y85.000 Z25.250 E0.77839 F360
G1 E0.1500 F120
G4 P300
G1 X75.000 Y85.000 Z29.050 E0.31020 F180
G4 P800
G0 X75.000 Y85.000 Z28.750 F180
G1 X75.000 Y95.000 Z25.250 E0.77839 F360
G1 E0.1500 F120
G4 P300
G1 X75.000 Y95.000 Z29.050 E0.31020 F180
G4 P800
G0 X75.000 Y95.000 Z28.750 F180
G1 X85.000 Y95.000 Z25.250 E0.77839 F360
G1 E0.1500 F120
G4 P300
G1 X85.000 Y95.000 Z29.050 E0.31020 F180
G4 P800
G0 X85.000 Y95.000 Z28.750 F180
G1 X95.000 Y95.000 Z25.250 E0.77839 F360
G1 E0.1500 F120
G4 P300
G1 X95.000 Y95.000 Z29.050 E0.31020 F180
G4 P800
G0 X95.000 Y95.000 Z28.750 F180
G1 X105.000 Y95.000 Z25.250 E0.77839 F360
G1 E0.1500 F120
G4 P300
G1 X105.000 Y95.000 Z29.050 E0.31020 F180
G4 P800
G0 X105.000 Y95.000 Z28.750 F180
G1 X105.000 Y105.000 Z25.250 E0.77839 F360
G1 E0.1500 F120
G4 P300
G1 X105.000 Y105.000 Z29.050 E0.31020 F180
G4 P800
G0 X105.000 Y105.000 Z28.750 F180
G1 X95.000 Y105.000 Z25.250 E0.77839 F360
G1 E0.1500 F120
G4 P300
G1 X95.000 Y105.000 Z29.050 E0.31020 F180
G4 P800
G0 X95.000 Y105.000 Z28.750 F180
G1 X85.000 Y105.000 Z25.250 E0.77839 F360
G1 E0.1500 F120
G4 P300
G1 X85.000 Y105.000 Z29.050 E0.31020 F180
G4 P800
G0 X85.000 Y105.000 Z28.750 F180
G1 X75.000 Y105.000 Z25.250 E0.77839 F360
G1 E0.1500 F120
G4 P300
G1 X75.000 Y105.000 Z29.050 E0.31020 F180
G4 P800
G0 X75.000 Y105.000 Z28.750 F180
G1 E0.1500 F120
G4 P300
G1 X85.000 Y105.000 Z28.750 E0.81633 F360
G1 E0.0750 F120
G4 P300
G1 X95.000 Y105.000 Z28.750 E0.81633 F360
G1 E0.0750 F120
G4 P300
G1 X105.000 Y105.000 Z28.750 E0.81633 F360
G1 E0.0750 F120
G4 P300
G1 E-0.800 F2400
G0 X105.000 Y105.000 Z29.750 F1200
G0 X105.000 Y95.000 Z29.750 F4800
G0 X105.000 Y95.000 Z28.750 F1200
G1 E0.800 F1800
G1 E0.1500 F120
G4 P300
G1 X95.000 Y95.000 Z28.750 E0.81633 F360
G1 E0.0750 F120
G4 P300
G1 X85.000 Y95.000 Z28.750 E0.81633 F360
G1 E0.0750 F120
G4 P300
G1 X75.000 Y95.000 Z28.750 E0.81633 F360
G1 E0.0750 F120
G4 P300
G1 E-0.800 F2400
G0 X75.000 Y95.000 Z29.750 F1200
G0 X75.000 Y85.000 Z29.750 F4800
G0 X75.000 Y85.000 Z28.750 F1200
G1 E0.800 F1800
G1 E0.1500 F120
G4 P300
G1 X85.000 Y85.000 Z28.750 E0.81633 F360
G1 E0.0750 F120
G4 P300
G1 X95.000 Y85.000 Z28.750 E0.81633 F360
G1 E0.0750 F120
G4 P300
G1 X105.000 Y85.000 Z28.750 E0.81633 F360
G1 E0.0750 F120
G4 P300
G1 E-0.800 F2400
G0 X105.000 Y85.000 Z29.750 F1200
G0 X105.000 Y75.000 Z29.750 F4800
G0 X105.000 Y75.000 Z28.750 F1200
G1 E0.800 F1800
G1 E0.1500 F120
G4 P300
G1 X95.000 Y75.000 Z28.750 E0.81633 F360
G1 E0.0750 F120
G4 P300
G1 X85.000 Y75.000 Z28.750 E0.81633 F360
G1 E0.0750 F120
G4 P300
G1 X75.000 Y75.000 Z28.750 E0.81633 F360
G1 E0.0750 F120
G4 P300
G1 E0.1500 F120
G4 P300
G1 X75.000 Y85.000 Z28.750 E0.81633 F360
G1 E0.0750 F120
G4 P300
G1 X75.000 Y95.000 Z28.750 E0.81633 F360
G1 E0.0750 F120
G4 P300
G1 X75.000 Y105.000 Z28.750 E0.81633 F360
G1 E0.0750 F120
G4 P300
G1 E-0.800 F2400
G0 X75.000 Y105.000 Z29.750 F1200
G0 X85.000 Y105.000 Z29.750 F4800
G0 X85.000 Y105.000 Z28.750 F1200
G1 E0.800 F1800
G1 E0.1500 F120
G4 P300
G1 X85.000 Y95.000 Z28.750 E0.81633 F360
G1 E0.0750 F120
G4 P300
G1 X85.000 Y85.000 Z28.750 E0.81633 F360
G1 E0.0750 F120
G4 P300
G1 X85.000 Y75.000 Z28.750 E0.81633 F360
G1 E0.0750 F120
G4 P300
G1 E-0.800 F2400
G0 X85.000 Y75.000 Z29.750 F1200
G0 X95.000 Y75.000 Z29.750 F4800
G0 X95.000 Y75.000 Z28.750 F1200
G1 E0.800 F1800
G1 E0.1500 F120
G4 P300
G1 X95.000 Y85.000 Z28.750 E0.81633 F360
G1 E0.0750 F120
G4 P300
G1 X95.000 Y95.000 Z28.750 E0.81633 F360
G1 E0.0750 F120
G4 P300
G1 X95.000 Y105.000 Z28.750 E0.81633 F360
G1 E0.0750 F120
G4 P300
G1 E-0.800 F2400
G0 X95.000 Y105.000 Z29.750 F1200
G0 X105.000 Y105.000 Z29.750 F4800
G0 X105.000 Y105.000 Z28.750 F1200
G1 E0.800 F1800
G1 E0.1500 F120
G4 P300
G1 X105.000 Y95.000 Z28.750 E0.81633 F360
G1 E0.0750 F120
G4 P300
G1 X105.000 Y85.000 Z28.750 E0.81633 F360
G1 E0.0750 F120
G4 P300
G1 X105.000 Y75.000 Z28.750 E0.81633 F360
G1 E0.0750 F120
G4 P300
G1 E-0.800 F2400
; ---- end ----
G1 E-2 F2400
G0 Z43.75 F600
G0 X0 Y170 F4000 ; present the bed slowly (the bed is the Y axis)
M104 S0
M140 S0
M106 P1 S0
M84
