; wireprint.py  shape=grid  levels=10  level_h=4.5
; height 45.8 mm, filament 1.05 m, est. time 33 min
; ---- start (generic Marlin / Klipper) ----
G90 ; absolute XYZ
M83 ; relative E
M140 S60
M104 S210
G28 ; home
M190 S60
M109 S210
M107
G92 E0
G0 Z2 F600
G0 X5 Y20 F6000
G1 Z0.3 F600
G1 X5 Y120 E10 F1200 ; prime line
G1 X5.5 Y120 F1200
G1 X5.5 Y20 E8 F1200
G1 E-0.8 F2400
G0 Z2 F600
; BASE layer 1
G0 X5.500 Y20.000 Z3.000 F1800
G0 X89.000 Y89.000 Z3.000 F7200
G0 X89.000 Y89.000 Z0.250 F1800
G1 E0.800 F1800
G1 X131.000 Y89.000 Z0.250 E1.96443 F900
G1 X131.000 Y131.000 Z0.250 E1.96443 F900
G1 X89.000 Y131.000 Z0.250 E1.96443 F900
G1 X89.000 Y89.000 Z0.250 E1.96443 F900
G1 E-0.800 F2400
G0 X89.000 Y89.000 Z1.250 F1800
G0 X89.450 Y89.450 Z1.250 F7200
G0 X89.450 Y89.450 Z0.250 F1800
G1 E0.800 F1800
G1 X89.450 Y130.550 Z0.250 E1.92233 F900
G1 X89.900 Y130.550 Z0.250 E0.02105 F900
G1 X89.900 Y89.450 Z0.250 E1.92233 F900
G1 X90.350 Y89.450 Z0.250 E0.02105 F900
G1 X90.350 Y130.550 Z0.250 E1.92233 F900
G1 X90.800 Y130.550 Z0.250 E0.02105 F900
G1 X90.800 Y89.450 Z0.250 E1.92233 F900
G1 X91.250 Y89.450 Z0.250 E0.02105 F900
G1 X91.250 Y130.550 Z0.250 E1.92233 F900
G1 X91.700 Y130.550 Z0.250 E0.02105 F900
G1 X91.700 Y89.450 Z0.250 E1.92233 F900
G1 X92.150 Y89.450 Z0.250 E0.02105 F900
G1 X92.150 Y130.550 Z0.250 E1.92233 F900
G1 X92.600 Y130.550 Z0.250 E0.02105 F900
G1 X92.600 Y89.450 Z0.250 E1.92233 F900
G1 X93.050 Y89.450 Z0.250 E0.02105 F900
G1 X93.050 Y130.550 Z0.250 E1.92233 F900
G1 X93.500 Y130.550 Z0.250 E0.02105 F900
G1 X93.500 Y89.450 Z0.250 E1.92233 F900
G1 X93.950 Y89.450 Z0.250 E0.02105 F900
G1 X93.950 Y130.550 Z0.250 E1.92233 F900
G1 X94.400 Y130.550 Z0.250 E0.02105 F900
G1 X94.400 Y89.450 Z0.250 E1.92233 F900
G1 X94.850 Y89.450 Z0.250 E0.02105 F900
G1 X94.850 Y130.550 Z0.250 E1.92233 F900
G1 X95.300 Y130.550 Z0.250 E0.02105 F900
G1 X95.300 Y89.450 Z0.250 E1.92233 F900
G1 X95.750 Y89.450 Z0.250 E0.02105 F900
G1 X95.750 Y130.550 Z0.250 E1.92233 F900
G1 X96.200 Y130.550 Z0.250 E0.02105 F900
G1 X96.200 Y89.450 Z0.250 E1.92233 F900
G1 X96.650 Y89.450 Z0.250 E0.02105 F900
G1 X96.650 Y130.550 Z0.250 E1.92233 F900
G1 X97.100 Y130.550 Z0.250 E0.02105 F900
G1 X97.100 Y89.450 Z0.250 E1.92233 F900
G1 X97.550 Y89.450 Z0.250 E0.02105 F900
G1 X97.550 Y130.550 Z0.250 E1.92233 F900
G1 X98.000 Y130.550 Z0.250 E0.02105 F900
G1 X98.000 Y89.450 Z0.250 E1.92233 F900
G1 X98.450 Y89.450 Z0.250 E0.02105 F900
G1 X98.450 Y130.550 Z0.250 E1.92233 F900
G1 X98.900 Y130.550 Z0.250 E0.02105 F900
G1 X98.900 Y89.450 Z0.250 E1.92233 F900
G1 X99.350 Y89.450 Z0.250 E0.02105 F900
G1 X99.350 Y130.550 Z0.250 E1.92233 F900
G1 X99.800 Y130.550 Z0.250 E0.02105 F900
G1 X99.800 Y89.450 Z0.250 E1.92233 F900
G1 X100.250 Y89.450 Z0.250 E0.02105 F900
G1 X100.250 Y130.550 Z0.250 E1.92233 F900
G1 X100.700 Y130.550 Z0.250 E0.02105 F900
G1 X100.700 Y89.450 Z0.250 E1.92233 F900
G1 X101.150 Y89.450 Z0.250 E0.02105 F900
G1 X101.150 Y130.550 Z0.250 E1.92233 F900
G1 X101.600 Y130.550 Z0.250 E0.02105 F900
G1 X101.600 Y89.450 Z0.250 E1.92233 F900
G1 X102.050 Y89.450 Z0.250 E0.02105 F900
G1 X102.050 Y130.550 Z0.250 E1.92233 F900
G1 X102.500 Y130.550 Z0.250 E0.02105 F900
G1 X102.500 Y89.450 Z0.250 E1.92233 F900
G1 X102.950 Y89.450 Z0.250 E0.02105 F900
G1 X102.950 Y130.550 Z0.250 E1.92233 F900
G1 X103.400 Y130.550 Z0.250 E0.02105 F900
G1 X103.400 Y89.450 Z0.250 E1.92233 F900
G1 X103.850 Y89.450 Z0.250 E0.02105 F900
G1 X103.850 Y130.550 Z0.250 E1.92233 F900
G1 X104.300 Y130.550 Z0.250 E0.02105 F900
G1 X104.300 Y89.450 Z0.250 E1.92233 F900
G1 X104.750 Y89.450 Z0.250 E0.02105 F900
G1 X104.750 Y130.550 Z0.250 E1.92233 F900
G1 X105.200 Y130.550 Z0.250 E0.02105 F900
G1 X105.200 Y89.450 Z0.250 E1.92233 F900
G1 X105.650 Y89.450 Z0.250 E0.02105 F900
G1 X105.650 Y130.550 Z0.250 E1.92233 F900
G1 X106.100 Y130.550 Z0.250 E0.02105 F900
G1 X106.100 Y89.450 Z0.250 E1.92233 F900
G1 X106.550 Y89.450 Z0.250 E0.02105 F900
G1 X106.550 Y130.550 Z0.250 E1.92233 F900
G1 X107.000 Y130.550 Z0.250 E0.02105 F900
G1 X107.000 Y89.450 Z0.250 E1.92233 F900
G1 X107.450 Y89.450 Z0.250 E0.02105 F900
G1 X107.450 Y130.550 Z0.250 E1.92233 F900
G1 X107.900 Y130.550 Z0.250 E0.02105 F900
G1 X107.900 Y89.450 Z0.250 E1.92233 F900
G1 X108.350 Y89.450 Z0.250 E0.02105 F900
G1 X108.350 Y130.550 Z0.250 E1.92233 F900
G1 X108.800 Y130.550 Z0.250 E0.02105 F900
G1 X108.800 Y89.450 Z0.250 E1.92233 F900
G1 X109.250 Y89.450 Z0.250 E0.02105 F900
G1 X109.250 Y130.550 Z0.250 E1.92233 F900
G1 X109.700 Y130.550 Z0.250 E0.02105 F900
G1 X109.700 Y89.450 Z0.250 E1.92233 F900
G1 X110.150 Y89.450 Z0.250 E0.02105 F900
G1 X110.150 Y130.550 Z0.250 E1.92233 F900
G1 X110.600 Y130.550 Z0.250 E0.02105 F900
G1 X110.600 Y89.450 Z0.250 E1.92233 F900
G1 X111.050 Y89.450 Z0.250 E0.02105 F900
G1 X111.050 Y130.550 Z0.250 E1.92233 F900
G1 X111.500 Y130.550 Z0.250 E0.02105 F900
G1 X111.500 Y89.450 Z0.250 E1.92233 F900
G1 X111.950 Y89.450 Z0.250 E0.02105 F900
G1 X111.950 Y130.550 Z0.250 E1.92233 F900
G1 X112.400 Y130.550 Z0.250 E0.02105 F900
G1 X112.400 Y89.450 Z0.250 E1.92233 F900
G1 X112.850 Y89.450 Z0.250 E0.02105 F900
G1 X112.850 Y130.550 Z0.250 E1.92233 F900
G1 X113.300 Y130.550 Z0.250 E0.02105 F900
G1 X113.300 Y89.450 Z0.250 E1.92233 F900
G1 X113.750 Y89.450 Z0.250 E0.02105 F900
G1 X113.750 Y130.550 Z0.250 E1.92233 F900
G1 X114.200 Y130.550 Z0.250 E0.02105 F900
G1 X114.200 Y89.450 Z0.250 E1.92233 F900
G1 X114.650 Y89.450 Z0.250 E0.02105 F900
G1 X114.650 Y130.550 Z0.250 E1.92233 F900
G1 X115.100 Y130.550 Z0.250 E0.02105 F900
G1 X115.100 Y89.450 Z0.250 E1.92233 F900
G1 X115.550 Y89.450 Z0.250 E0.02105 F900
G1 X115.550 Y130.550 Z0.250 E1.92233 F900
G1 X116.000 Y130.550 Z0.250 E0.02105 F900
G1 X116.000 Y89.450 Z0.250 E1.92233 F900
G1 X116.450 Y89.450 Z0.250 E0.02105 F900
G1 X116.450 Y130.550 Z0.250 E1.92233 F900
G1 X116.900 Y130.550 Z0.250 E0.02105 F900
G1 X116.900 Y89.450 Z0.250 E1.92233 F900
G1 X117.350 Y89.450 Z0.250 E0.02105 F900
G1 X117.350 Y130.550 Z0.250 E1.92233 F900
G1 X117.800 Y130.550 Z0.250 E0.02105 F900
G1 X117.800 Y89.450 Z0.250 E1.92233 F900
G1 X118.250 Y89.450 Z0.250 E0.02105 F900
G1 X118.250 Y130.550 Z0.250 E1.92233 F900
G1 X118.700 Y130.550 Z0.250 E0.02105 F900
G1 X118.700 Y89.450 Z0.250 E1.92233 F900
G1 X119.150 Y89.450 Z0.250 E0.02105 F900
G1 X119.150 Y130.550 Z0.250 E1.92233 F900
G1 X119.600 Y130.550 Z0.250 E0.02105 F900
G1 X119.600 Y89.450 Z0.250 E1.92233 F900
G1 X120.050 Y89.450 Z0.250 E0.02105 F900
G1 X120.050 Y130.550 Z0.250 E1.92233 F900
G1 X120.500 Y130.550 Z0.250 E0.02105 F900
G1 X120.500 Y89.450 Z0.250 E1.92233 F900
G1 X120.950 Y89.450 Z0.250 E0.02105 F900
G1 X120.950 Y130.550 Z0.250 E1.92233 F900
G1 X121.400 Y130.550 Z0.250 E0.02105 F900
G1 X121.400 Y89.450 Z0.250 E1.92233 F900
G1 X121.850 Y89.450 Z0.250 E0.02105 F900
G1 X121.850 Y130.550 Z0.250 E1.92233 F900
G1 X122.300 Y130.550 Z0.250 E0.02105 F900
G1 X122.300 Y89.450 Z0.250 E1.92233 F900
G1 X122.750 Y89.450 Z0.250 E0.02105 F900
G1 X122.750 Y130.550 Z0.250 E1.92233 F900
G1 X123.200 Y130.550 Z0.250 E0.02105 F900
G1 X123.200 Y89.450 Z0.250 E1.92233 F900
G1 X123.650 Y89.450 Z0.250 E0.02105 F900
G1 X123.650 Y130.550 Z0.250 E1.92233 F900
G1 X124.100 Y130.550 Z0.250 E0.02105 F900
G1 X124.100 Y89.450 Z0.250 E1.92233 F900
G1 X124.550 Y89.450 Z0.250 E0.02105 F900
G1 X124.550 Y130.550 Z0.250 E1.92233 F900
G1 X125.000 Y130.550 Z0.250 E0.02105 F900
G1 X125.000 Y89.450 Z0.250 E1.92233 F900
G1 X125.450 Y89.450 Z0.250 E0.02105 F900
G1 X125.450 Y130.550 Z0.250 E1.92233 F900
G1 X125.900 Y130.550 Z0.250 E0.02105 F900
G1 X125.900 Y89.450 Z0.250 E1.92233 F900
G1 X126.350 Y89.450 Z0.250 E0.02105 F900
G1 X126.350 Y130.550 Z0.250 E1.92233 F900
G1 X126.800 Y130.550 Z0.250 E0.02105 F900
G1 X126.800 Y89.450 Z0.250 E1.92233 F900
G1 X127.250 Y89.450 Z0.250 E0.02105 F900
G1 X127.250 Y130.550 Z0.250 E1.92233 F900
G1 X127.700 Y130.550 Z0.250 E0.02105 F900
G1 X127.700 Y89.450 Z0.250 E1.92233 F900
G1 X128.150 Y89.450 Z0.250 E0.02105 F900
G1 X128.150 Y130.550 Z0.250 E1.92233 F900
G1 X128.600 Y130.550 Z0.250 E0.02105 F900
G1 X128.600 Y89.450 Z0.250 E1.92233 F900
G1 X129.050 Y89.450 Z0.250 E0.02105 F900
G1 X129.050 Y130.550 Z0.250 E1.92233 F900
G1 X129.500 Y130.550 Z0.250 E0.02105 F900
G1 X129.500 Y89.450 Z0.250 E1.92233 F900
G1 X129.950 Y89.450 Z0.250 E0.02105 F900
G1 X129.950 Y130.550 Z0.250 E1.92233 F900
G1 X130.400 Y130.550 Z0.250 E0.02105 F900
G1 X130.400 Y89.450 Z0.250 E1.92233 F900
; BASE layer 2
M106 S128
G1 E-0.800 F2400
G0 X130.400 Y89.450 Z1.500 F1800
G0 X89.000 Y89.000 Z1.500 F7200
G0 X89.000 Y89.000 Z0.500 F1800
G1 E0.800 F1800
G1 X131.000 Y89.000 Z0.500 E1.96443 F1500
G1 X131.000 Y131.000 Z0.500 E1.96443 F1500
G1 X89.000 Y131.000 Z0.500 E1.96443 F1500
G1 X89.000 Y89.000 Z0.500 E1.96443 F1500
G1 E-0.800 F2400
G0 X89.000 Y89.000 Z1.500 F1800
G0 X89.450 Y89.450 Z1.500 F7200
G0 X89.450 Y89.450 Z0.500 F1800
G1 E0.800 F1800
G1 X130.550 Y89.450 Z0.500 E1.92233 F1500
G1 X130.550 Y89.900 Z0.500 E0.02105 F1500
G1 X89.450 Y89.900 Z0.500 E1.92233 F1500
G1 X89.450 Y90.350 Z0.500 E0.02105 F1500
G1 X130.550 Y90.350 Z0.500 E1.92233 F1500
G1 X130.550 Y90.800 Z0.500 E0.02105 F1500
G1 X89.450 Y90.800 Z0.500 E1.92233 F1500
G1 X89.450 Y91.250 Z0.500 E0.02105 F1500
G1 X130.550 Y91.250 Z0.500 E1.92233 F1500
G1 X130.550 Y91.700 Z0.500 E0.02105 F1500
G1 X89.450 Y91.700 Z0.500 E1.92233 F1500
G1 X89.450 Y92.150 Z0.500 E0.02105 F1500
G1 X130.550 Y92.150 Z0.500 E1.92233 F1500
G1 X130.550 Y92.600 Z0.500 E0.02105 F1500
G1 X89.450 Y92.600 Z0.500 E1.92233 F1500
G1 X89.450 Y93.050 Z0.500 E0.02105 F1500
G1 X130.550 Y93.050 Z0.500 E1.92233 F1500
G1 X130.550 Y93.500 Z0.500 E0.02105 F1500
G1 X89.450 Y93.500 Z0.500 E1.92233 F1500
G1 X89.450 Y93.950 Z0.500 E0.02105 F1500
G1 X130.550 Y93.950 Z0.500 E1.92233 F1500
G1 X130.550 Y94.400 Z0.500 E0.02105 F1500
G1 X89.450 Y94.400 Z0.500 E1.92233 F1500
G1 X89.450 Y94.850 Z0.500 E0.02105 F1500
G1 X130.550 Y94.850 Z0.500 E1.92233 F1500
G1 X130.550 Y95.300 Z0.500 E0.02105 F1500
G1 X89.450 Y95.300 Z0.500 E1.92233 F1500
G1 X89.450 Y95.750 Z0.500 E0.02105 F1500
G1 X130.550 Y95.750 Z0.500 E1.92233 F1500
G1 X130.550 Y96.200 Z0.500 E0.02105 F1500
G1 X89.450 Y96.200 Z0.500 E1.92233 F1500
G1 X89.450 Y96.650 Z0.500 E0.02105 F1500
G1 X130.550 Y96.650 Z0.500 E1.92233 F1500
G1 X130.550 Y97.100 Z0.500 E0.02105 F1500
G1 X89.450 Y97.100 Z0.500 E1.92233 F1500
G1 X89.450 Y97.550 Z0.500 E0.02105 F1500
G1 X130.550 Y97.550 Z0.500 E1.92233 F1500
G1 X130.550 Y98.000 Z0.500 E0.02105 F1500
G1 X89.450 Y98.000 Z0.500 E1.92233 F1500
G1 X89.450 Y98.450 Z0.500 E0.02105 F1500
G1 X130.550 Y98.450 Z0.500 E1.92233 F1500
G1 X130.550 Y98.900 Z0.500 E0.02105 F1500
G1 X89.450 Y98.900 Z0.500 E1.92233 F1500
G1 X89.450 Y99.350 Z0.500 E0.02105 F1500
G1 X130.550 Y99.350 Z0.500 E1.92233 F1500
G1 X130.550 Y99.800 Z0.500 E0.02105 F1500
G1 X89.450 Y99.800 Z0.500 E1.92233 F1500
G1 X89.450 Y100.250 Z0.500 E0.02105 F1500
G1 X130.550 Y100.250 Z0.500 E1.92233 F1500
G1 X130.550 Y100.700 Z0.500 E0.02105 F1500
G1 X89.450 Y100.700 Z0.500 E1.92233 F1500
G1 X89.450 Y101.150 Z0.500 E0.02105 F1500
G1 X130.550 Y101.150 Z0.500 E1.92233 F1500
G1 X130.550 Y101.600 Z0.500 E0.02105 F1500
G1 X89.450 Y101.600 Z0.500 E1.92233 F1500
G1 X89.450 Y102.050 Z0.500 E0.02105 F1500
G1 X130.550 Y102.050 Z0.500 E1.92233 F1500
G1 X130.550 Y102.500 Z0.500 E0.02105 F1500
G1 X89.450 Y102.500 Z0.500 E1.92233 F1500
G1 X89.450 Y102.950 Z0.500 E0.02105 F1500
G1 X130.550 Y102.950 Z0.500 E1.92233 F1500
G1 X130.550 Y103.400 Z0.500 E0.02105 F1500
G1 X89.450 Y103.400 Z0.500 E1.92233 F1500
G1 X89.450 Y103.850 Z0.500 E0.02105 F1500
G1 X130.550 Y103.850 Z0.500 E1.92233 F1500
G1 X130.550 Y104.300 Z0.500 E0.02105 F1500
G1 X89.450 Y104.300 Z0.500 E1.92233 F1500
G1 X89.450 Y104.750 Z0.500 E0.02105 F1500
G1 X130.550 Y104.750 Z0.500 E1.92233 F1500
G1 X130.550 Y105.200 Z0.500 E0.02105 F1500
G1 X89.450 Y105.200 Z0.500 E1.92233 F1500
G1 X89.450 Y105.650 Z0.500 E0.02105 F1500
G1 X130.550 Y105.650 Z0.500 E1.92233 F1500
G1 X130.550 Y106.100 Z0.500 E0.02105 F1500
G1 X89.450 Y106.100 Z0.500 E1.92233 F1500
G1 X89.450 Y106.550 Z0.500 E0.02105 F1500
G1 X130.550 Y106.550 Z0.500 E1.92233 F1500
G1 X130.550 Y107.000 Z0.500 E0.02105 F1500
G1 X89.450 Y107.000 Z0.500 E1.92233 F1500
G1 X89.450 Y107.450 Z0.500 E0.02105 F1500
G1 X130.550 Y107.450 Z0.500 E1.92233 F1500
G1 X130.550 Y107.900 Z0.500 E0.02105 F1500
G1 X89.450 Y107.900 Z0.500 E1.92233 F1500
G1 X89.450 Y108.350 Z0.500 E0.02105 F1500
G1 X130.550 Y108.350 Z0.500 E1.92233 F1500
G1 X130.550 Y108.800 Z0.500 E0.02105 F1500
G1 X89.450 Y108.800 Z0.500 E1.92233 F1500
G1 X89.450 Y109.250 Z0.500 E0.02105 F1500
G1 X130.550 Y109.250 Z0.500 E1.92233 F1500
G1 X130.550 Y109.700 Z0.500 E0.02105 F1500
G1 X89.450 Y109.700 Z0.500 E1.92233 F1500
G1 X89.450 Y110.150 Z0.500 E0.02105 F1500
G1 X130.550 Y110.150 Z0.500 E1.92233 F1500
G1 X130.550 Y110.600 Z0.500 E0.02105 F1500
G1 X89.450 Y110.600 Z0.500 E1.92233 F1500
G1 X89.450 Y111.050 Z0.500 E0.02105 F1500
G1 X130.550 Y111.050 Z0.500 E1.92233 F1500
G1 X130.550 Y111.500 Z0.500 E0.02105 F1500
G1 X89.450 Y111.500 Z0.500 E1.92233 F1500
G1 X89.450 Y111.950 Z0.500 E0.02105 F1500
G1 X130.550 Y111.950 Z0.500 E1.92233 F1500
G1 X130.550 Y112.400 Z0.500 E0.02105 F1500
G1 X89.450 Y112.400 Z0.500 E1.92233 F1500
G1 X89.450 Y112.850 Z0.500 E0.02105 F1500
G1 X130.550 Y112.850 Z0.500 E1.92233 F1500
G1 X130.550 Y113.300 Z0.500 E0.02105 F1500
G1 X89.450 Y113.300 Z0.500 E1.92233 F1500
G1 X89.450 Y113.750 Z0.500 E0.02105 F1500
G1 X130.550 Y113.750 Z0.500 E1.92233 F1500
G1 X130.550 Y114.200 Z0.500 E0.02105 F1500
G1 X89.450 Y114.200 Z0.500 E1.92233 F1500
G1 X89.450 Y114.650 Z0.500 E0.02105 F1500
G1 X130.550 Y114.650 Z0.500 E1.92233 F1500
G1 X130.550 Y115.100 Z0.500 E0.02105 F1500
G1 X89.450 Y115.100 Z0.500 E1.92233 F1500
G1 X89.450 Y115.550 Z0.500 E0.02105 F1500
G1 X130.550 Y115.550 Z0.500 E1.92233 F1500
G1 X130.550 Y116.000 Z0.500 E0.02105 F1500
G1 X89.450 Y116.000 Z0.500 E1.92233 F1500
G1 X89.450 Y116.450 Z0.500 E0.02105 F1500
G1 X130.550 Y116.450 Z0.500 E1.92233 F1500
G1 X130.550 Y116.900 Z0.500 E0.02105 F1500
G1 X89.450 Y116.900 Z0.500 E1.92233 F1500
G1 X89.450 Y117.350 Z0.500 E0.02105 F1500
G1 X130.550 Y117.350 Z0.500 E1.92233 F1500
G1 X130.550 Y117.800 Z0.500 E0.02105 F1500
G1 X89.450 Y117.800 Z0.500 E1.92233 F1500
G1 X89.450 Y118.250 Z0.500 E0.02105 F1500
G1 X130.550 Y118.250 Z0.500 E1.92233 F1500
G1 X130.550 Y118.700 Z0.500 E0.02105 F1500
G1 X89.450 Y118.700 Z0.500 E1.92233 F1500
G1 X89.450 Y119.150 Z0.500 E0.02105 F1500
G1 X130.550 Y119.150 Z0.500 E1.92233 F1500
G1 X130.550 Y119.600 Z0.500 E0.02105 F1500
G1 X89.450 Y119.600 Z0.500 E1.92233 F1500
G1 X89.450 Y120.050 Z0.500 E0.02105 F1500
G1 X130.550 Y120.050 Z0.500 E1.92233 F1500
G1 X130.550 Y120.500 Z0.500 E0.02105 F1500
G1 X89.450 Y120.500 Z0.500 E1.92233 F1500
G1 X89.450 Y120.950 Z0.500 E0.02105 F1500
G1 X130.550 Y120.950 Z0.500 E1.92233 F1500
G1 X130.550 Y121.400 Z0.500 E0.02105 F1500
G1 X89.450 Y121.400 Z0.500 E1.92233 F1500
G1 X89.450 Y121.850 Z0.500 E0.02105 F1500
G1 X130.550 Y121.850 Z0.500 E1.92233 F1500
G1 X130.550 Y122.300 Z0.500 E0.02105 F1500
G1 X89.450 Y122.300 Z0.500 E1.92233 F1500
G1 X89.450 Y122.750 Z0.500 E0.02105 F1500
G1 X130.550 Y122.750 Z0.500 E1.92233 F1500
G1 X130.550 Y123.200 Z0.500 E0.02105 F1500
G1 X89.450 Y123.200 Z0.500 E1.92233 F1500
G1 X89.450 Y123.650 Z0.500 E0.02105 F1500
G1 X130.550 Y123.650 Z0.500 E1.92233 F1500
G1 X130.550 Y124.100 Z0.500 E0.02105 F1500
G1 X89.450 Y124.100 Z0.500 E1.92233 F1500
G1 X89.450 Y124.550 Z0.500 E0.02105 F1500
G1 X130.550 Y124.550 Z0.500 E1.92233 F1500
G1 X130.550 Y125.000 Z0.500 E0.02105 F1500
G1 X89.450 Y125.000 Z0.500 E1.92233 F1500
G1 X89.450 Y125.450 Z0.500 E0.02105 F1500
G1 X130.550 Y125.450 Z0.500 E1.92233 F1500
G1 X130.550 Y125.900 Z0.500 E0.02105 F1500
G1 X89.450 Y125.900 Z0.500 E1.92233 F1500
G1 X89.450 Y126.350 Z0.500 E0.02105 F1500
G1 X130.550 Y126.350 Z0.500 E1.92233 F1500
G1 X130.550 Y126.800 Z0.500 E0.02105 F1500
G1 X89.450 Y126.800 Z0.500 E1.92233 F1500
G1 X89.450 Y127.250 Z0.500 E0.02105 F1500
G1 X130.550 Y127.250 Z0.500 E1.92233 F1500
G1 X130.550 Y127.700 Z0.500 E0.02105 F1500
G1 X89.450 Y127.700 Z0.500 E1.92233 F1500
G1 X89.450 Y128.150 Z0.500 E0.02105 F1500
G1 X130.550 Y128.150 Z0.500 E1.92233 F1500
G1 X130.550 Y128.600 Z0.500 E0.02105 F1500
G1 X89.450 Y128.600 Z0.500 E1.92233 F1500
G1 X89.450 Y129.050 Z0.500 E0.02105 F1500
G1 X130.550 Y129.050 Z0.500 E1.92233 F1500
G1 X130.550 Y129.500 Z0.500 E0.02105 F1500
G1 X89.450 Y129.500 Z0.500 E1.92233 F1500
G1 X89.450 Y129.950 Z0.500 E0.02105 F1500
G1 X130.550 Y129.950 Z0.500 E1.92233 F1500
G1 X130.550 Y130.400 Z0.500 E0.02105 F1500
G1 X89.450 Y130.400 Z0.500 E1.92233 F1500
; BASE layer 3
G1 E-0.800 F2400
G0 X89.450 Y130.400 Z1.750 F1800
G0 X89.000 Y89.000 Z1.750 F7200
G0 X89.000 Y89.000 Z0.750 F1800
G1 E0.800 F1800
G1 X131.000 Y89.000 Z0.750 E1.96443 F1500
G1 X131.000 Y131.000 Z0.750 E1.96443 F1500
G1 X89.000 Y131.000 Z0.750 E1.96443 F1500
G1 X89.000 Y89.000 Z0.750 E1.96443 F1500
G1 E-0.800 F2400
G0 X89.000 Y89.000 Z1.750 F1800
G0 X89.450 Y89.450 Z1.750 F7200
G0 X89.450 Y89.450 Z0.750 F1800
G1 E0.800 F1800
G1 X89.450 Y130.550 Z0.750 E1.92233 F1500
G1 X89.900 Y130.550 Z0.750 E0.02105 F1500
G1 X89.900 Y89.450 Z0.750 E1.92233 F1500
G1 X90.350 Y89.450 Z0.750 E0.02105 F1500
G1 X90.350 Y130.550 Z0.750 E1.92233 F1500
G1 X90.800 Y130.550 Z0.750 E0.02105 F1500
G1 X90.800 Y89.450 Z0.750 E1.92233 F1500
G1 X91.250 Y89.450 Z0.750 E0.02105 F1500
G1 X91.250 Y130.550 Z0.750 E1.92233 F1500
G1 X91.700 Y130.550 Z0.750 E0.02105 F1500
G1 X91.700 Y89.450 Z0.750 E1.92233 F1500
G1 X92.150 Y89.450 Z0.750 E0.02105 F1500
G1 X92.150 Y130.550 Z0.750 E1.92233 F1500
G1 X92.600 Y130.550 Z0.750 E0.02105 F1500
G1 X92.600 Y89.450 Z0.750 E1.92233 F1500
G1 X93.050 Y89.450 Z0.750 E0.02105 F1500
G1 X93.050 Y130.550 Z0.750 E1.92233 F1500
G1 X93.500 Y130.550 Z0.750 E0.02105 F1500
G1 X93.500 Y89.450 Z0.750 E1.92233 F1500
G1 X93.950 Y89.450 Z0.750 E0.02105 F1500
G1 X93.950 Y130.550 Z0.750 E1.92233 F1500
G1 X94.400 Y130.550 Z0.750 E0.02105 F1500
G1 X94.400 Y89.450 Z0.750 E1.92233 F1500
G1 X94.850 Y89.450 Z0.750 E0.02105 F1500
G1 X94.850 Y130.550 Z0.750 E1.92233 F1500
G1 X95.300 Y130.550 Z0.750 E0.02105 F1500
G1 X95.300 Y89.450 Z0.750 E1.92233 F1500
G1 X95.750 Y89.450 Z0.750 E0.02105 F1500
G1 X95.750 Y130.550 Z0.750 E1.92233 F1500
G1 X96.200 Y130.550 Z0.750 E0.02105 F1500
G1 X96.200 Y89.450 Z0.750 E1.92233 F1500
G1 X96.650 Y89.450 Z0.750 E0.02105 F1500
G1 X96.650 Y130.550 Z0.750 E1.92233 F1500
G1 X97.100 Y130.550 Z0.750 E0.02105 F1500
G1 X97.100 Y89.450 Z0.750 E1.92233 F1500
G1 X97.550 Y89.450 Z0.750 E0.02105 F1500
G1 X97.550 Y130.550 Z0.750 E1.92233 F1500
G1 X98.000 Y130.550 Z0.750 E0.02105 F1500
G1 X98.000 Y89.450 Z0.750 E1.92233 F1500
G1 X98.450 Y89.450 Z0.750 E0.02105 F1500
G1 X98.450 Y130.550 Z0.750 E1.92233 F1500
G1 X98.900 Y130.550 Z0.750 E0.02105 F1500
G1 X98.900 Y89.450 Z0.750 E1.92233 F1500
G1 X99.350 Y89.450 Z0.750 E0.02105 F1500
G1 X99.350 Y130.550 Z0.750 E1.92233 F1500
G1 X99.800 Y130.550 Z0.750 E0.02105 F1500
G1 X99.800 Y89.450 Z0.750 E1.92233 F1500
G1 X100.250 Y89.450 Z0.750 E0.02105 F1500
G1 X100.250 Y130.550 Z0.750 E1.92233 F1500
G1 X100.700 Y130.550 Z0.750 E0.02105 F1500
G1 X100.700 Y89.450 Z0.750 E1.92233 F1500
G1 X101.150 Y89.450 Z0.750 E0.02105 F1500
G1 X101.150 Y130.550 Z0.750 E1.92233 F1500
G1 X101.600 Y130.550 Z0.750 E0.02105 F1500
G1 X101.600 Y89.450 Z0.750 E1.92233 F1500
G1 X102.050 Y89.450 Z0.750 E0.02105 F1500
G1 X102.050 Y130.550 Z0.750 E1.92233 F1500
G1 X102.500 Y130.550 Z0.750 E0.02105 F1500
G1 X102.500 Y89.450 Z0.750 E1.92233 F1500
G1 X102.950 Y89.450 Z0.750 E0.02105 F1500
G1 X102.950 Y130.550 Z0.750 E1.92233 F1500
G1 X103.400 Y130.550 Z0.750 E0.02105 F1500
G1 X103.400 Y89.450 Z0.750 E1.92233 F1500
G1 X103.850 Y89.450 Z0.750 E0.02105 F1500
G1 X103.850 Y130.550 Z0.750 E1.92233 F1500
G1 X104.300 Y130.550 Z0.750 E0.02105 F1500
G1 X104.300 Y89.450 Z0.750 E1.92233 F1500
G1 X104.750 Y89.450 Z0.750 E0.02105 F1500
G1 X104.750 Y130.550 Z0.750 E1.92233 F1500
G1 X105.200 Y130.550 Z0.750 E0.02105 F1500
G1 X105.200 Y89.450 Z0.750 E1.92233 F1500
G1 X105.650 Y89.450 Z0.750 E0.02105 F1500
G1 X105.650 Y130.550 Z0.750 E1.92233 F1500
G1 X106.100 Y130.550 Z0.750 E0.02105 F1500
G1 X106.100 Y89.450 Z0.750 E1.92233 F1500
G1 X106.550 Y89.450 Z0.750 E0.02105 F1500
G1 X106.550 Y130.550 Z0.750 E1.92233 F1500
G1 X107.000 Y130.550 Z0.750 E0.02105 F1500
G1 X107.000 Y89.450 Z0.750 E1.92233 F1500
G1 X107.450 Y89.450 Z0.750 E0.02105 F1500
G1 X107.450 Y130.550 Z0.750 E1.92233 F1500
G1 X107.900 Y130.550 Z0.750 E0.02105 F1500
G1 X107.900 Y89.450 Z0.750 E1.92233 F1500
G1 X108.350 Y89.450 Z0.750 E0.02105 F1500
G1 X108.350 Y130.550 Z0.750 E1.92233 F1500
G1 X108.800 Y130.550 Z0.750 E0.02105 F1500
G1 X108.800 Y89.450 Z0.750 E1.92233 F1500
G1 X109.250 Y89.450 Z0.750 E0.02105 F1500
G1 X109.250 Y130.550 Z0.750 E1.92233 F1500
G1 X109.700 Y130.550 Z0.750 E0.02105 F1500
G1 X109.700 Y89.450 Z0.750 E1.92233 F1500
G1 X110.150 Y89.450 Z0.750 E0.02105 F1500
G1 X110.150 Y130.550 Z0.750 E1.92233 F1500
G1 X110.600 Y130.550 Z0.750 E0.02105 F1500
G1 X110.600 Y89.450 Z0.750 E1.92233 F1500
G1 X111.050 Y89.450 Z0.750 E0.02105 F1500
G1 X111.050 Y130.550 Z0.750 E1.92233 F1500
G1 X111.500 Y130.550 Z0.750 E0.02105 F1500
G1 X111.500 Y89.450 Z0.750 E1.92233 F1500
G1 X111.950 Y89.450 Z0.750 E0.02105 F1500
G1 X111.950 Y130.550 Z0.750 E1.92233 F1500
G1 X112.400 Y130.550 Z0.750 E0.02105 F1500
G1 X112.400 Y89.450 Z0.750 E1.92233 F1500
G1 X112.850 Y89.450 Z0.750 E0.02105 F1500
G1 X112.850 Y130.550 Z0.750 E1.92233 F1500
G1 X113.300 Y130.550 Z0.750 E0.02105 F1500
G1 X113.300 Y89.450 Z0.750 E1.92233 F1500
G1 X113.750 Y89.450 Z0.750 E0.02105 F1500
G1 X113.750 Y130.550 Z0.750 E1.92233 F1500
G1 X114.200 Y130.550 Z0.750 E0.02105 F1500
G1 X114.200 Y89.450 Z0.750 E1.92233 F1500
G1 X114.650 Y89.450 Z0.750 E0.02105 F1500
G1 X114.650 Y130.550 Z0.750 E1.92233 F1500
G1 X115.100 Y130.550 Z0.750 E0.02105 F1500
G1 X115.100 Y89.450 Z0.750 E1.92233 F1500
G1 X115.550 Y89.450 Z0.750 E0.02105 F1500
G1 X115.550 Y130.550 Z0.750 E1.92233 F1500
G1 X116.000 Y130.550 Z0.750 E0.02105 F1500
G1 X116.000 Y89.450 Z0.750 E1.92233 F1500
G1 X116.450 Y89.450 Z0.750 E0.02105 F1500
G1 X116.450 Y130.550 Z0.750 E1.92233 F1500
G1 X116.900 Y130.550 Z0.750 E0.02105 F1500
G1 X116.900 Y89.450 Z0.750 E1.92233 F1500
G1 X117.350 Y89.450 Z0.750 E0.02105 F1500
G1 X117.350 Y130.550 Z0.750 E1.92233 F1500
G1 X117.800 Y130.550 Z0.750 E0.02105 F1500
G1 X117.800 Y89.450 Z0.750 E1.92233 F1500
G1 X118.250 Y89.450 Z0.750 E0.02105 F1500
G1 X118.250 Y130.550 Z0.750 E1.92233 F1500
G1 X118.700 Y130.550 Z0.750 E0.02105 F1500
G1 X118.700 Y89.450 Z0.750 E1.92233 F1500
G1 X119.150 Y89.450 Z0.750 E0.02105 F1500
G1 X119.150 Y130.550 Z0.750 E1.92233 F1500
G1 X119.600 Y130.550 Z0.750 E0.02105 F1500
G1 X119.600 Y89.450 Z0.750 E1.92233 F1500
G1 X120.050 Y89.450 Z0.750 E0.02105 F1500
G1 X120.050 Y130.550 Z0.750 E1.92233 F1500
G1 X120.500 Y130.550 Z0.750 E0.02105 F1500
G1 X120.500 Y89.450 Z0.750 E1.92233 F1500
G1 X120.950 Y89.450 Z0.750 E0.02105 F1500
G1 X120.950 Y130.550 Z0.750 E1.92233 F1500
G1 X121.400 Y130.550 Z0.750 E0.02105 F1500
G1 X121.400 Y89.450 Z0.750 E1.92233 F1500
G1 X121.850 Y89.450 Z0.750 E0.02105 F1500
G1 X121.850 Y130.550 Z0.750 E1.92233 F1500
G1 X122.300 Y130.550 Z0.750 E0.02105 F1500
G1 X122.300 Y89.450 Z0.750 E1.92233 F1500
G1 X122.750 Y89.450 Z0.750 E0.02105 F1500
G1 X122.750 Y130.550 Z0.750 E1.92233 F1500
G1 X123.200 Y130.550 Z0.750 E0.02105 F1500
G1 X123.200 Y89.450 Z0.750 E1.92233 F1500
G1 X123.650 Y89.450 Z0.750 E0.02105 F1500
G1 X123.650 Y130.550 Z0.750 E1.92233 F1500
G1 X124.100 Y130.550 Z0.750 E0.02105 F1500
G1 X124.100 Y89.450 Z0.750 E1.92233 F1500
G1 X124.550 Y89.450 Z0.750 E0.02105 F1500
G1 X124.550 Y130.550 Z0.750 E1.92233 F1500
G1 X125.000 Y130.550 Z0.750 E0.02105 F1500
G1 X125.000 Y89.450 Z0.750 E1.92233 F1500
G1 X125.450 Y89.450 Z0.750 E0.02105 F1500
G1 X125.450 Y130.550 Z0.750 E1.92233 F1500
G1 X125.900 Y130.550 Z0.750 E0.02105 F1500
G1 X125.900 Y89.450 Z0.750 E1.92233 F1500
G1 X126.350 Y89.450 Z0.750 E0.02105 F1500
G1 X126.350 Y130.550 Z0.750 E1.92233 F1500
G1 X126.800 Y130.550 Z0.750 E0.02105 F1500
G1 X126.800 Y89.450 Z0.750 E1.92233 F1500
G1 X127.250 Y89.450 Z0.750 E0.02105 F1500
G1 X127.250 Y130.550 Z0.750 E1.92233 F1500
G1 X127.700 Y130.550 Z0.750 E0.02105 F1500
G1 X127.700 Y89.450 Z0.750 E1.92233 F1500
G1 X128.150 Y89.450 Z0.750 E0.02105 F1500
G1 X128.150 Y130.550 Z0.750 E1.92233 F1500
G1 X128.600 Y130.550 Z0.750 E0.02105 F1500
G1 X128.600 Y89.450 Z0.750 E1.92233 F1500
G1 X129.050 Y89.450 Z0.750 E0.02105 F1500
G1 X129.050 Y130.550 Z0.750 E1.92233 F1500
G1 X129.500 Y130.550 Z0.750 E0.02105 F1500
G1 X129.500 Y89.450 Z0.750 E1.92233 F1500
G1 X129.950 Y89.450 Z0.750 E0.02105 F1500
G1 X129.950 Y130.550 Z0.750 E1.92233 F1500
G1 X130.400 Y130.550 Z0.750 E0.02105 F1500
G1 X130.400 Y89.450 Z0.750 E1.92233 F1500
; WIRE PRINTING
M106 S255 ; full fan for wires
; LEVEL 1/10  z 0.75 -> 5.25
G1 E-0.800 F2400
G0 X130.400 Y89.450 Z1.750 F1800
G0 X92.000 Y92.000 Z1.750 F7200
G0 X92.000 Y92.000 Z0.750 F1800
G1 E0.800 F1800
G1 E0.1500 F120
G4 P300
G1 X92.000 Y92.000 Z5.550 E0.39184 F180
G4 P800
G0 X92.000 Y92.000 Z5.250 F180
G1 X104.000 Y92.000 Z0.750 E0.94158 F360
G1 E0.1500 F120
G4 P300
G1 X104.000 Y92.000 Z5.550 E0.39184 F180
G4 P800
G0 X104.000 Y92.000 Z5.250 F180
G1 X116.000 Y92.000 Z0.750 E0.94158 F360
G1 E0.1500 F120
G4 P300
G1 X116.000 Y92.000 Z5.550 E0.39184 F180
G4 P800
G0 X116.000 Y92.000 Z5.250 F180
G1 X128.000 Y92.000 Z0.750 E0.94158 F360
G1 E0.1500 F120
G4 P300
G1 X128.000 Y92.000 Z5.550 E0.39184 F180
G4 P800
G0 X128.000 Y92.000 Z5.250 F180
G1 X128.000 Y104.000 Z0.750 E0.94158 F360
G1 E0.1500 F120
G4 P300
G1 X128.000 Y104.000 Z5.550 E0.39184 F180
G4 P800
G0 X128.000 Y104.000 Z5.250 F180
G1 X116.000 Y104.000 Z0.750 E0.94158 F360
G1 E0.1500 F120
G4 P300
G1 X116.000 Y104.000 Z5.550 E0.39184 F180
G4 P800
G0 X116.000 Y104.000 Z5.250 F180
G1 X104.000 Y104.000 Z0.750 E0.94158 F360
G1 E0.1500 F120
G4 P300
G1 X104.000 Y104.000 Z5.550 E0.39184 F180
G4 P800
G0 X104.000 Y104.000 Z5.250 F180
G1 X92.000 Y104.000 Z0.750 E0.94158 F360
G1 E0.1500 F120
G4 P300
G1 X92.000 Y104.000 Z5.550 E0.39184 F180
G4 P800
G0 X92.000 Y104.000 Z5.250 F180
G1 X92.000 Y116.000 Z0.750 E0.94158 F360
G1 E0.1500 F120
G4 P300
G1 X92.000 Y116.000 Z5.550 E0.39184 F180
G4 P800
G0 X92.000 Y116.000 Z5.250 F180
G1 X104.000 Y116.000 Z0.750 E0.94158 F360
G1 E0.1500 F120
G4 P300
G1 X104.000 Y116.000 Z5.550 E0.39184 F180
G4 P800
G0 X104.000 Y116.000 Z5.250 F180
G1 X116.000 Y116.000 Z0.750 E0.94158 F360
G1 E0.1500 F120
G4 P300
G1 X116.000 Y116.000 Z5.550 E0.39184 F180
G4 P800
G0 X116.000 Y116.000 Z5.250 F180
G1 X128.000 Y116.000 Z0.750 E0.94158 F360
G1 E0.1500 F120
G4 P300
G1 X128.000 Y116.000 Z5.550 E0.39184 F180
G4 P800
G0 X128.000 Y116.000 Z5.250 F180
G1 X128.000 Y128.000 Z0.750 E0.94158 F360
G1 E0.1500 F120
G4 P300
G1 X128.000 Y128.000 Z5.550 E0.39184 F180
G4 P800
G0 X128.000 Y128.000 Z5.250 F180
G1 X116.000 Y128.000 Z0.750 E0.94158 F360
G1 E0.1500 F120
G4 P300
G1 X116.000 Y128.000 Z5.550 E0.39184 F180
G4 P800
G0 X116.000 Y128.000 Z5.250 F180
G1 X104.000 Y128.000 Z0.750 E0.94158 F360
G1 E0.1500 F120
G4 P300
G1 X104.000 Y128.000 Z5.550 E0.39184 F180
G4 P800
G0 X104.000 Y128.000 Z5.250 F180
G1 X92.000 Y128.000 Z0.750 E0.94158 F360
G1 E0.1500 F120
G4 P300
G1 X92.000 Y128.000 Z5.550 E0.39184 F180
G4 P800
G0 X92.000 Y128.000 Z5.250 F180
G1 E0.1500 F120
G4 P300
G1 X104.000 Y128.000 Z5.250 E0.97959 F360
G1 E0.0750 F120
G4 P300
G1 X116.000 Y128.000 Z5.250 E0.97959 F360
G1 E0.0750 F120
G4 P300
G1 X128.000 Y128.000 Z5.250 E0.97959 F360
G1 E0.0750 F120
G4 P300
G1 E-0.800 F2400
G0 X128.000 Y128.000 Z6.250 F1800
G0 X128.000 Y116.000 Z6.250 F7200
G0 X128.000 Y116.000 Z5.250 F1800
G1 E0.800 F1800
G1 E0.1500 F120
G4 P300
G1 X116.000 Y116.000 Z5.250 E0.97959 F360
G1 E0.0750 F120
G4 P300
G1 X104.000 Y116.000 Z5.250 E0.97959 F360
G1 E0.0750 F120
G4 P300
G1 X92.000 Y116.000 Z5.250 E0.97959 F360
G1 E0.0750 F120
G4 P300
G1 E-0.800 F2400
G0 X92.000 Y116.000 Z6.250 F1800
G0 X92.000 Y104.000 Z6.250 F7200
G0 X92.000 Y104.000 Z5.250 F1800
G1 E0.800 F1800
G1 E0.1500 F120
G4 P300
G1 X104.000 Y104.000 Z5.250 E0.97959 F360
G1 E0.0750 F120
G4 P300
G1 X116.000 Y104.000 Z5.250 E0.97959 F360
G1 E0.0750 F120
G4 P300
G1 X128.000 Y104.000 Z5.250 E0.97959 F360
G1 E0.0750 F120
G4 P300
G1 E-0.800 F2400
G0 X128.000 Y104.000 Z6.250 F1800
G0 X128.000 Y92.000 Z6.250 F7200
G0 X128.000 Y92.000 Z5.250 F1800
G1 E0.800 F1800
G1 E0.1500 F120
G4 P300
G1 X116.000 Y92.000 Z5.250 E0.97959 F360
G1 E0.0750 F120
G4 P300
G1 X104.000 Y92.000 Z5.250 E0.97959 F360
G1 E0.0750 F120
G4 P300
G1 X92.000 Y92.000 Z5.250 E0.97959 F360
G1 E0.0750 F120
G4 P300
G1 E0.1500 F120
G4 P300
G1 X92.000 Y104.000 Z5.250 E0.97959 F360
G1 E0.0750 F120
G4 P300
G1 X92.000 Y116.000 Z5.250 E0.97959 F360
G1 E0.0750 F120
G4 P300
G1 X92.000 Y128.000 Z5.250 E0.97959 F360
G1 E0.0750 F120
G4 P300
G1 E-0.800 F2400
G0 X92.000 Y128.000 Z6.250 F1800
G0 X104.000 Y128.000 Z6.250 F7200
G0 X104.000 Y128.000 Z5.250 F1800
G1 E0.800 F1800
G1 E0.1500 F120
G4 P300
G1 X104.000 Y116.000 Z5.250 E0.97959 F360
G1 E0.0750 F120
G4 P300
G1 X104.000 Y104.000 Z5.250 E0.97959 F360
G1 E0.0750 F120
G4 P300
G1 X104.000 Y92.000 Z5.250 E0.97959 F360
G1 E0.0750 F120
G4 P300
G1 E-0.800 F2400
G0 X104.000 Y92.000 Z6.250 F1800
G0 X116.000 Y92.000 Z6.250 F7200
G0 X116.000 Y92.000 Z5.250 F1800
G1 E0.800 F1800
G1 E0.1500 F120
G4 P300
G1 X116.000 Y104.000 Z5.250 E0.97959 F360
G1 E0.0750 F120
G4 P300
G1 X116.000 Y116.000 Z5.250 E0.97959 F360
G1 E0.0750 F120
G4 P300
G1 X116.000 Y128.000 Z5.250 E0.97959 F360
G1 E0.0750 F120
G4 P300
G1 E-0.800 F2400
G0 X116.000 Y128.000 Z6.250 F1800
G0 X128.000 Y128.000 Z6.250 F7200
G0 X128.000 Y128.000 Z5.250 F1800
G1 E0.800 F1800
G1 E0.1500 F120
G4 P300
G1 X128.000 Y116.000 Z5.250 E0.97959 F360
G1 E0.0750 F120
G4 P300
G1 X128.000 Y104.000 Z5.250 E0.97959 F360
G1 E0.0750 F120
G4 P300
G1 X128.000 Y92.000 Z5.250 E0.97959 F360
G1 E0.0750 F120
G4 P300
G1 E-0.800 F2400
; LEVEL 2/10  z 5.25 -> 9.75
G0 X128.000 Y92.000 Z6.250 F1800
G0 X92.000 Y92.000 Z6.250 F7200
G0 X92.000 Y92.000 Z5.250 F1800
G1 E0.800 F1800
G1 E0.1500 F120
G4 P300
G1 X92.000 Y92.000 Z10.050 E0.39184 F180
G4 P800
G0 X92.000 Y92.000 Z9.750 F180
G1 X104.000 Y92.000 Z5.250 E0.94158 F360
G1 E0.1500 F120
G4 P300
G1 X104.000 Y92.000 Z10.050 E0.39184 F180
G4 P800
G0 X104.000 Y92.000 Z9.750 F180
G1 X116.000 Y92.000 Z5.250 E0.94158 F360
G1 E0.1500 F120
G4 P300
G1 X116.000 Y92.000 Z10.050 E0.39184 F180
G4 P800
G0 X116.000 Y92.000 Z9.750 F180
G1 X128.000 Y92.000 Z5.250 E0.94158 F360
G1 E0.1500 F120
G4 P300
G1 X128.000 Y92.000 Z10.050 E0.39184 F180
G4 P800
G0 X128.000 Y92.000 Z9.750 F180
G1 X128.000 Y104.000 Z5.250 E0.94158 F360
G1 E0.1500 F120
G4 P300
G1 X128.000 Y104.000 Z10.050 E0.39184 F180
G4 P800
G0 X128.000 Y104.000 Z9.750 F180
G1 X116.000 Y104.000 Z5.250 E0.94158 F360
G1 E0.1500 F120
G4 P300
G1 X116.000 Y104.000 Z10.050 E0.39184 F180
G4 P800
G0 X116.000 Y104.000 Z9.750 F180
G1 X104.000 Y104.000 Z5.250 E0.94158 F360
G1 E0.1500 F120
G4 P300
G1 X104.000 Y104.000 Z10.050 E0.39184 F180
G4 P800
G0 X104.000 Y104.000 Z9.750 F180
G1 X92.000 Y104.000 Z5.250 E0.94158 F360
G1 E0.1500 F120
G4 P300
G1 X92.000 Y104.000 Z10.050 E0.39184 F180
G4 P800
G0 X92.000 Y104.000 Z9.750 F180
G1 X92.000 Y116.000 Z5.250 E0.94158 F360
G1 E0.1500 F120
G4 P300
G1 X92.000 Y116.000 Z10.050 E0.39184 F180
G4 P800
G0 X92.000 Y116.000 Z9.750 F180
G1 X104.000 Y116.000 Z5.250 E0.94158 F360
G1 E0.1500 F120
G4 P300
G1 X104.000 Y116.000 Z10.050 E0.39184 F180
G4 P800
G0 X104.000 Y116.000 Z9.750 F180
G1 X116.000 Y116.000 Z5.250 E0.94158 F360
G1 E0.1500 F120
G4 P300
G1 X116.000 Y116.000 Z10.050 E0.39184 F180
G4 P800
G0 X116.000 Y116.000 Z9.750 F180
G1 X128.000 Y116.000 Z5.250 E0.94158 F360
G1 E0.1500 F120
G4 P300
G1 X128.000 Y116.000 Z10.050 E0.39184 F180
G4 P800
G0 X128.000 Y116.000 Z9.750 F180
G1 X128.000 Y128.000 Z5.250 E0.94158 F360
G1 E0.1500 F120
G4 P300
G1 X128.000 Y128.000 Z10.050 E0.39184 F180
G4 P800
G0 X128.000 Y128.000 Z9.750 F180
G1 X116.000 Y128.000 Z5.250 E0.94158 F360
G1 E0.1500 F120
G4 P300
G1 X116.000 Y128.000 Z10.050 E0.39184 F180
G4 P800
G0 X116.000 Y128.000 Z9.750 F180
G1 X104.000 Y128.000 Z5.250 E0.94158 F360
G1 E0.1500 F120
G4 P300
G1 X104.000 Y128.000 Z10.050 E0.39184 F180
G4 P800
G0 X104.000 Y128.000 Z9.750 F180
G1 X92.000 Y128.000 Z5.250 E0.94158 F360
G1 E0.1500 F120
G4 P300
G1 X92.000 Y128.000 Z10.050 E0.39184 F180
G4 P800
G0 X92.000 Y128.000 Z9.750 F180
G1 E0.1500 F120
G4 P300
G1 X104.000 Y128.000 Z9.750 E0.97959 F360
G1 E0.0750 F120
G4 P300
G1 X116.000 Y128.000 Z9.750 E0.97959 F360
G1 E0.0750 F120
G4 P300
G1 X128.000 Y128.000 Z9.750 E0.97959 F360
G1 E0.0750 F120
G4 P300
G1 E-0.800 F2400
G0 X128.000 Y128.000 Z10.750 F1800
G0 X128.000 Y116.000 Z10.750 F7200
G0 X128.000 Y116.000 Z9.750 F1800
G1 E0.800 F1800
G1 E0.1500 F120
G4 P300
G1 X116.000 Y116.000 Z9.750 E0.97959 F360
G1 E0.0750 F120
G4 P300
G1 X104.000 Y116.000 Z9.750 E0.97959 F360
G1 E0.0750 F120
G4 P300
G1 X92.000 Y116.000 Z9.750 E0.97959 F360
G1 E0.0750 F120
G4 P300
G1 E-0.800 F2400
G0 X92.000 Y116.000 Z10.750 F1800
G0 X92.000 Y104.000 Z10.750 F7200
G0 X92.000 Y104.000 Z9.750 F1800
G1 E0.800 F1800
G1 E0.1500 F120
G4 P300
G1 X104.000 Y104.000 Z9.750 E0.97959 F360
G1 E0.0750 F120
G4 P300
G1 X116.000 Y104.000 Z9.750 E0.97959 F360
G1 E0.0750 F120
G4 P300
G1 X128.000 Y104.000 Z9.750 E0.97959 F360
G1 E0.0750 F120
G4 P300
G1 E-0.800 F2400
G0 X128.000 Y104.000 Z10.750 F1800
G0 X128.000 Y92.000 Z10.750 F7200
G0 X128.000 Y92.000 Z9.750 F1800
G1 E0.800 F1800
G1 E0.1500 F120
G4 P300
G1 X116.000 Y92.000 Z9.750 E0.97959 F360
G1 E0.0750 F120
G4 P300
G1 X104.000 Y92.000 Z9.750 E0.97959 F360
G1 E0.0750 F120
G4 P300
G1 X92.000 Y92.000 Z9.750 E0.97959 F360
G1 E0.0750 F120
G4 P300
G1 E0.1500 F120
G4 P300
G1 X92.000 Y104.000 Z9.750 E0.97959 F360
G1 E0.0750 F120
G4 P300
G1 X92.000 Y116.000 Z9.750 E0.97959 F360
G1 E0.0750 F120
G4 P300
G1 X92.000 Y128.000 Z9.750 E0.97959 F360
G1 E0.0750 F120
G4 P300
G1 E-0.800 F2400
G0 X92.000 Y128.000 Z10.750 F1800
G0 X104.000 Y128.000 Z10.750 F7200
G0 X104.000 Y128.000 Z9.750 F1800
G1 E0.800 F1800
G1 E0.1500 F120
G4 P300
G1 X104.000 Y116.000 Z9.750 E0.97959 F360
G1 E0.0750 F120
G4 P300
G1 X104.000 Y104.000 Z9.750 E0.97959 F360
G1 E0.0750 F120
G4 P300
G1 X104.000 Y92.000 Z9.750 E0.97959 F360
G1 E0.0750 F120
G4 P300
G1 E-0.800 F2400
G0 X104.000 Y92.000 Z10.750 F1800
G0 X116.000 Y92.000 Z10.750 F7200
G0 X116.000 Y92.000 Z9.750 F1800
G1 E0.800 F1800
G1 E0.1500 F120
G4 P300
G1 X116.000 Y104.000 Z9.750 E0.97959 F360
G1 E0.0750 F120
G4 P300
G1 X116.000 Y116.000 Z9.750 E0.97959 F360
G1 E0.0750 F120
G4 P300
G1 X116.000 Y128.000 Z9.750 E0.97959 F360
G1 E0.0750 F120
G4 P300
G1 E-0.800 F2400
G0 X116.000 Y128.000 Z10.750 F1800
G0 X128.000 Y128.000 Z10.750 F7200
G0 X128.000 Y128.000 Z9.750 F1800
G1 E0.800 F1800
G1 E0.1500 F120
G4 P300
G1 X128.000 Y116.000 Z9.750 E0.97959 F360
G1 E0.0750 F120
G4 P300
G1 X128.000 Y104.000 Z9.750 E0.97959 F360
G1 E0.0750 F120
G4 P300
G1 X128.000 Y92.000 Z9.750 E0.97959 F360
G1 E0.0750 F120
G4 P300
G1 E-0.800 F2400
; LEVEL 3/10  z 9.75 -> 14.25
G0 X128.000 Y92.000 Z10.750 F1800
G0 X92.000 Y92.000 Z10.750 F7200
G0 X92.000 Y92.000 Z9.750 F1800
G1 E0.800 F1800
G1 E0.1500 F120
G4 P300
G1 X92.000 Y92.000 Z14.550 E0.39184 F180
G4 P800
G0 X92.000 Y92.000 Z14.250 F180
G1 X104.000 Y92.000 Z9.750 E0.94158 F360
G1 E0.1500 F120
G4 P300
G1 X104.000 Y92.000 Z14.550 E0.39184 F180
G4 P800
G0 X104.000 Y92.000 Z14.250 F180
G1 X116.000 Y92.000 Z9.750 E0.94158 F360
G1 E0.1500 F120
G4 P300
G1 X116.000 Y92.000 Z14.550 E0.39184 F180
G4 P800
G0 X116.000 Y92.000 Z14.250 F180
G1 X128.000 Y92.000 Z9.750 E0.94158 F360
G1 E0.1500 F120
G4 P300
G1 X128.000 Y92.000 Z14.550 E0.39184 F180
G4 P800
G0 X128.000 Y92.000 Z14.250 F180
G1 X128.000 Y104.000 Z9.750 E0.94158 F360
G1 E0.1500 F120
G4 P300
G1 X128.000 Y104.000 Z14.550 E0.39184 F180
G4 P800
G0 X128.000 Y104.000 Z14.250 F180
G1 X116.000 Y104.000 Z9.750 E0.94158 F360
G1 E0.1500 F120
G4 P300
G1 X116.000 Y104.000 Z14.550 E0.39184 F180
G4 P800
G0 X116.000 Y104.000 Z14.250 F180
G1 X104.000 Y104.000 Z9.750 E0.94158 F360
G1 E0.1500 F120
G4 P300
G1 X104.000 Y104.000 Z14.550 E0.39184 F180
G4 P800
G0 X104.000 Y104.000 Z14.250 F180
G1 X92.000 Y104.000 Z9.750 E0.94158 F360
G1 E0.1500 F120
G4 P300
G1 X92.000 Y104.000 Z14.550 E0.39184 F180
G4 P800
G0 X92.000 Y104.000 Z14.250 F180
G1 X92.000 Y116.000 Z9.750 E0.94158 F360
G1 E0.1500 F120
G4 P300
G1 X92.000 Y116.000 Z14.550 E0.39184 F180
G4 P800
G0 X92.000 Y116.000 Z14.250 F180
G1 X104.000 Y116.000 Z9.750 E0.94158 F360
G1 E0.1500 F120
G4 P300
G1 X104.000 Y116.000 Z14.550 E0.39184 F180
G4 P800
G0 X104.000 Y116.000 Z14.250 F180
G1 X116.000 Y116.000 Z9.750 E0.94158 F360
G1 E0.1500 F120
G4 P300
G1 X116.000 Y116.000 Z14.550 E0.39184 F180
G4 P800
G0 X116.000 Y116.000 Z14.250 F180
G1 X128.000 Y116.000 Z9.750 E0.94158 F360
G1 E0.1500 F120
G4 P300
G1 X128.000 Y116.000 Z14.550 E0.39184 F180
G4 P800
G0 X128.000 Y116.000 Z14.250 F180
G1 X128.000 Y128.000 Z9.750 E0.94158 F360
G1 E0.1500 F120
G4 P300
G1 X128.000 Y128.000 Z14.550 E0.39184 F180
G4 P800
G0 X128.000 Y128.000 Z14.250 F180
G1 X116.000 Y128.000 Z9.750 E0.94158 F360
G1 E0.1500 F120
G4 P300
G1 X116.000 Y128.000 Z14.550 E0.39184 F180
G4 P800
G0 X116.000 Y128.000 Z14.250 F180
G1 X104.000 Y128.000 Z9.750 E0.94158 F360
G1 E0.1500 F120
G4 P300
G1 X104.000 Y128.000 Z14.550 E0.39184 F180
G4 P800
G0 X104.000 Y128.000 Z14.250 F180
G1 X92.000 Y128.000 Z9.750 E0.94158 F360
G1 E0.1500 F120
G4 P300
G1 X92.000 Y128.000 Z14.550 E0.39184 F180
G4 P800
G0 X92.000 Y128.000 Z14.250 F180
G1 E0.1500 F120
G4 P300
G1 X104.000 Y128.000 Z14.250 E0.97959 F360
G1 E0.0750 F120
G4 P300
G1 X116.000 Y128.000 Z14.250 E0.97959 F360
G1 E0.0750 F120
G4 P300
G1 X128.000 Y128.000 Z14.250 E0.97959 F360
G1 E0.0750 F120
G4 P300
G1 E-0.800 F2400
G0 X128.000 Y128.000 Z15.250 F1800
G0 X128.000 Y116.000 Z15.250 F7200
G0 X128.000 Y116.000 Z14.250 F1800
G1 E0.800 F1800
G1 E0.1500 F120
G4 P300
G1 X116.000 Y116.000 Z14.250 E0.97959 F360
G1 E0.0750 F120
G4 P300
G1 X104.000 Y116.000 Z14.250 E0.97959 F360
G1 E0.0750 F120
G4 P300
G1 X92.000 Y116.000 Z14.250 E0.97959 F360
G1 E0.0750 F120
G4 P300
G1 E-0.800 F2400
G0 X92.000 Y116.000 Z15.250 F1800
G0 X92.000 Y104.000 Z15.250 F7200
G0 X92.000 Y104.000 Z14.250 F1800
G1 E0.800 F1800
G1 E0.1500 F120
G4 P300
G1 X104.000 Y104.000 Z14.250 E0.97959 F360
G1 E0.0750 F120
G4 P300
G1 X116.000 Y104.000 Z14.250 E0.97959 F360
G1 E0.0750 F120
G4 P300
G1 X128.000 Y104.000 Z14.250 E0.97959 F360
G1 E0.0750 F120
G4 P300
G1 E-0.800 F2400
G0 X128.000 Y104.000 Z15.250 F1800
G0 X128.000 Y92.000 Z15.250 F7200
G0 X128.000 Y92.000 Z14.250 F1800
G1 E0.800 F1800
G1 E0.1500 F120
G4 P300
G1 X116.000 Y92.000 Z14.250 E0.97959 F360
G1 E0.0750 F120
G4 P300
G1 X104.000 Y92.000 Z14.250 E0.97959 F360
G1 E0.0750 F120
G4 P300
G1 X92.000 Y92.000 Z14.250 E0.97959 F360
G1 E0.0750 F120
G4 P300
G1 E0.1500 F120
G4 P300
G1 X92.000 Y104.000 Z14.250 E0.97959 F360
G1 E0.0750 F120
G4 P300
G1 X92.000 Y116.000 Z14.250 E0.97959 F360
G1 E0.0750 F120
G4 P300
G1 X92.000 Y128.000 Z14.250 E0.97959 F360
G1 E0.0750 F120
G4 P300
G1 E-0.800 F2400
G0 X92.000 Y128.000 Z15.250 F1800
G0 X104.000 Y128.000 Z15.250 F7200
G0 X104.000 Y128.000 Z14.250 F1800
G1 E0.800 F1800
G1 E0.1500 F120
G4 P300
G1 X104.000 Y116.000 Z14.250 E0.97959 F360
G1 E0.0750 F120
G4 P300
G1 X104.000 Y104.000 Z14.250 E0.97959 F360
G1 E0.0750 F120
G4 P300
G1 X104.000 Y92.000 Z14.250 E0.97959 F360
G1 E0.0750 F120
G4 P300
G1 E-0.800 F2400
G0 X104.000 Y92.000 Z15.250 F1800
G0 X116.000 Y92.000 Z15.250 F7200
G0 X116.000 Y92.000 Z14.250 F1800
G1 E0.800 F1800
G1 E0.1500 F120
G4 P300
G1 X116.000 Y104.000 Z14.250 E0.97959 F360
G1 E0.0750 F120
G4 P300
G1 X116.000 Y116.000 Z14.250 E0.97959 F360
G1 E0.0750 F120
G4 P300
G1 X116.000 Y128.000 Z14.250 E0.97959 F360
G1 E0.0750 F120
G4 P300
G1 E-0.800 F2400
G0 X116.000 Y128.000 Z15.250 F1800
G0 X128.000 Y128.000 Z15.250 F7200
G0 X128.000 Y128.000 Z14.250 F1800
G1 E0.800 F1800
G1 E0.1500 F120
G4 P300
G1 X128.000 Y116.000 Z14.250 E0.97959 F360
G1 E0.0750 F120
G4 P300
G1 X128.000 Y104.000 Z14.250 E0.97959 F360
G1 E0.0750 F120
G4 P300
G1 X128.000 Y92.000 Z14.250 E0.97959 F360
G1 E0.0750 F120
G4 P300
G1 E-0.800 F2400
; LEVEL 4/10  z 14.25 -> 18.75
G0 X128.000 Y92.000 Z15.250 F1800
G0 X92.000 Y92.000 Z15.250 F7200
G0 X92.000 Y92.000 Z14.250 F1800
G1 E0.800 F1800
G1 E0.1500 F120
G4 P300
G1 X92.000 Y92.000 Z19.050 E0.39184 F180
G4 P800
G0 X92.000 Y92.000 Z18.750 F180
G1 X104.000 Y92.000 Z14.250 E0.94158 F360
G1 E0.1500 F120
G4 P300
G1 X104.000 Y92.000 Z19.050 E0.39184 F180
G4 P800
G0 X104.000 Y92.000 Z18.750 F180
G1 X116.000 Y92.000 Z14.250 E0.94158 F360
G1 E0.1500 F120
G4 P300
G1 X116.000 Y92.000 Z19.050 E0.39184 F180
G4 P800
G0 X116.000 Y92.000 Z18.750 F180
G1 X128.000 Y92.000 Z14.250 E0.94158 F360
G1 E0.1500 F120
G4 P300
G1 X128.000 Y92.000 Z19.050 E0.39184 F180
G4 P800
G0 X128.000 Y92.000 Z18.750 F180
G1 X128.000 Y104.000 Z14.250 E0.94158 F360
G1 E0.1500 F120
G4 P300
G1 X128.000 Y104.000 Z19.050 E0.39184 F180
G4 P800
G0 X128.000 Y104.000 Z18.750 F180
G1 X116.000 Y104.000 Z14.250 E0.94158 F360
G1 E0.1500 F120
G4 P300
G1 X116.000 Y104.000 Z19.050 E0.39184 F180
G4 P800
G0 X116.000 Y104.000 Z18.750 F180
G1 X104.000 Y104.000 Z14.250 E0.94158 F360
G1 E0.1500 F120
G4 P300
G1 X104.000 Y104.000 Z19.050 E0.39184 F180
G4 P800
G0 X104.000 Y104.000 Z18.750 F180
G1 X92.000 Y104.000 Z14.250 E0.94158 F360
G1 E0.1500 F120
G4 P300
G1 X92.000 Y104.000 Z19.050 E0.39184 F180
G4 P800
G0 X92.000 Y104.000 Z18.750 F180
G1 X92.000 Y116.000 Z14.250 E0.94158 F360
G1 E0.1500 F120
G4 P300
G1 X92.000 Y116.000 Z19.050 E0.39184 F180
G4 P800
G0 X92.000 Y116.000 Z18.750 F180
G1 X104.000 Y116.000 Z14.250 E0.94158 F360
G1 E0.1500 F120
G4 P300
G1 X104.000 Y116.000 Z19.050 E0.39184 F180
G4 P800
G0 X104.000 Y116.000 Z18.750 F180
G1 X116.000 Y116.000 Z14.250 E0.94158 F360
G1 E0.1500 F120
G4 P300
G1 X116.000 Y116.000 Z19.050 E0.39184 F180
G4 P800
G0 X116.000 Y116.000 Z18.750 F180
G1 X128.000 Y116.000 Z14.250 E0.94158 F360
G1 E0.1500 F120
G4 P300
G1 X128.000 Y116.000 Z19.050 E0.39184 F180
G4 P800
G0 X128.000 Y116.000 Z18.750 F180
G1 X128.000 Y128.000 Z14.250 E0.94158 F360
G1 E0.1500 F120
G4 P300
G1 X128.000 Y128.000 Z19.050 E0.39184 F180
G4 P800
G0 X128.000 Y128.000 Z18.750 F180
G1 X116.000 Y128.000 Z14.250 E0.94158 F360
G1 E0.1500 F120
G4 P300
G1 X116.000 Y128.000 Z19.050 E0.39184 F180
G4 P800
G0 X116.000 Y128.000 Z18.750 F180
G1 X104.000 Y128.000 Z14.250 E0.94158 F360
G1 E0.1500 F120
G4 P300
G1 X104.000 Y128.000 Z19.050 E0.39184 F180
G4 P800
G0 X104.000 Y128.000 Z18.750 F180
G1 X92.000 Y128.000 Z14.250 E0.94158 F360
G1 E0.1500 F120
G4 P300
G1 X92.000 Y128.000 Z19.050 E0.39184 F180
G4 P800
G0 X92.000 Y128.000 Z18.750 F180
G1 E0.1500 F120
G4 P300
G1 X104.000 Y128.000 Z18.750 E0.97959 F360
G1 E0.0750 F120
G4 P300
G1 X116.000 Y128.000 Z18.750 E0.97959 F360
G1 E0.0750 F120
G4 P300
G1 X128.000 Y128.000 Z18.750 E0.97959 F360
G1 E0.0750 F120
G4 P300
G1 E-0.800 F2400
G0 X128.000 Y128.000 Z19.750 F1800
G0 X128.000 Y116.000 Z19.750 F7200
G0 X128.000 Y116.000 Z18.750 F1800
G1 E0.800 F1800
G1 E0.1500 F120
G4 P300
G1 X116.000 Y116.000 Z18.750 E0.97959 F360
G1 E0.0750 F120
G4 P300
G1 X104.000 Y116.000 Z18.750 E0.97959 F360
G1 E0.0750 F120
G4 P300
G1 X92.000 Y116.000 Z18.750 E0.97959 F360
G1 E0.0750 F120
G4 P300
G1 E-0.800 F2400
G0 X92.000 Y116.000 Z19.750 F1800
G0 X92.000 Y104.000 Z19.750 F7200
G0 X92.000 Y104.000 Z18.750 F1800
G1 E0.800 F1800
G1 E0.1500 F120
G4 P300
G1 X104.000 Y104.000 Z18.750 E0.97959 F360
G1 E0.0750 F120
G4 P300
G1 X116.000 Y104.000 Z18.750 E0.97959 F360
G1 E0.0750 F120
G4 P300
G1 X128.000 Y104.000 Z18.750 E0.97959 F360
G1 E0.0750 F120
G4 P300
G1 E-0.800 F2400
G0 X128.000 Y104.000 Z19.750 F1800
G0 X128.000 Y92.000 Z19.750 F7200
G0 X128.000 Y92.000 Z18.750 F1800
G1 E0.800 F1800
G1 E0.1500 F120
G4 P300
G1 X116.000 Y92.000 Z18.750 E0.97959 F360
G1 E0.0750 F120
G4 P300
G1 X104.000 Y92.000 Z18.750 E0.97959 F360
G1 E0.0750 F120
G4 P300
G1 X92.000 Y92.000 Z18.750 E0.97959 F360
G1 E0.0750 F120
G4 P300
G1 E0.1500 F120
G4 P300
G1 X92.000 Y104.000 Z18.750 E0.97959 F360
G1 E0.0750 F120
G4 P300
G1 X92.000 Y116.000 Z18.750 E0.97959 F360
G1 E0.0750 F120
G4 P300
G1 X92.000 Y128.000 Z18.750 E0.97959 F360
G1 E0.0750 F120
G4 P300
G1 E-0.800 F2400
G0 X92.000 Y128.000 Z19.750 F1800
G0 X104.000 Y128.000 Z19.750 F7200
G0 X104.000 Y128.000 Z18.750 F1800
G1 E0.800 F1800
G1 E0.1500 F120
G4 P300
G1 X104.000 Y116.000 Z18.750 E0.97959 F360
G1 E0.0750 F120
G4 P300
G1 X104.000 Y104.000 Z18.750 E0.97959 F360
G1 E0.0750 F120
G4 P300
G1 X104.000 Y92.000 Z18.750 E0.97959 F360
G1 E0.0750 F120
G4 P300
G1 E-0.800 F2400
G0 X104.000 Y92.000 Z19.750 F1800
G0 X116.000 Y92.000 Z19.750 F7200
G0 X116.000 Y92.000 Z18.750 F1800
G1 E0.800 F1800
G1 E0.1500 F120
G4 P300
G1 X116.000 Y104.000 Z18.750 E0.97959 F360
G1 E0.0750 F120
G4 P300
G1 X116.000 Y116.000 Z18.750 E0.97959 F360
G1 E0.0750 F120
G4 P300
G1 X116.000 Y128.000 Z18.750 E0.97959 F360
G1 E0.0750 F120
G4 P300
G1 E-0.800 F2400
G0 X116.000 Y128.000 Z19.750 F1800
G0 X128.000 Y128.000 Z19.750 F7200
G0 X128.000 Y128.000 Z18.750 F1800
G1 E0.800 F1800
G1 E0.1500 F120
G4 P300
G1 X128.000 Y116.000 Z18.750 E0.97959 F360
G1 E0.0750 F120
G4 P300
G1 X128.000 Y104.000 Z18.750 E0.97959 F360
G1 E0.0750 F120
G4 P300
G1 X128.000 Y92.000 Z18.750 E0.97959 F360
G1 E0.0750 F120
G4 P300
G1 E-0.800 F2400
; LEVEL 5/10  z 18.75 -> 23.25
G0 X128.000 Y92.000 Z19.750 F1800
G0 X92.000 Y92.000 Z19.750 F7200
G0 X92.000 Y92.000 Z18.750 F1800
G1 E0.800 F1800
G1 E0.1500 F120
G4 P300
G1 X92.000 Y92.000 Z23.550 E0.39184 F180
G4 P800
G0 X92.000 Y92.000 Z23.250 F180
G1 X104.000 Y92.000 Z18.750 E0.94158 F360
G1 E0.1500 F120
G4 P300
G1 X104.000 Y92.000 Z23.550 E0.39184 F180
G4 P800
G0 X104.000 Y92.000 Z23.250 F180
G1 X116.000 Y92.000 Z18.750 E0.94158 F360
G1 E0.1500 F120
G4 P300
G1 X116.000 Y92.000 Z23.550 E0.39184 F180
G4 P800
G0 X116.000 Y92.000 Z23.250 F180
G1 X128.000 Y92.000 Z18.750 E0.94158 F360
G1 E0.1500 F120
G4 P300
G1 X128.000 Y92.000 Z23.550 E0.39184 F180
G4 P800
G0 X128.000 Y92.000 Z23.250 F180
G1 X128.000 Y104.000 Z18.750 E0.94158 F360
G1 E0.1500 F120
G4 P300
G1 X128.000 Y104.000 Z23.550 E0.39184 F180
G4 P800
G0 X128.000 Y104.000 Z23.250 F180
G1 X116.000 Y104.000 Z18.750 E0.94158 F360
G1 E0.1500 F120
G4 P300
G1 X116.000 Y104.000 Z23.550 E0.39184 F180
G4 P800
G0 X116.000 Y104.000 Z23.250 F180
G1 X104.000 Y104.000 Z18.750 E0.94158 F360
G1 E0.1500 F120
G4 P300
G1 X104.000 Y104.000 Z23.550 E0.39184 F180
G4 P800
G0 X104.000 Y104.000 Z23.250 F180
G1 X92.000 Y104.000 Z18.750 E0.94158 F360
G1 E0.1500 F120
G4 P300
G1 X92.000 Y104.000 Z23.550 E0.39184 F180
G4 P800
G0 X92.000 Y104.000 Z23.250 F180
G1 X92.000 Y116.000 Z18.750 E0.94158 F360
G1 E0.1500 F120
G4 P300
G1 X92.000 Y116.000 Z23.550 E0.39184 F180
G4 P800
G0 X92.000 Y116.000 Z23.250 F180
G1 X104.000 Y116.000 Z18.750 E0.94158 F360
G1 E0.1500 F120
G4 P300
G1 X104.000 Y116.000 Z23.550 E0.39184 F180
G4 P800
G0 X104.000 Y116.000 Z23.250 F180
G1 X116.000 Y116.000 Z18.750 E0.94158 F360
G1 E0.1500 F120
G4 P300
G1 X116.000 Y116.000 Z23.550 E0.39184 F180
G4 P800
G0 X116.000 Y116.000 Z23.250 F180
G1 X128.000 Y116.000 Z18.750 E0.94158 F360
G1 E0.1500 F120
G4 P300
G1 X128.000 Y116.000 Z23.550 E0.39184 F180
G4 P800
G0 X128.000 Y116.000 Z23.250 F180
G1 X128.000 Y128.000 Z18.750 E0.94158 F360
G1 E0.1500 F120
G4 P300
G1 X128.000 Y128.000 Z23.550 E0.39184 F180
G4 P800
G0 X128.000 Y128.000 Z23.250 F180
G1 X116.000 Y128.000 Z18.750 E0.94158 F360
G1 E0.1500 F120
G4 P300
G1 X116.000 Y128.000 Z23.550 E0.39184 F180
G4 P800
G0 X116.000 Y128.000 Z23.250 F180
G1 X104.000 Y128.000 Z18.750 E0.94158 F360
G1 E0.1500 F120
G4 P300
G1 X104.000 Y128.000 Z23.550 E0.39184 F180
G4 P800
G0 X104.000 Y128.000 Z23.250 F180
G1 X92.000 Y128.000 Z18.750 E0.94158 F360
G1 E0.1500 F120
G4 P300
G1 X92.000 Y128.000 Z23.550 E0.39184 F180
G4 P800
G0 X92.000 Y128.000 Z23.250 F180
G1 E0.1500 F120
G4 P300
G1 X104.000 Y128.000 Z23.250 E0.97959 F360
G1 E0.0750 F120
G4 P300
G1 X116.000 Y128.000 Z23.250 E0.97959 F360
G1 E0.0750 F120
G4 P300
G1 X128.000 Y128.000 Z23.250 E0.97959 F360
G1 E0.0750 F120
G4 P300
G1 E-0.800 F2400
G0 X128.000 Y128.000 Z24.250 F1800
G0 X128.000 Y116.000 Z24.250 F7200
G0 X128.000 Y116.000 Z23.250 F1800
G1 E0.800 F1800
G1 E0.1500 F120
G4 P300
G1 X116.000 Y116.000 Z23.250 E0.97959 F360
G1 E0.0750 F120
G4 P300
G1 X104.000 Y116.000 Z23.250 E0.97959 F360
G1 E0.0750 F120
G4 P300
G1 X92.000 Y116.000 Z23.250 E0.97959 F360
G1 E0.0750 F120
G4 P300
G1 E-0.800 F2400
G0 X92.000 Y116.000 Z24.250 F1800
G0 X92.000 Y104.000 Z24.250 F7200
G0 X92.000 Y104.000 Z23.250 F1800
G1 E0.800 F1800
G1 E0.1500 F120
G4 P300
G1 X104.000 Y104.000 Z23.250 E0.97959 F360
G1 E0.0750 F120
G4 P300
G1 X116.000 Y104.000 Z23.250 E0.97959 F360
G1 E0.0750 F120
G4 P300
G1 X128.000 Y104.000 Z23.250 E0.97959 F360
G1 E0.0750 F120
G4 P300
G1 E-0.800 F2400
G0 X128.000 Y104.000 Z24.250 F1800
G0 X128.000 Y92.000 Z24.250 F7200
G0 X128.000 Y92.000 Z23.250 F1800
G1 E0.800 F1800
G1 E0.1500 F120
G4 P300
G1 X116.000 Y92.000 Z23.250 E0.97959 F360
G1 E0.0750 F120
G4 P300
G1 X104.000 Y92.000 Z23.250 E0.97959 F360
G1 E0.0750 F120
G4 P300
G1 X92.000 Y92.000 Z23.250 E0.97959 F360
G1 E0.0750 F120
G4 P300
G1 E0.1500 F120
G4 P300
G1 X92.000 Y104.000 Z23.250 E0.97959 F360
G1 E0.0750 F120
G4 P300
G1 X92.000 Y116.000 Z23.250 E0.97959 F360
G1 E0.0750 F120
G4 P300
G1 X92.000 Y128.000 Z23.250 E0.97959 F360
G1 E0.0750 F120
G4 P300
G1 E-0.800 F2400
G0 X92.000 Y128.000 Z24.250 F1800
G0 X104.000 Y128.000 Z24.250 F7200
G0 X104.000 Y128.000 Z23.250 F1800
G1 E0.800 F1800
G1 E0.1500 F120
G4 P300
G1 X104.000 Y116.000 Z23.250 E0.97959 F360
G1 E0.0750 F120
G4 P300
G1 X104.000 Y104.000 Z23.250 E0.97959 F360
G1 E0.0750 F120
G4 P300
G1 X104.000 Y92.000 Z23.250 E0.97959 F360
G1 E0.0750 F120
G4 P300
G1 E-0.800 F2400
G0 X104.000 Y92.000 Z24.250 F1800
G0 X116.000 Y92.000 Z24.250 F7200
G0 X116.000 Y92.000 Z23.250 F1800
G1 E0.800 F1800
G1 E0.1500 F120
G4 P300
G1 X116.000 Y104.000 Z23.250 E0.97959 F360
G1 E0.0750 F120
G4 P300
G1 X116.000 Y116.000 Z23.250 E0.97959 F360
G1 E0.0750 F120
G4 P300
G1 X116.000 Y128.000 Z23.250 E0.97959 F360
G1 E0.0750 F120
G4 P300
G1 E-0.800 F2400
G0 X116.000 Y128.000 Z24.250 F1800
G0 X128.000 Y128.000 Z24.250 F7200
G0 X128.000 Y128.000 Z23.250 F1800
G1 E0.800 F1800
G1 E0.1500 F120
G4 P300
G1 X128.000 Y116.000 Z23.250 E0.97959 F360
G1 E0.0750 F120
G4 P300
G1 X128.000 Y104.000 Z23.250 E0.97959 F360
G1 E0.0750 F120
G4 P300
G1 X128.000 Y92.000 Z23.250 E0.97959 F360
G1 E0.0750 F120
G4 P300
G1 E-0.800 F2400
; LEVEL 6/10  z 23.25 -> 27.75
G0 X128.000 Y92.000 Z24.250 F1800
G0 X92.000 Y92.000 Z24.250 F7200
G0 X92.000 Y92.000 Z23.250 F1800
G1 E0.800 F1800
G1 E0.1500 F120
G4 P300
G1 X92.000 Y92.000 Z28.050 E0.39184 F180
G4 P800
G0 X92.000 Y92.000 Z27.750 F180
G1 X104.000 Y92.000 Z23.250 E0.94158 F360
G1 E0.1500 F120
G4 P300
G1 X104.000 Y92.000 Z28.050 E0.39184 F180
G4 P800
G0 X104.000 Y92.000 Z27.750 F180
G1 X116.000 Y92.000 Z23.250 E0.94158 F360
G1 E0.1500 F120
G4 P300
G1 X116.000 Y92.000 Z28.050 E0.39184 F180
G4 P800
G0 X116.000 Y92.000 Z27.750 F180
G1 X128.000 Y92.000 Z23.250 E0.94158 F360
G1 E0.1500 F120
G4 P300
G1 X128.000 Y92.000 Z28.050 E0.39184 F180
G4 P800
G0 X128.000 Y92.000 Z27.750 F180
G1 X128.000 Y104.000 Z23.250 E0.94158 F360
G1 E0.1500 F120
G4 P300
G1 X128.000 Y104.000 Z28.050 E0.39184 F180
G4 P800
G0 X128.000 Y104.000 Z27.750 F180
G1 X116.000 Y104.000 Z23.250 E0.94158 F360
G1 E0.1500 F120
G4 P300
G1 X116.000 Y104.000 Z28.050 E0.39184 F180
G4 P800
G0 X116.000 Y104.000 Z27.750 F180
G1 X104.000 Y104.000 Z23.250 E0.94158 F360
G1 E0.1500 F120
G4 P300
G1 X104.000 Y104.000 Z28.050 E0.39184 F180
G4 P800
G0 X104.000 Y104.000 Z27.750 F180
G1 X92.000 Y104.000 Z23.250 E0.94158 F360
G1 E0.1500 F120
G4 P300
G1 X92.000 Y104.000 Z28.050 E0.39184 F180
G4 P800
G0 X92.000 Y104.000 Z27.750 F180
G1 X92.000 Y116.000 Z23.250 E0.94158 F360
G1 E0.1500 F120
G4 P300
G1 X92.000 Y116.000 Z28.050 E0.39184 F180
G4 P800
G0 X92.000 Y116.000 Z27.750 F180
G1 X104.000 Y116.000 Z23.250 E0.94158 F360
G1 E0.1500 F120
G4 P300
G1 X104.000 Y116.000 Z28.050 E0.39184 F180
G4 P800
G0 X104.000 Y116.000 Z27.750 F180
G1 X116.000 Y116.000 Z23.250 E0.94158 F360
G1 E0.1500 F120
G4 P300
G1 X116.000 Y116.000 Z28.050 E0.39184 F180
G4 P800
G0 X116.000 Y116.000 Z27.750 F180
G1 X128.000 Y116.000 Z23.250 E0.94158 F360
G1 E0.1500 F120
G4 P300
G1 X128.000 Y116.000 Z28.050 E0.39184 F180
G4 P800
G0 X128.000 Y116.000 Z27.750 F180
G1 X128.000 Y128.000 Z23.250 E0.94158 F360
G1 E0.1500 F120
G4 P300
G1 X128.000 Y128.000 Z28.050 E0.39184 F180
G4 P800
G0 X128.000 Y128.000 Z27.750 F180
G1 X116.000 Y128.000 Z23.250 E0.94158 F360
G1 E0.1500 F120
G4 P300
G1 X116.000 Y128.000 Z28.050 E0.39184 F180
G4 P800
G0 X116.000 Y128.000 Z27.750 F180
G1 X104.000 Y128.000 Z23.250 E0.94158 F360
G1 E0.1500 F120
G4 P300
G1 X104.000 Y128.000 Z28.050 E0.39184 F180
G4 P800
G0 X104.000 Y128.000 Z27.750 F180
G1 X92.000 Y128.000 Z23.250 E0.94158 F360
G1 E0.1500 F120
G4 P300
G1 X92.000 Y128.000 Z28.050 E0.39184 F180
G4 P800
G0 X92.000 Y128.000 Z27.750 F180
G1 E0.1500 F120
G4 P300
G1 X104.000 Y128.000 Z27.750 E0.97959 F360
G1 E0.0750 F120
G4 P300
G1 X116.000 Y128.000 Z27.750 E0.97959 F360
G1 E0.0750 F120
G4 P300
G1 X128.000 Y128.000 Z27.750 E0.97959 F360
G1 E0.0750 F120
G4 P300
G1 E-0.800 F2400
G0 X128.000 Y128.000 Z28.750 F1800
G0 X128.000 Y116.000 Z28.750 F7200
G0 X128.000 Y116.000 Z27.750 F1800
G1 E0.800 F1800
G1 E0.1500 F120
G4 P300
G1 X116.000 Y116.000 Z27.750 E0.97959 F360
G1 E0.0750 F120
G4 P300
G1 X104.000 Y116.000 Z27.750 E0.97959 F360
G1 E0.0750 F120
G4 P300
G1 X92.000 Y116.000 Z27.750 E0.97959 F360
G1 E0.0750 F120
G4 P300
G1 E-0.800 F2400
G0 X92.000 Y116.000 Z28.750 F1800
G0 X92.000 Y104.000 Z28.750 F7200
G0 X92.000 Y104.000 Z27.750 F1800
G1 E0.800 F1800
G1 E0.1500 F120
G4 P300
G1 X104.000 Y104.000 Z27.750 E0.97959 F360
G1 E0.0750 F120
G4 P300
G1 X116.000 Y104.000 Z27.750 E0.97959 F360
G1 E0.0750 F120
G4 P300
G1 X128.000 Y104.000 Z27.750 E0.97959 F360
G1 E0.0750 F120
G4 P300
G1 E-0.800 F2400
G0 X128.000 Y104.000 Z28.750 F1800
G0 X128.000 Y92.000 Z28.750 F7200
G0 X128.000 Y92.000 Z27.750 F1800
G1 E0.800 F1800
G1 E0.1500 F120
G4 P300
G1 X116.000 Y92.000 Z27.750 E0.97959 F360
G1 E0.0750 F120
G4 P300
G1 X104.000 Y92.000 Z27.750 E0.97959 F360
G1 E0.0750 F120
G4 P300
G1 X92.000 Y92.000 Z27.750 E0.97959 F360
G1 E0.0750 F120
G4 P300
G1 E0.1500 F120
G4 P300
G1 X92.000 Y104.000 Z27.750 E0.97959 F360
G1 E0.0750 F120
G4 P300
G1 X92.000 Y116.000 Z27.750 E0.97959 F360
G1 E0.0750 F120
G4 P300
G1 X92.000 Y128.000 Z27.750 E0.97959 F360
G1 E0.0750 F120
G4 P300
G1 E-0.800 F2400
G0 X92.000 Y128.000 Z28.750 F1800
G0 X104.000 Y128.000 Z28.750 F7200
G0 X104.000 Y128.000 Z27.750 F1800
G1 E0.800 F1800
G1 E0.1500 F120
G4 P300
G1 X104.000 Y116.000 Z27.750 E0.97959 F360
G1 E0.0750 F120
G4 P300
G1 X104.000 Y104.000 Z27.750 E0.97959 F360
G1 E0.0750 F120
G4 P300
G1 X104.000 Y92.000 Z27.750 E0.97959 F360
G1 E0.0750 F120
G4 P300
G1 E-0.800 F2400
G0 X104.000 Y92.000 Z28.750 F1800
G0 X116.000 Y92.000 Z28.750 F7200
G0 X116.000 Y92.000 Z27.750 F1800
G1 E0.800 F1800
G1 E0.1500 F120
G4 P300
G1 X116.000 Y104.000 Z27.750 E0.97959 F360
G1 E0.0750 F120
G4 P300
G1 X116.000 Y116.000 Z27.750 E0.97959 F360
G1 E0.0750 F120
G4 P300
G1 X116.000 Y128.000 Z27.750 E0.97959 F360
G1 E0.0750 F120
G4 P300
G1 E-0.800 F2400
G0 X116.000 Y128.000 Z28.750 F1800
G0 X128.000 Y128.000 Z28.750 F7200
G0 X128.000 Y128.000 Z27.750 F1800
G1 E0.800 F1800
G1 E0.1500 F120
G4 P300
G1 X128.000 Y116.000 Z27.750 E0.97959 F360
G1 E0.0750 F120
G4 P300
G1 X128.000 Y104.000 Z27.750 E0.97959 F360
G1 E0.0750 F120
G4 P300
G1 X128.000 Y92.000 Z27.750 E0.97959 F360
G1 E0.0750 F120
G4 P300
G1 E-0.800 F2400
; LEVEL 7/10  z 27.75 -> 32.25
G0 X128.000 Y92.000 Z28.750 F1800
G0 X92.000 Y92.000 Z28.750 F7200
G0 X92.000 Y92.000 Z27.750 F1800
G1 E0.800 F1800
G1 E0.1500 F120
G4 P300
G1 X92.000 Y92.000 Z32.550 E0.39184 F180
G4 P800
G0 X92.000 Y92.000 Z32.250 F180
G1 X104.000 Y92.000 Z27.750 E0.94158 F360
G1 E0.1500 F120
G4 P300
G1 X104.000 Y92.000 Z32.550 E0.39184 F180
G4 P800
G0 X104.000 Y92.000 Z32.250 F180
G1 X116.000 Y92.000 Z27.750 E0.94158 F360
G1 E0.1500 F120
G4 P300
G1 X116.000 Y92.000 Z32.550 E0.39184 F180
G4 P800
G0 X116.000 Y92.000 Z32.250 F180
G1 X128.000 Y92.000 Z27.750 E0.94158 F360
G1 E0.1500 F120
G4 P300
G1 X128.000 Y92.000 Z32.550 E0.39184 F180
G4 P800
G0 X128.000 Y92.000 Z32.250 F180
G1 X128.000 Y104.000 Z27.750 E0.94158 F360
G1 E0.1500 F120
G4 P300
G1 X128.000 Y104.000 Z32.550 E0.39184 F180
G4 P800
G0 X128.000 Y104.000 Z32.250 F180
G1 X116.000 Y104.000 Z27.750 E0.94158 F360
G1 E0.1500 F120
G4 P300
G1 X116.000 Y104.000 Z32.550 E0.39184 F180
G4 P800
G0 X116.000 Y104.000 Z32.250 F180
G1 X104.000 Y104.000 Z27.750 E0.94158 F360
G1 E0.1500 F120
G4 P300
G1 X104.000 Y104.000 Z32.550 E0.39184 F180
G4 P800
G0 X104.000 Y104.000 Z32.250 F180
G1 X92.000 Y104.000 Z27.750 E0.94158 F360
G1 E0.1500 F120
G4 P300
G1 X92.000 Y104.000 Z32.550 E0.39184 F180
G4 P800
G0 X92.000 Y104.000 Z32.250 F180
G1 X92.000 Y116.000 Z27.750 E0.94158 F360
G1 E0.1500 F120
G4 P300
G1 X92.000 Y116.000 Z32.550 E0.39184 F180
G4 P800
G0 X92.000 Y116.000 Z32.250 F180
G1 X104.000 Y116.000 Z27.750 E0.94158 F360
G1 E0.1500 F120
G4 P300
G1 X104.000 Y116.000 Z32.550 E0.39184 F180
G4 P800
G0 X104.000 Y116.000 Z32.250 F180
G1 X116.000 Y116.000 Z27.750 E0.94158 F360
G1 E0.1500 F120
G4 P300
G1 X116.000 Y116.000 Z32.550 E0.39184 F180
G4 P800
G0 X116.000 Y116.000 Z32.250 F180
G1 X128.000 Y116.000 Z27.750 E0.94158 F360
G1 E0.1500 F120
G4 P300
G1 X128.000 Y116.000 Z32.550 E0.39184 F180
G4 P800
G0 X128.000 Y116.000 Z32.250 F180
G1 X128.000 Y128.000 Z27.750 E0.94158 F360
G1 E0.1500 F120
G4 P300
G1 X128.000 Y128.000 Z32.550 E0.39184 F180
G4 P800
G0 X128.000 Y128.000 Z32.250 F180
G1 X116.000 Y128.000 Z27.750 E0.94158 F360
G1 E0.1500 F120
G4 P300
G1 X116.000 Y128.000 Z32.550 E0.39184 F180
G4 P800
G0 X116.000 Y128.000 Z32.250 F180
G1 X104.000 Y128.000 Z27.750 E0.94158 F360
G1 E0.1500 F120
G4 P300
G1 X104.000 Y128.000 Z32.550 E0.39184 F180
G4 P800
G0 X104.000 Y128.000 Z32.250 F180
G1 X92.000 Y128.000 Z27.750 E0.94158 F360
G1 E0.1500 F120
G4 P300
G1 X92.000 Y128.000 Z32.550 E0.39184 F180
G4 P800
G0 X92.000 Y128.000 Z32.250 F180
G1 E0.1500 F120
G4 P300
G1 X104.000 Y128.000 Z32.250 E0.97959 F360
G1 E0.0750 F120
G4 P300
G1 X116.000 Y128.000 Z32.250 E0.97959 F360
G1 E0.0750 F120
G4 P300
G1 X128.000 Y128.000 Z32.250 E0.97959 F360
G1 E0.0750 F120
G4 P300
G1 E-0.800 F2400
G0 X128.000 Y128.000 Z33.250 F1800
G0 X128.000 Y116.000 Z33.250 F7200
G0 X128.000 Y116.000 Z32.250 F1800
G1 E0.800 F1800
G1 E0.1500 F120
G4 P300
G1 X116.000 Y116.000 Z32.250 E0.97959 F360
G1 E0.0750 F120
G4 P300
G1 X104.000 Y116.000 Z32.250 E0.97959 F360
G1 E0.0750 F120
G4 P300
G1 X92.000 Y116.000 Z32.250 E0.97959 F360
G1 E0.0750 F120
G4 P300
G1 E-0.800 F2400
G0 X92.000 Y116.000 Z33.250 F1800
G0 X92.000 Y104.000 Z33.250 F7200
G0 X92.000 Y104.000 Z32.250 F1800
G1 E0.800 F1800
G1 E0.1500 F120
G4 P300
G1 X104.000 Y104.000 Z32.250 E0.97959 F360
G1 E0.0750 F120
G4 P300
G1 X116.000 Y104.000 Z32.250 E0.97959 F360
G1 E0.0750 F120
G4 P300
G1 X128.000 Y104.000 Z32.250 E0.97959 F360
G1 E0.0750 F120
G4 P300
G1 E-0.800 F2400
G0 X128.000 Y104.000 Z33.250 F1800
G0 X128.000 Y92.000 Z33.250 F7200
G0 X128.000 Y92.000 Z32.250 F1800
G1 E0.800 F1800
G1 E0.1500 F120
G4 P300
G1 X116.000 Y92.000 Z32.250 E0.97959 F360
G1 E0.0750 F120
G4 P300
G1 X104.000 Y92.000 Z32.250 E0.97959 F360
G1 E0.0750 F120
G4 P300
G1 X92.000 Y92.000 Z32.250 E0.97959 F360
G1 E0.0750 F120
G4 P300
G1 E0.1500 F120
G4 P300
G1 X92.000 Y104.000 Z32.250 E0.97959 F360
G1 E0.0750 F120
G4 P300
G1 X92.000 Y116.000 Z32.250 E0.97959 F360
G1 E0.0750 F120
G4 P300
G1 X92.000 Y128.000 Z32.250 E0.97959 F360
G1 E0.0750 F120
G4 P300
G1 E-0.800 F2400
G0 X92.000 Y128.000 Z33.250 F1800
G0 X104.000 Y128.000 Z33.250 F7200
G0 X104.000 Y128.000 Z32.250 F1800
G1 E0.800 F1800
G1 E0.1500 F120
G4 P300
G1 X104.000 Y116.000 Z32.250 E0.97959 F360
G1 E0.0750 F120
G4 P300
G1 X104.000 Y104.000 Z32.250 E0.97959 F360
G1 E0.0750 F120
G4 P300
G1 X104.000 Y92.000 Z32.250 E0.97959 F360
G1 E0.0750 F120
G4 P300
G1 E-0.800 F2400
G0 X104.000 Y92.000 Z33.250 F1800
G0 X116.000 Y92.000 Z33.250 F7200
G0 X116.000 Y92.000 Z32.250 F1800
G1 E0.800 F1800
G1 E0.1500 F120
G4 P300
G1 X116.000 Y104.000 Z32.250 E0.97959 F360
G1 E0.0750 F120
G4 P300
G1 X116.000 Y116.000 Z32.250 E0.97959 F360
G1 E0.0750 F120
G4 P300
G1 X116.000 Y128.000 Z32.250 E0.97959 F360
G1 E0.0750 F120
G4 P300
G1 E-0.800 F2400
G0 X116.000 Y128.000 Z33.250 F1800
G0 X128.000 Y128.000 Z33.250 F7200
G0 X128.000 Y128.000 Z32.250 F1800
G1 E0.800 F1800
G1 E0.1500 F120
G4 P300
G1 X128.000 Y116.000 Z32.250 E0.97959 F360
G1 E0.0750 F120
G4 P300
G1 X128.000 Y104.000 Z32.250 E0.97959 F360
G1 E0.0750 F120
G4 P300
G1 X128.000 Y92.000 Z32.250 E0.97959 F360
G1 E0.0750 F120
G4 P300
G1 E-0.800 F2400
; LEVEL 8/10  z 32.25 -> 36.75
G0 X128.000 Y92.000 Z33.250 F1800
G0 X92.000 Y92.000 Z33.250 F7200
G0 X92.000 Y92.000 Z32.250 F1800
G1 E0.800 F1800
G1 E0.1500 F120
G4 P300
G1 X92.000 Y92.000 Z37.050 E0.39184 F180
G4 P800
G0 X92.000 Y92.000 Z36.750 F180
G1 X104.000 Y92.000 Z32.250 E0.94158 F360
G1 E0.1500 F120
G4 P300
G1 X104.000 Y92.000 Z37.050 E0.39184 F180
G4 P800
G0 X104.000 Y92.000 Z36.750 F180
G1 X116.000 Y92.000 Z32.250 E0.94158 F360
G1 E0.1500 F120
G4 P300
G1 X116.000 Y92.000 Z37.050 E0.39184 F180
G4 P800
G0 X116.000 Y92.000 Z36.750 F180
G1 X128.000 Y92.000 Z32.250 E0.94158 F360
G1 E0.1500 F120
G4 P300
G1 X128.000 Y92.000 Z37.050 E0.39184 F180
G4 P800
G0 X128.000 Y92.000 Z36.750 F180
G1 X128.000 Y104.000 Z32.250 E0.94158 F360
G1 E0.1500 F120
G4 P300
G1 X128.000 Y104.000 Z37.050 E0.39184 F180
G4 P800
G0 X128.000 Y104.000 Z36.750 F180
G1 X116.000 Y104.000 Z32.250 E0.94158 F360
G1 E0.1500 F120
G4 P300
G1 X116.000 Y104.000 Z37.050 E0.39184 F180
G4 P800
G0 X116.000 Y104.000 Z36.750 F180
G1 X104.000 Y104.000 Z32.250 E0.94158 F360
G1 E0.1500 F120
G4 P300
G1 X104.000 Y104.000 Z37.050 E0.39184 F180
G4 P800
G0 X104.000 Y104.000 Z36.750 F180
G1 X92.000 Y104.000 Z32.250 E0.94158 F360
G1 E0.1500 F120
G4 P300
G1 X92.000 Y104.000 Z37.050 E0.39184 F180
G4 P800
G0 X92.000 Y104.000 Z36.750 F180
G1 X92.000 Y116.000 Z32.250 E0.94158 F360
G1 E0.1500 F120
G4 P300
G1 X92.000 Y116.000 Z37.050 E0.39184 F180
G4 P800
G0 X92.000 Y116.000 Z36.750 F180
G1 X104.000 Y116.000 Z32.250 E0.94158 F360
G1 E0.1500 F120
G4 P300
G1 X104.000 Y116.000 Z37.050 E0.39184 F180
G4 P800
G0 X104.000 Y116.000 Z36.750 F180
G1 X116.000 Y116.000 Z32.250 E0.94158 F360
G1 E0.1500 F120
G4 P300
G1 X116.000 Y116.000 Z37.050 E0.39184 F180
G4 P800
G0 X116.000 Y116.000 Z36.750 F180
G1 X128.000 Y116.000 Z32.250 E0.94158 F360
G1 E0.1500 F120
G4 P300
G1 X128.000 Y116.000 Z37.050 E0.39184 F180
G4 P800
G0 X128.000 Y116.000 Z36.750 F180
G1 X128.000 Y128.000 Z32.250 E0.94158 F360
G1 E0.1500 F120
G4 P300
G1 X128.000 Y128.000 Z37.050 E0.39184 F180
G4 P800
G0 X128.000 Y128.000 Z36.750 F180
G1 X116.000 Y128.000 Z32.250 E0.94158 F360
G1 E0.1500 F120
G4 P300
G1 X116.000 Y128.000 Z37.050 E0.39184 F180
G4 P800
G0 X116.000 Y128.000 Z36.750 F180
G1 X104.000 Y128.000 Z32.250 E0.94158 F360
G1 E0.1500 F120
G4 P300
G1 X104.000 Y128.000 Z37.050 E0.39184 F180
G4 P800
G0 X104.000 Y128.000 Z36.750 F180
G1 X92.000 Y128.000 Z32.250 E0.94158 F360
G1 E0.1500 F120
G4 P300
G1 X92.000 Y128.000 Z37.050 E0.39184 F180
G4 P800
G0 X92.000 Y128.000 Z36.750 F180
G1 E0.1500 F120
G4 P300
G1 X104.000 Y128.000 Z36.750 E0.97959 F360
G1 E0.0750 F120
G4 P300
G1 X116.000 Y128.000 Z36.750 E0.97959 F360
G1 E0.0750 F120
G4 P300
G1 X128.000 Y128.000 Z36.750 E0.97959 F360
G1 E0.0750 F120
G4 P300
G1 E-0.800 F2400
G0 X128.000 Y128.000 Z37.750 F1800
G0 X128.000 Y116.000 Z37.750 F7200
G0 X128.000 Y116.000 Z36.750 F1800
G1 E0.800 F1800
G1 E0.1500 F120
G4 P300
G1 X116.000 Y116.000 Z36.750 E0.97959 F360
G1 E0.0750 F120
G4 P300
G1 X104.000 Y116.000 Z36.750 E0.97959 F360
G1 E0.0750 F120
G4 P300
G1 X92.000 Y116.000 Z36.750 E0.97959 F360
G1 E0.0750 F120
G4 P300
G1 E-0.800 F2400
G0 X92.000 Y116.000 Z37.750 F1800
G0 X92.000 Y104.000 Z37.750 F7200
G0 X92.000 Y104.000 Z36.750 F1800
G1 E0.800 F1800
G1 E0.1500 F120
G4 P300
G1 X104.000 Y104.000 Z36.750 E0.97959 F360
G1 E0.0750 F120
G4 P300
G1 X116.000 Y104.000 Z36.750 E0.97959 F360
G1 E0.0750 F120
G4 P300
G1 X128.000 Y104.000 Z36.750 E0.97959 F360
G1 E0.0750 F120
G4 P300
G1 E-0.800 F2400
G0 X128.000 Y104.000 Z37.750 F1800
G0 X128.000 Y92.000 Z37.750 F7200
G0 X128.000 Y92.000 Z36.750 F1800
G1 E0.800 F1800
G1 E0.1500 F120
G4 P300
G1 X116.000 Y92.000 Z36.750 E0.97959 F360
G1 E0.0750 F120
G4 P300
G1 X104.000 Y92.000 Z36.750 E0.97959 F360
G1 E0.0750 F120
G4 P300
G1 X92.000 Y92.000 Z36.750 E0.97959 F360
G1 E0.0750 F120
G4 P300
G1 E0.1500 F120
G4 P300
G1 X92.000 Y104.000 Z36.750 E0.97959 F360
G1 E0.0750 F120
G4 P300
G1 X92.000 Y116.000 Z36.750 E0.97959 F360
G1 E0.0750 F120
G4 P300
G1 X92.000 Y128.000 Z36.750 E0.97959 F360
G1 E0.0750 F120
G4 P300
G1 E-0.800 F2400
G0 X92.000 Y128.000 Z37.750 F1800
G0 X104.000 Y128.000 Z37.750 F7200
G0 X104.000 Y128.000 Z36.750 F1800
G1 E0.800 F1800
G1 E0.1500 F120
G4 P300
G1 X104.000 Y116.000 Z36.750 E0.97959 F360
G1 E0.0750 F120
G4 P300
G1 X104.000 Y104.000 Z36.750 E0.97959 F360
G1 E0.0750 F120
G4 P300
G1 X104.000 Y92.000 Z36.750 E0.97959 F360
G1 E0.0750 F120
G4 P300
G1 E-0.800 F2400
G0 X104.000 Y92.000 Z37.750 F1800
G0 X116.000 Y92.000 Z37.750 F7200
G0 X116.000 Y92.000 Z36.750 F1800
G1 E0.800 F1800
G1 E0.1500 F120
G4 P300
G1 X116.000 Y104.000 Z36.750 E0.97959 F360
G1 E0.0750 F120
G4 P300
G1 X116.000 Y116.000 Z36.750 E0.97959 F360
G1 E0.0750 F120
G4 P300
G1 X116.000 Y128.000 Z36.750 E0.97959 F360
G1 E0.0750 F120
G4 P300
G1 E-0.800 F2400
G0 X116.000 Y128.000 Z37.750 F1800
G0 X128.000 Y128.000 Z37.750 F7200
G0 X128.000 Y128.000 Z36.750 F1800
G1 E0.800 F1800
G1 E0.1500 F120
G4 P300
G1 X128.000 Y116.000 Z36.750 E0.97959 F360
G1 E0.0750 F120
G4 P300
G1 X128.000 Y104.000 Z36.750 E0.97959 F360
G1 E0.0750 F120
G4 P300
G1 X128.000 Y92.000 Z36.750 E0.97959 F360
G1 E0.0750 F120
G4 P300
G1 E-0.800 F2400
; LEVEL 9/10  z 36.75 -> 41.25
G0 X128.000 Y92.000 Z37.750 F1800
G0 X92.000 Y92.000 Z37.750 F7200
G0 X92.000 Y92.000 Z36.750 F1800
G1 E0.800 F1800
G1 E0.1500 F120
G4 P300
G1 X92.000 Y92.000 Z41.550 E0.39184 F180
G4 P800
G0 X92.000 Y92.000 Z41.250 F180
G1 X104.000 Y92.000 Z36.750 E0.94158 F360
G1 E0.1500 F120
G4 P300
G1 X104.000 Y92.000 Z41.550 E0.39184 F180
G4 P800
G0 X104.000 Y92.000 Z41.250 F180
G1 X116.000 Y92.000 Z36.750 E0.94158 F360
G1 E0.1500 F120
G4 P300
G1 X116.000 Y92.000 Z41.550 E0.39184 F180
G4 P800
G0 X116.000 Y92.000 Z41.250 F180
G1 X128.000 Y92.000 Z36.750 E0.94158 F360
G1 E0.1500 F120
G4 P300
G1 X128.000 Y92.000 Z41.550 E0.39184 F180
G4 P800
G0 X128.000 Y92.000 Z41.250 F180
G1 X128.000 Y104.000 Z36.750 E0.94158 F360
G1 E0.1500 F120
G4 P300
G1 X128.000 Y104.000 Z41.550 E0.39184 F180
G4 P800
G0 X128.000 Y104.000 Z41.250 F180
G1 X116.000 Y104.000 Z36.750 E0.94158 F360
G1 E0.1500 F120
G4 P300
G1 X116.000 Y104.000 Z41.550 E0.39184 F180
G4 P800
G0 X116.000 Y104.000 Z41.250 F180
G1 X104.000 Y104.000 Z36.750 E0.94158 F360
G1 E0.1500 F120
G4 P300
G1 X104.000 Y104.000 Z41.550 E0.39184 F180
G4 P800
G0 X104.000 Y104.000 Z41.250 F180
G1 X92.000 Y104.000 Z36.750 E0.94158 F360
G1 E0.1500 F120
G4 P300
G1 X92.000 Y104.000 Z41.550 E0.39184 F180
G4 P800
G0 X92.000 Y104.000 Z41.250 F180
G1 X92.000 Y116.000 Z36.750 E0.94158 F360
G1 E0.1500 F120
G4 P300
G1 X92.000 Y116.000 Z41.550 E0.39184 F180
G4 P800
G0 X92.000 Y116.000 Z41.250 F180
G1 X104.000 Y116.000 Z36.750 E0.94158 F360
G1 E0.1500 F120
G4 P300
G1 X104.000 Y116.000 Z41.550 E0.39184 F180
G4 P800
G0 X104.000 Y116.000 Z41.250 F180
G1 X116.000 Y116.000 Z36.750 E0.94158 F360
G1 E0.1500 F120
G4 P300
G1 X116.000 Y116.000 Z41.550 E0.39184 F180
G4 P800
G0 X116.000 Y116.000 Z41.250 F180
G1 X128.000 Y116.000 Z36.750 E0.94158 F360
G1 E0.1500 F120
G4 P300
G1 X128.000 Y116.000 Z41.550 E0.39184 F180
G4 P800
G0 X128.000 Y116.000 Z41.250 F180
G1 X128.000 Y128.000 Z36.750 E0.94158 F360
G1 E0.1500 F120
G4 P300
G1 X128.000 Y128.000 Z41.550 E0.39184 F180
G4 P800
G0 X128.000 Y128.000 Z41.250 F180
G1 X116.000 Y128.000 Z36.750 E0.94158 F360
G1 E0.1500 F120
G4 P300
G1 X116.000 Y128.000 Z41.550 E0.39184 F180
G4 P800
G0 X116.000 Y128.000 Z41.250 F180
G1 X104.000 Y128.000 Z36.750 E0.94158 F360
G1 E0.1500 F120
G4 P300
G1 X104.000 Y128.000 Z41.550 E0.39184 F180
G4 P800
G0 X104.000 Y128.000 Z41.250 F180
G1 X92.000 Y128.000 Z36.750 E0.94158 F360
G1 E0.1500 F120
G4 P300
G1 X92.000 Y128.000 Z41.550 E0.39184 F180
G4 P800
G0 X92.000 Y128.000 Z41.250 F180
G1 E0.1500 F120
G4 P300
G1 X104.000 Y128.000 Z41.250 E0.97959 F360
G1 E0.0750 F120
G4 P300
G1 X116.000 Y128.000 Z41.250 E0.97959 F360
G1 E0.0750 F120
G4 P300
G1 X128.000 Y128.000 Z41.250 E0.97959 F360
G1 E0.0750 F120
G4 P300
G1 E-0.800 F2400
G0 X128.000 Y128.000 Z42.250 F1800
G0 X128.000 Y116.000 Z42.250 F7200
G0 X128.000 Y116.000 Z41.250 F1800
G1 E0.800 F1800
G1 E0.1500 F120
G4 P300
G1 X116.000 Y116.000 Z41.250 E0.97959 F360
G1 E0.0750 F120
G4 P300
G1 X104.000 Y116.000 Z41.250 E0.97959 F360
G1 E0.0750 F120
G4 P300
G1 X92.000 Y116.000 Z41.250 E0.97959 F360
G1 E0.0750 F120
G4 P300
G1 E-0.800 F2400
G0 X92.000 Y116.000 Z42.250 F1800
G0 X92.000 Y104.000 Z42.250 F7200
G0 X92.000 Y104.000 Z41.250 F1800
G1 E0.800 F1800
G1 E0.1500 F120
G4 P300
G1 X104.000 Y104.000 Z41.250 E0.97959 F360
G1 E0.0750 F120
G4 P300
G1 X116.000 Y104.000 Z41.250 E0.97959 F360
G1 E0.0750 F120
G4 P300
G1 X128.000 Y104.000 Z41.250 E0.97959 F360
G1 E0.0750 F120
G4 P300
G1 E-0.800 F2400
G0 X128.000 Y104.000 Z42.250 F1800
G0 X128.000 Y92.000 Z42.250 F7200
G0 X128.000 Y92.000 Z41.250 F1800
G1 E0.800 F1800
G1 E0.1500 F120
G4 P300
G1 X116.000 Y92.000 Z41.250 E0.97959 F360
G1 E0.0750 F120
G4 P300
G1 X104.000 Y92.000 Z41.250 E0.97959 F360
G1 E0.0750 F120
G4 P300
G1 X92.000 Y92.000 Z41.250 E0.97959 F360
G1 E0.0750 F120
G4 P300
G1 E0.1500 F120
G4 P300
G1 X92.000 Y104.000 Z41.250 E0.97959 F360
G1 E0.0750 F120
G4 P300
G1 X92.000 Y116.000 Z41.250 E0.97959 F360
G1 E0.0750 F120
G4 P300
G1 X92.000 Y128.000 Z41.250 E0.97959 F360
G1 E0.0750 F120
G4 P300
G1 E-0.800 F2400
G0 X92.000 Y128.000 Z42.250 F1800
G0 X104.000 Y128.000 Z42.250 F7200
G0 X104.000 Y128.000 Z41.250 F1800
G1 E0.800 F1800
G1 E0.1500 F120
G4 P300
G1 X104.000 Y116.000 Z41.250 E0.97959 F360
G1 E0.0750 F120
G4 P300
G1 X104.000 Y104.000 Z41.250 E0.97959 F360
G1 E0.0750 F120
G4 P300
G1 X104.000 Y92.000 Z41.250 E0.97959 F360
G1 E0.0750 F120
G4 P300
G1 E-0.800 F2400
G0 X104.000 Y92.000 Z42.250 F1800
G0 X116.000 Y92.000 Z42.250 F7200
G0 X116.000 Y92.000 Z41.250 F1800
G1 E0.800 F1800
G1 E0.1500 F120
G4 P300
G1 X116.000 Y104.000 Z41.250 E0.97959 F360
G1 E0.0750 F120
G4 P300
G1 X116.000 Y116.000 Z41.250 E0.97959 F360
G1 E0.0750 F120
G4 P300
G1 X116.000 Y128.000 Z41.250 E0.97959 F360
G1 E0.0750 F120
G4 P300
G1 E-0.800 F2400
G0 X116.000 Y128.000 Z42.250 F1800
G0 X128.000 Y128.000 Z42.250 F7200
G0 X128.000 Y128.000 Z41.250 F1800
G1 E0.800 F1800
G1 E0.1500 F120
G4 P300
G1 X128.000 Y116.000 Z41.250 E0.97959 F360
G1 E0.0750 F120
G4 P300
G1 X128.000 Y104.000 Z41.250 E0.97959 F360
G1 E0.0750 F120
G4 P300
G1 X128.000 Y92.000 Z41.250 E0.97959 F360
G1 E0.0750 F120
G4 P300
G1 E-0.800 F2400
; LEVEL 10/10  z 41.25 -> 45.75
G0 X128.000 Y92.000 Z42.250 F1800
G0 X92.000 Y92.000 Z42.250 F7200
G0 X92.000 Y92.000 Z41.250 F1800
G1 E0.800 F1800
G1 E0.1500 F120
G4 P300
G1 X92.000 Y92.000 Z46.050 E0.39184 F180
G4 P800
G0 X92.000 Y92.000 Z45.750 F180
G1 X104.000 Y92.000 Z41.250 E0.94158 F360
G1 E0.1500 F120
G4 P300
G1 X104.000 Y92.000 Z46.050 E0.39184 F180
G4 P800
G0 X104.000 Y92.000 Z45.750 F180
G1 X116.000 Y92.000 Z41.250 E0.94158 F360
G1 E0.1500 F120
G4 P300
G1 X116.000 Y92.000 Z46.050 E0.39184 F180
G4 P800
G0 X116.000 Y92.000 Z45.750 F180
G1 X128.000 Y92.000 Z41.250 E0.94158 F360
G1 E0.1500 F120
G4 P300
G1 X128.000 Y92.000 Z46.050 E0.39184 F180
G4 P800
G0 X128.000 Y92.000 Z45.750 F180
G1 X128.000 Y104.000 Z41.250 E0.94158 F360
G1 E0.1500 F120
G4 P300
G1 X128.000 Y104.000 Z46.050 E0.39184 F180
G4 P800
G0 X128.000 Y104.000 Z45.750 F180
G1 X116.000 Y104.000 Z41.250 E0.94158 F360
G1 E0.1500 F120
G4 P300
G1 X116.000 Y104.000 Z46.050 E0.39184 F180
G4 P800
G0 X116.000 Y104.000 Z45.750 F180
G1 X104.000 Y104.000 Z41.250 E0.94158 F360
G1 E0.1500 F120
G4 P300
G1 X104.000 Y104.000 Z46.050 E0.39184 F180
G4 P800
G0 X104.000 Y104.000 Z45.750 F180
G1 X92.000 Y104.000 Z41.250 E0.94158 F360
G1 E0.1500 F120
G4 P300
G1 X92.000 Y104.000 Z46.050 E0.39184 F180
G4 P800
G0 X92.000 Y104.000 Z45.750 F180
G1 X92.000 Y116.000 Z41.250 E0.94158 F360
G1 E0.1500 F120
G4 P300
G1 X92.000 Y116.000 Z46.050 E0.39184 F180
G4 P800
G0 X92.000 Y116.000 Z45.750 F180
G1 X104.000 Y116.000 Z41.250 E0.94158 F360
G1 E0.1500 F120
G4 P300
G1 X104.000 Y116.000 Z46.050 E0.39184 F180
G4 P800
G0 X104.000 Y116.000 Z45.750 F180
G1 X116.000 Y116.000 Z41.250 E0.94158 F360
G1 E0.1500 F120
G4 P300
G1 X116.000 Y116.000 Z46.050 E0.39184 F180
G4 P800
G0 X116.000 Y116.000 Z45.750 F180
G1 X128.000 Y116.000 Z41.250 E0.94158 F360
G1 E0.1500 F120
G4 P300
G1 X128.000 Y116.000 Z46.050 E0.39184 F180
G4 P800
G0 X128.000 Y116.000 Z45.750 F180
G1 X128.000 Y128.000 Z41.250 E0.94158 F360
G1 E0.1500 F120
G4 P300
G1 X128.000 Y128.000 Z46.050 E0.39184 F180
G4 P800
G0 X128.000 Y128.000 Z45.750 F180
G1 X116.000 Y128.000 Z41.250 E0.94158 F360
G1 E0.1500 F120
G4 P300
G1 X116.000 Y128.000 Z46.050 E0.39184 F180
G4 P800
G0 X116.000 Y128.000 Z45.750 F180
G1 X104.000 Y128.000 Z41.250 E0.94158 F360
G1 E0.1500 F120
G4 P300
G1 X104.000 Y128.000 Z46.050 E0.39184 F180
G4 P800
G0 X104.000 Y128.000 Z45.750 F180
G1 X92.000 Y128.000 Z41.250 E0.94158 F360
G1 E0.1500 F120
G4 P300
G1 X92.000 Y128.000 Z46.050 E0.39184 F180
G4 P800
G0 X92.000 Y128.000 Z45.750 F180
G1 E0.1500 F120
G4 P300
G1 X104.000 Y128.000 Z45.750 E0.97959 F360
G1 E0.0750 F120
G4 P300
G1 X116.000 Y128.000 Z45.750 E0.97959 F360
G1 E0.0750 F120
G4 P300
G1 X128.000 Y128.000 Z45.750 E0.97959 F360
G1 E0.0750 F120
G4 P300
G1 E-0.800 F2400
G0 X128.000 Y128.000 Z46.750 F1800
G0 X128.000 Y116.000 Z46.750 F7200
G0 X128.000 Y116.000 Z45.750 F1800
G1 E0.800 F1800
G1 E0.1500 F120
G4 P300
G1 X116.000 Y116.000 Z45.750 E0.97959 F360
G1 E0.0750 F120
G4 P300
G1 X104.000 Y116.000 Z45.750 E0.97959 F360
G1 E0.0750 F120
G4 P300
G1 X92.000 Y116.000 Z45.750 E0.97959 F360
G1 E0.0750 F120
G4 P300
G1 E-0.800 F2400
G0 X92.000 Y116.000 Z46.750 F1800
G0 X92.000 Y104.000 Z46.750 F7200
G0 X92.000 Y104.000 Z45.750 F1800
G1 E0.800 F1800
G1 E0.1500 F120
G4 P300
G1 X104.000 Y104.000 Z45.750 E0.97959 F360
G1 E0.0750 F120
G4 P300
G1 X116.000 Y104.000 Z45.750 E0.97959 F360
G1 E0.0750 F120
G4 P300
G1 X128.000 Y104.000 Z45.750 E0.97959 F360
G1 E0.0750 F120
G4 P300
G1 E-0.800 F2400
G0 X128.000 Y104.000 Z46.750 F1800
G0 X128.000 Y92.000 Z46.750 F7200
G0 X128.000 Y92.000 Z45.750 F1800
G1 E0.800 F1800
G1 E0.1500 F120
G4 P300
G1 X116.000 Y92.000 Z45.750 E0.97959 F360
G1 E0.0750 F120
G4 P300
G1 X104.000 Y92.000 Z45.750 E0.97959 F360
G1 E0.0750 F120
G4 P300
G1 X92.000 Y92.000 Z45.750 E0.97959 F360
G1 E0.0750 F120
G4 P300
G1 E0.1500 F120
G4 P300
G1 X92.000 Y104.000 Z45.750 E0.97959 F360
G1 E0.0750 F120
G4 P300
G1 X92.000 Y116.000 Z45.750 E0.97959 F360
G1 E0.0750 F120
G4 P300
G1 X92.000 Y128.000 Z45.750 E0.97959 F360
G1 E0.0750 F120
G4 P300
G1 E-0.800 F2400
G0 X92.000 Y128.000 Z46.750 F1800
G0 X104.000 Y128.000 Z46.750 F7200
G0 X104.000 Y128.000 Z45.750 F1800
G1 E0.800 F1800
G1 E0.1500 F120
G4 P300
G1 X104.000 Y116.000 Z45.750 E0.97959 F360
G1 E0.0750 F120
G4 P300
G1 X104.000 Y104.000 Z45.750 E0.97959 F360
G1 E0.0750 F120
G4 P300
G1 X104.000 Y92.000 Z45.750 E0.97959 F360
G1 E0.0750 F120
G4 P300
G1 E-0.800 F2400
G0 X104.000 Y92.000 Z46.750 F1800
G0 X116.000 Y92.000 Z46.750 F7200
G0 X116.000 Y92.000 Z45.750 F1800
G1 E0.800 F1800
G1 E0.1500 F120
G4 P300
G1 X116.000 Y104.000 Z45.750 E0.97959 F360
G1 E0.0750 F120
G4 P300
G1 X116.000 Y116.000 Z45.750 E0.97959 F360
G1 E0.0750 F120
G4 P300
G1 X116.000 Y128.000 Z45.750 E0.97959 F360
G1 E0.0750 F120
G4 P300
G1 E-0.800 F2400
G0 X116.000 Y128.000 Z46.750 F1800
G0 X128.000 Y128.000 Z46.750 F7200
G0 X128.000 Y128.000 Z45.750 F1800
G1 E0.800 F1800
G1 E0.1500 F120
G4 P300
G1 X128.000 Y116.000 Z45.750 E0.97959 F360
G1 E0.0750 F120
G4 P300
G1 X128.000 Y104.000 Z45.750 E0.97959 F360
G1 E0.0750 F120
G4 P300
G1 X128.000 Y92.000 Z45.750 E0.97959 F360
G1 E0.0750 F120
G4 P300
G1 E-0.800 F2400
; ---- end ----
G1 E-2 F2400
G0 Z65.75 F600
G0 X110.0 Y210.0 F6000
M104 S0
M140 S0
M107
M84
